{
"type": "FeatureCollection",
"name": "BZEE_Sepakat",
"crs": { "type": "name", "properties": { "name": "urn:ogc:def:crs:OGC:1.3:CRS84" } },
"features": [
{ "type": "Feature", "properties": { "fid": 1, "ID": "0", "Jenis": "Unilateral", "TipeZona": "Batas ZEE", "Datum": "WGS-84", "Panjang": "734.073 mil laut", "Batas_Ngr": "-", "StatusLaut": "Unilateral", "Jenis_Janj": "-", "Janji_Tgl": "-", "Janji_Thn": null, "Ratif_Jns": "-", "Ratif_No": null, "Ratif_Thn": null }, "geometry": { "type": "MultiLineString", "coordinates": [ [ [ 129.525277777777802, 6.405555555555556 ], [ 129.880480928848357, 6.664752528056446 ], [ 129.883475962432669, 6.660303070037743 ], [ 129.930505876475962, 6.590434862463999 ], [ 129.98446812117902, 6.50473435196461 ], [ 130.035797605468332, 6.417416013617101 ], [ 130.08444678343028, 6.328560112587253 ], [ 130.130370591888521, 6.238248389064096 ], [ 130.173526492145044, 6.146563984572461 ], [ 130.213874509383686, 6.053591366657853 ], [ 130.251377269698082, 5.959416252008583 ], [ 130.286000034710781, 5.864125528083883 ], [ 130.317710733751056, 5.767807173320437 ], [ 130.321110733751027, 5.756924851731236 ], [ 130.349488639856872, 5.661065880076911 ], [ 130.374983258025139, 5.564381086887782 ], [ 130.397571644785074, 5.466957371874535 ], [ 130.403867896859111, 5.435552840362212 ], [ 130.456384036258584, 5.400671761821159 ], [ 130.542978406536861, 5.339077366430334 ], [ 130.627567717700259, 5.274738271637889 ], [ 130.710065821623289, 5.207719226201007 ], [ 130.790388699924364, 5.138087715941907 ], [ 130.8684545495328, 5.065913899836613 ], [ 130.944183865999122, 4.991270543243327 ], [ 131.017499524464711, 4.914232948304673 ], [ 131.071706219146137, 4.853500439536015 ], [ 131.088326858207921, 4.834878881562543 ], [ 131.156593734686794, 4.753288498828916 ], [ 131.222230629000705, 4.669544267360987 ], [ 131.285170694696689, 4.583730885393935 ], [ 131.345349831847614, 4.49593519908992 ], [ 131.386463099262215, 4.431647458256408 ], [ 131.396362125, 4.419384577417015 ] ], [ [ 132.923508547499978, 3.977290439925352 ], [ 132.97494853850236, 4.01074897391142 ], [ 133.069857618077862, 4.050228200956014 ], [ 133.165935085990185, 4.086744640071142 ], [ 133.263089360358265, 4.120263878690133 ], [ 133.361227832879848, 4.150754338413955 ], [ 133.460256957106395, 4.17818730234757 ], [ 133.560082337612329, 4.202536939893608 ], [ 133.660608819973675, 4.223780329000198 ], [ 133.761740581470065, 4.241897475860592 ], [ 133.863381222423726, 4.256871332062865 ], [ 133.965433858088574, 4.268687809188519 ], [ 134.067801211001637, 4.277335790859171 ], [ 134.170385703708575, 4.282807142230873 ], [ 134.273089551775655, 4.285096716935727 ], [ 134.375814856998431, 4.284202361470673 ], [ 134.478463700719374, 4.280124917033345 ], [ 134.580938237164787, 4.272868218805001 ], [ 134.683140786712073, 4.262439092680506 ], [ 134.784973928999023, 4.248847349445439 ], [ 134.831073928999018, 4.241965604186327 ], [ 134.933010122395757, 4.225120675030499 ], [ 135.034376306093691, 4.205106332193107 ], [ 135.13507476536472, 4.181941624420253 ], [ 135.235008429152145, 4.155648603135109 ], [ 135.33408096364488, 4.126252303286977 ], [ 135.432196865141208, 4.093780721563617 ], [ 135.529261552112246, 4.05826479196912 ], [ 135.625181456376197, 4.019738358770146 ], [ 135.719864113296296, 3.978238146814533 ], [ 135.813218250914304, 3.933803729227204 ], [ 135.905153877934907, 3.886477492489723 ], [ 135.995582370475148, 3.836304598911346 ], [ 136.084416557495985, 3.783332946501089 ], [ 136.171570804833038, 3.727613126252276 ], [ 136.256961097746199, 3.669198376853216 ], [ 136.340505121907825, 3.608144536839931 ], [ 136.422122342752004, 3.544509994209462 ], [ 136.50173408310792, 3.478355633515077 ], [ 136.579263599043088, 3.409744780467655 ], [ 136.654636153842603, 3.338743144070689 ], [ 136.727779090053758, 3.265418756319762 ], [ 136.798621899526154, 3.189841909500867 ], [ 136.867096291379994, 3.112085091125629 ], [ 136.933136257836964, 3.032222916545399 ], [ 136.996678137850239, 2.950332059290134 ], [ 137.057660678472331, 2.866491179182089 ], [ 137.530436166719028, 2.194655001235747 ], [ 137.576708386187335, 2.167521509516827 ], [ 137.665998070792881, 2.111278141642035 ], [ 137.753473168250224, 2.052217049990676 ], [ 137.782835551440201, 2.031706121517902 ], [ 138.578286486518266, 1.832805693663807 ], [ 139.205301058027487, 1.738966136853935 ], [ 139.313295637903451, 1.720971230730159 ], [ 139.420643541393417, 1.699411167578732 ], [ 139.527228584629427, 1.674309163992724 ], [ 139.632935409396026, 1.645692254837061 ], [ 139.737649607983599, 1.613591265982143 ], [ 139.841257847013225, 1.57804078315422 ], [ 139.94364799009881, 1.539079116911401 ], [ 140.044709219213388, 1.496748263756002 ], [ 140.144332154628898, 1.451093863396227 ], [ 140.242408973299007, 1.402165152172533 ], [ 140.3094225816765, 1.367335643932699 ], [ 140.81052645785806, 1.106892996430963 ], [ 140.80972220000001, 1.026388889 ] ] ] } },
{ "type": "Feature", "properties": { "fid": 2, "ID": "2", "Jenis": "Unilateral", "TipeZona": "Batas ZEE", "Datum": "WGS-84", "Panjang": "942.465 mil laut", "Batas_Ngr": "-", "StatusLaut": "Unilateral", "Jenis_Janj": "-", "Janji_Tgl": "-", "Janji_Thn": null, "Ratif_Jns": "-", "Ratif_No": null, "Ratif_Thn": null }, "geometry": { "type": "MultiLineString", "coordinates": [ [ [ 102.569122404611875, -8.829764578007618 ], [ 102.512006368611267, -8.83396428518123 ], [ 102.405329452308578, -8.840096844593816 ], [ 102.298509565898058, -8.842819212824113 ], [ 102.191656873925709, -8.842128658847214 ], [ 102.084881574770321, -8.838025875403337 ], [ 101.978293786994598, -8.830514978399714 ], [ 101.872003435778637, -8.819603503356273 ], [ 101.766120139552939, -8.805302398893861 ], [ 101.660753096947531, -8.787626017263145 ], [ 101.55601097417437, -8.766592101911295 ], [ 101.452001792958583, -8.742221772083077 ], [ 101.348832819134401, -8.714539504452151 ], [ 101.246610452020818, -8.68357311177815 ], [ 101.145440114690672, -8.649353718584724 ], [ 101.045426145246751, -8.611915733853808 ], [ 100.9466716892166, -8.571296820731432 ], [ 100.849278593177544, -8.527537863240994 ], [ 100.753347299721071, -8.480682930000446 ], [ 100.65897674386521, -8.430779234941078 ], [ 100.637276743865229, -8.418854514720509 ], [ 100.550171358418808, -8.369263298423679 ], [ 100.464607112567265, -8.317072361689362 ], [ 100.380661811490313, -8.262328162802772 ], [ 100.298411788230823, -8.205079464896171 ], [ 100.217931834283576, -8.145377296669219 ], [ 100.139295131586024, -8.083274911068786 ], [ 100.062573185972539, -8.018827741936553 ], [ 99.987835762152798, -7.95209335863473 ], [ 99.827235762152796, -7.804241101114621 ], [ 99.751593687993974, -7.732357802296887 ], [ 99.67825172026474, -7.658128253989084 ], [ 99.607282172869034, -7.581624547292302 ], [ 99.538755020545608, -7.502921042509213 ], [ 99.472737829874205, -7.422094301132041 ], [ 98.525379546444412, -6.222620595121172 ], [ 97.944914488797025, -5.625273661970498 ], [ 97.878765468880033, -5.555157943968443 ], [ 97.814669364411344, -5.483144930683256 ], [ 97.752679862619758, -5.409294368796576 ], [ 97.692848886232824, -5.333667567688225 ], [ 97.635226549986015, -5.256327350515668 ], [ 97.436752254467308, -4.981658853687365 ], [ 96.736343714072333, -4.246140409398448 ], [ 96.606416629860931, -4.124421395550993 ], [ 96.533840489152823, -4.054329257031968 ], [ 96.46340979944685, -3.982057541227477 ], [ 96.395189065227527, -3.907671978375602 ], [ 96.329240766974877, -3.831240257400238 ], [ 96.265625303941022, -3.75283196642867 ], [ 96.204400938833174, -3.672518531370599 ], [ 96.145623744453275, -3.590373152599657 ], [ 96.089347552343298, -3.506470739781965 ], [ 96.035623903483142, -3.420887844899766 ], [ 95.794819734388895, -3.024002513529758 ], [ 95.127711371756035, -2.014358993160339 ], [ 95.079899563004361, -1.945524124880924 ], [ 95.025649448065053, -1.862247163224424 ], [ 94.973884637598744, -1.777379663107377 ], [ 94.218584637598724, -0.496370447256611 ], [ 94.19964961738178, -0.463084326300684 ], [ 93.693764655111607, 0.035086804331144 ], [ 93.279044217813663, 0.378519269174811 ], [ 93.198310312327322, 0.447572642689906 ], [ 93.119800951316094, 0.519177700286785 ], [ 93.043595719371481, 0.593261662200735 ], [ 92.969771865399437, 0.669749211108315 ], [ 92.898404224313794, 0.748562567959465 ], [ 92.829565141176118, 0.829621570535415 ], [ 92.76332439786006, 0.912843754665622 ], [ 92.699749142313664, 0.99814443803205 ], [ 92.638903820491876, 1.08543680648403 ], [ 92.580850111027871, 1.174632002781894 ], [ 92.525646862709763, 1.265639217682491 ], [ 92.473350034825842, 1.358365783274617 ], [ 92.424012640438832, 1.452717268467383 ], [ 92.377684692646909, 1.548597576529601 ], [ 92.334413153885507, 1.645909044573461 ], [ 92.326613153885518, 1.664226296711552 ], [ 92.288390505993092, 1.75786996167987 ], [ 92.252998642634466, 1.852628769870901 ], [ 92.220469917498306, 1.948415664210747 ], [ 92.190834066917915, 2.045142642945944 ], [ 92.164118182687574, 2.142720842505614 ], [ 92.142150027838341, 2.233600421267198 ] ] ] } },
{ "type": "Feature", "properties": { "fid": 3, "ID": "3", "Jenis": "Bilateral", "TipeZona": "Batas ZEE", "Datum": "WGS-84", "Panjang": "378.385 mil laut", "Batas_Ngr": "Australia", "StatusLaut": "Kesepakatan sudah ratifikasi", "Jenis_Janj": "Agreement", "Janji_Tgl": "18 Mei", "Janji_Thn": 1971, "Ratif_Jns": "KEPPRES", "Ratif_No": 42, "Ratif_Thn": 1971 }, "geometry": { "type": "MultiLineString", "coordinates": [ [ [ 139.200002050192552, -10.833331765538988 ], [ 139.2, -10.833333333333302 ], [ 138.633333333332985, -10.4 ], [ 138.583333333333002, -10.366666666666699 ], [ 138.21666666666701, -10.15 ], [ 137.75, -9.95 ], [ 135.483333333333007, -9.133333333333329 ], [ 135.21666666666701, -9.28333333333333 ], [ 135.05, -9.366666666666671 ], [ 134.833333333333002, -9.41666666666667 ], [ 133.383333333332985, -8.883333333333329 ] ] ] } },
{ "type": "Feature", "properties": { "fid": 4, "ID": "6", "Jenis": "Bilateral", "TipeZona": "Batas ZEE", "Datum": "WGS-84", "Panjang": "627.515 mil laut", "Batas_Ngr": "Filipina", "StatusLaut": "Kesepakatan sudah ratifikasi", "Jenis_Janj": "Treaty", "Janji_Tgl": "23 Mei", "Janji_Thn": 2014, "Ratif_Jns": "UU", "Ratif_No": 4, "Ratif_Thn": 2017 }, "geometry": { "type": "MultiLineString", "coordinates": [ [ [ 119.926090277777746, 3.111347222222224 ], [ 121.358636030531898, 3.443416160157606 ], [ 122.93416666666667, 3.816111111111111 ], [ 124.854722222222222, 4.961666666666667 ], [ 125.472222222222229, 5.046666666666667 ], [ 127.195, 6.4225 ], [ 128.65055555555557, 6.406944444444445 ], [ 129.525277777777802, 6.405555555555556 ] ] ] } },
{ "type": "Feature", "properties": { "fid": 5, "ID": "26", "Jenis": "Unilateral", "TipeZona": "Batas ZEE", "Datum": "WGS-84", "Panjang": "560.184 mil laut", "Batas_Ngr": "-", "StatusLaut": "Unilateral", "Jenis_Janj": "-", "Janji_Tgl": "-", "Janji_Thn": null, "Ratif_Jns": "-", "Ratif_No": null, "Ratif_Thn": null }, "geometry": { "type": "MultiLineString", "coordinates": [ [ [ 118.170357248653104, -13.015994204850767 ], [ 117.310284360558626, -12.495093679278863 ], [ 117.223508272373181, -12.440638567454201 ], [ 117.158127533043825, -12.396745088278097 ], [ 117.150193743618686, -12.397193748835106 ], [ 117.04266842553001, -12.39985145566137 ], [ 116.935111896362073, -12.399091629234793 ], [ 116.82763654755486, -12.394915033281578 ], [ 116.720354685718675, -12.387325866012498 ], [ 116.613378415279243, -12.376331756643626 ], [ 116.506819521333796, -12.361943759068417 ], [ 116.400789352841088, -12.344176342677491 ], [ 115.390189352841105, -12.158184745906254 ], [ 115.305750705305059, -12.141382530832468 ], [ 115.235200456426497, -12.143666440545934 ], [ 115.135539151592013, -12.143954394419373 ], [ 115.035913786709457, -12.141305462311875 ], [ 114.968913786709436, -12.138535475276571 ], [ 114.862553025794327, -12.132458342132738 ], [ 114.756444521947614, -12.123033529505358 ], [ 114.173644521947622, -12.061989314606334 ], [ 114.076528927413889, -12.050392282123013 ], [ 113.979801691628097, -12.035989543014756 ], [ 113.883546427514574, -12.018793092268904 ], [ 113.787846340016031, -11.998817255351296 ], [ 112.814701068453246, -11.780828487521179 ], [ 111.494823199332529, -11.697092968037445 ], [ 111.400649654790087, -11.689793101704714 ], [ 111.306724319040072, -11.67986109331528 ], [ 111.21312289615139, -11.667304662225034 ], [ 111.119920829118385, -11.652133569351065 ], [ 110.922720829118376, -11.617189457185985 ], [ 110.817163452405623, -11.59674072565565 ], [ 110.014363452405632, -11.427830917622977 ], [ 109.920892334303048, -11.406764307077339 ], [ 109.828075271768412, -11.383047618936528 ], [ 109.735989333388446, -11.356699881155668 ], [ 109.644710980677189, -11.327742241058134 ], [ 109.554316004587832, -11.296197950979495 ], [ 109.350812237299849, -11.221896799751516 ], [ 108.963922340526722, -11.098738804236547 ] ] ] } },
{ "type": "Feature", "properties": { "fid": 6, "ID": "27", "Jenis": "Unilateral", "TipeZona": "Batas ZEE", "Datum": "WGS-84", "Panjang": "94.025 mil laut", "Batas_Ngr": "-", "StatusLaut": "Unilateral", "Jenis_Janj": "-", "Janji_Tgl": "-", "Janji_Thn": null, "Ratif_Jns": "-", "Ratif_No": null, "Ratif_Thn": null }, "geometry": { "type": "MultiLineString", "coordinates": [ [ [ 92.142150079306859, 2.233600439284375 ], [ 92.1403466872965, 2.241060621267202 ], [ 92.119541311602802, 2.340071644132237 ], [ 92.10172107496804, 2.4396629678167 ], [ 92.086902267870713, 2.53974312675886 ], [ 92.075098437014063, 2.640220219545944 ], [ 92.066320372942371, 2.741001995759849 ], [ 92.060576100176689, 2.841995943141098 ], [ 92.057870869879125, 2.943109374969564 ], [ 92.047807523485872, 3.801920667061794 ] ] ] } },
{ "type": "Feature", "properties": { "fid": 7, "ID": "24", "Jenis": "Unilateral", "TipeZona": "Batas ZEE", "Datum": "WGS-84", "Panjang": "93.762 mil laut", "Batas_Ngr": "-", "StatusLaut": "Unilateral", "Jenis_Janj": "-", "Janji_Tgl": "-", "Janji_Thn": null, "Ratif_Jns": "-", "Ratif_No": null, "Ratif_Thn": null }, "geometry": { "type": "MultiLineString", "coordinates": [ [ [ 109.895446827472284, 7.552839838111181 ], [ 109.90122544550006, 7.548904051166735 ], [ 109.906996706916715, 7.544953551000068 ], [ 109.912760611722277, 7.540995694222291 ], [ 109.918517159916718, 7.537023124222292 ], [ 109.924262673194505, 7.53303584100007 ], [ 109.930000829861171, 7.529041201166736 ], [ 109.935731629916717, 7.525031848111182 ], [ 109.941451395055608, 7.521007781833402 ], [ 109.94716748188894, 7.516976358944513 ], [ 109.952868855500057, 7.512930222833402 ], [ 109.958566550805614, 7.508873051805624 ], [ 109.964253211194503, 7.504804845861182 ], [ 109.969932514972271, 7.500725605000069 ], [ 109.975604462138946, 7.496631650916738 ], [ 109.98126537438894, 7.492526661916736 ], [ 109.986918930027826, 7.488410638000071 ], [ 109.99256145075006, 7.484283579166737 ], [ 109.998200293166718, 7.480141807111179 ], [ 110.003828100666723, 7.475989000138958 ], [ 110.009444873250061, 7.471825158250068 ], [ 110.015054289222277, 7.467650281444511 ], [ 110.020656348583387, 7.46346436972229 ], [ 110.026247373027829, 7.459263744777848 ], [ 110.031831040861164, 7.455052084916735 ], [ 110.037403673777831, 7.450829390138958 ], [ 110.042972628388938, 7.446595660444514 ], [ 110.048526869777831, 7.442350895833401 ], [ 110.054077432861163, 7.438095096305625 ], [ 110.059613282722282, 7.433824583555625 ], [ 110.065145454277825, 7.429543035888956 ], [ 110.070666590916716, 7.425250453305624 ], [ 110.076176692638938, 7.420946835805625 ], [ 110.081679437750054, 7.416632183388961 ], [ 110.087174826250049, 7.412306496055626 ], [ 110.09265917983339, 7.40796609550007 ], [ 110.09813249850005, 7.403614660027847 ], [ 110.103602138861163, 7.399255867944513 ], [ 110.109057066000048, 7.394882362638958 ], [ 110.11450463652784, 7.390497822416735 ], [ 110.119944850444497, 7.386102247277845 ], [ 110.125374029444501, 7.381695637222291 ], [ 110.130795851833383, 7.377274313944513 ], [ 110.136206639305612, 7.372845634055624 ], [ 110.14160639186116, 7.368405919250071 ], [ 110.146998787805614, 7.363951491222293 ], [ 110.152383827138948, 7.359489706583402 ], [ 110.157757831555614, 7.355013208722292 ], [ 110.163120801055612, 7.350525675944516 ], [ 110.168476413944504, 7.346027108250068 ], [ 110.173820991916728, 7.341521183944513 ], [ 110.17915821327783, 7.337000546416734 ], [ 110.18448439972228, 7.332468873972291 ], [ 110.189799551250061, 7.327926166611183 ], [ 110.195107346166722, 7.323372424333401 ], [ 110.200407784472276, 7.318807647138959 ], [ 110.205693509555616, 7.314231835027849 ], [ 110.210971878027834, 7.309644988000068 ], [ 110.216242889888946, 7.305047106055623 ], [ 110.22150286683339, 7.300438189194514 ], [ 110.226751808861167, 7.295818237416738 ], [ 110.231993394277836, 7.29118725072229 ], [ 110.237220266472278, 7.286545229111178 ], [ 110.242443460361159, 7.281892172583403 ], [ 110.24765194102784, 7.277228081138956 ], [ 110.252853065083386, 7.272552954777845 ], [ 110.258046832527839, 7.267866793500067 ], [ 110.26322588675005, 7.263169597305625 ], [ 110.268397584361168, 7.258461366194512 ], [ 110.273558247055604, 7.253745778472291 ], [ 110.278711553138947, 7.249015477527847 ], [ 110.283853824305609, 7.244274141666734 ], [ 110.288985060555603, 7.239525449194511 ], [ 110.294105261888944, 7.234762043500067 ], [ 110.299218106611164, 7.229991281194513 ], [ 110.304319916416716, 7.225205805666734 ], [ 110.309410691305615, 7.220412973527845 ], [ 110.314494109583393, 7.215609106472291 ], [ 110.319562814638942, 7.21079420450007 ], [ 110.324624163083385, 7.205968267611178 ], [ 110.329678154916721, 7.201131295805625 ], [ 110.334717433527828, 7.196286967388959 ], [ 110.339749355527829, 7.191427925750068 ], [ 110.344770242611162, 7.18656152750007 ], [ 110.349780094777827, 7.181680416027847 ], [ 110.354782590333386, 7.17679194794451 ], [ 110.359770372666716, 7.171892444944513 ], [ 110.36475079838894, 7.166985585333402 ], [ 110.369720189194496, 7.162064012500069 ], [ 110.374678545083384, 7.15713140475007 ], [ 110.379629544361165, 7.152191440388956 ], [ 110.384565830416719, 7.147240441111178 ], [ 110.389494759861165, 7.142278406916736 ], [ 110.394412654388944, 7.137305337805623 ], [ 110.399319514000055, 7.1323249120834 ], [ 110.404215338694499, 7.127329773138955 ], [ 110.409100128472275, 7.122327277583404 ], [ 110.413977561638944, 7.117313747111178 ], [ 110.418843959888946, 7.112292860027845 ], [ 110.42369564491672, 7.10725725972229 ], [ 110.428539973333386, 7.102214302805626 ], [ 110.433373266833385, 7.09716031097229 ], [ 110.438195525416717, 7.092095284222291 ], [ 110.443010427388941, 7.08702290086118 ], [ 110.447810616138938, 7.081935804277846 ], [ 110.452599769972281, 7.076841351083401 ], [ 110.457381567194503, 7.071739541277845 ], [ 110.462152329500057, 7.066623018250068 ], [ 110.466908378583383, 7.061499138611177 ], [ 110.471657071055617, 7.056364224055626 ], [ 110.476394728611169, 7.051221952888957 ], [ 110.481121351250053, 7.046064968500067 ], [ 110.485836938972284, 7.040900627500067 ], [ 110.490541491777833, 7.035728929888959 ], [ 110.495235009666715, 7.030542519055624 ], [ 110.499917492638943, 7.025348751611178 ], [ 110.504588940694504, 7.020147627555625 ], [ 110.509249353833383, 7.014931790277847 ], [ 110.513898732055608, 7.009708596388956 ], [ 110.518540753666727, 7.004478045888957 ], [ 110.523168062055618, 6.999236460472291 ], [ 110.527784335527826, 6.993983840138958 ], [ 110.532389574083396, 6.988720184888956 ], [ 110.53698745602783, 6.983449173027845 ], [ 110.541570624750051, 6.978167126250066 ], [ 110.546142758555618, 6.972877722861179 ], [ 110.550703857444503, 6.967577284555622 ], [ 110.555253921416721, 6.962265811333401 ], [ 110.559792950472286, 6.956946981500066 ], [ 110.560497372928708, 6.956118484633709 ] ], [ [ 110.560497372928694, 6.95611848463371 ], [ 110.649725406501631, 6.839762350706287 ], [ 110.713188937393042, 6.755356579843411 ], [ 110.773940084732985, 6.66896427093798 ], [ 110.831917621200006, 6.580671649950781 ], [ 110.887063114823491, 6.490566910100498 ], [ 110.939320987873444, 6.398740126516233 ] ] ] } }
]
}
