{
"type": "FeatureCollection",
"name": "BZEE_SepakatPerluRatif",
"crs": { "type": "name", "properties": { "name": "urn:ogc:def:crs:OGC:1.3:CRS84" } },
"features": [
{ "type": "Feature", "properties": { "fid": 16, "ID": "1", "Jenis": "Bilateral", "TipeZona": "Batas ZEE", "Datum": "WGS-84", "Panjang": "924.549 mil laut", "Batas_Ngr": "Australia", "StatusLaut": "Kesepakatan belum ratifikasi", "Jenis_Janj": "Treaty", "Janji_Tgl": "14 Maret", "Janji_Thn": 1997, "Ratif_Jns": "-", "Ratif_No": null, "Ratif_Thn": null }, "geometry": { "type": "MultiLineString", "coordinates": [ [ [ 119.984633604129584, -13.845656099331672 ], [ 119.890923067984474, -13.80552104672989 ], [ 119.790871187828174, -13.758716585485121 ], [ 119.69247106954704, -13.708668183408991 ], [ 119.595832065501384, -13.655429417206566 ], [ 119.501061570919788, -13.599057331508339 ], [ 119.40420344744912, -13.539243124666127 ], [ 119.398793211311741, -13.538103839701188 ], [ 119.298351956074285, -13.515353294188545 ], [ 119.198679270893834, -13.489566280616112 ], [ 119.099870847018238, -13.460766569209765 ], [ 119.002021545957177, -13.428980720421253 ], [ 118.905225308409698, -13.394238064702684 ], [ 118.809575064076128, -13.356570680076743 ], [ 118.715162642440418, -13.316013367492438 ], [ 118.622078684608738, -13.272603623956144 ], [ 118.53041255628915, -13.226381613427858 ], [ 118.440252261995582, -13.177390135472731 ], [ 118.351684360558636, -13.125674591658733 ], [ 118.170357248653104, -13.015994204850767 ] ], [ [ 122.504161457136206, -12.869243733959072 ], [ 122.499462150447542, -12.56878181255189 ], [ 122.492266337080437, -12.277718504522017 ], [ 122.493034058954905, -12.265303387960818 ], [ 122.495856826702507, -12.243426937916956 ], [ 122.501149516229248, -12.216963490283252 ], [ 122.510323511408927, -12.170034976479485 ], [ 122.525495888052248, -12.128399152202459 ], [ 122.552312181654401, -12.072649489187453 ], [ 122.56572032845547, -12.05183157704894 ], [ 122.572071555887561, -12.041951889932358 ], [ 122.58053985913034, -12.034894970563371 ], [ 122.610178920480053, -11.993435569270567 ], [ 122.630820409634339, -11.96803065954221 ], [ 122.67527900165895, -11.9315111018077 ], [ 122.730852241689732, -11.906106192079344 ], [ 122.781662061146449, -11.8886403166411 ], [ 122.831677977174166, -11.863235406912745 ], [ 122.885663410346922, -11.841601538472194 ], [ 122.906304899501208, -11.832868600753072 ], [ 122.920595161223403, -11.826517373320982 ], [ 122.946793974380782, -11.822547856175927 ], [ 122.985695242402315, -11.813021015027793 ], [ 123.004748924698589, -11.813021015027793 ], [ 123.053177033868266, -11.816990532172849 ], [ 123.114307597902112, -11.825723469891971 ], [ 123.152414962494646, -11.835250311040104 ], [ 123.189728423658167, -11.843189345330215 ], [ 123.213389633791181, -11.845235435829901 ], [ 123.218088940479845, -11.845822849165986 ], [ 123.22807496719328, -11.848172502510323 ], [ 123.238648407242806, -11.848759915846408 ], [ 123.248047020620149, -11.849347329182493 ], [ 123.252746327308827, -11.851109569190745 ], [ 123.257445633997506, -11.852284395862913 ], [ 123.260970114014015, -11.854046635871168 ], [ 123.26743166071094, -11.85698370255159 ], [ 123.276830274088297, -11.861683009240265 ], [ 123.288578540809979, -11.86638231592894 ], [ 123.295040087506905, -11.869319382609362 ], [ 123.302676460876, -11.874606102634122 ], [ 123.308550594236848, -11.877543169314544 ], [ 123.316186967605944, -11.882242476003219 ], [ 123.330284887671979, -11.889291436036233 ], [ 123.352019181107096, -11.90221452943009 ], [ 123.371991234533965, -11.916312449496116 ], [ 123.387851394608248, -11.926885889545636 ], [ 123.401949314674269, -11.936284502922987 ], [ 123.419571714756813, -11.95273207633335 ], [ 123.428382914798078, -11.965067756391123 ], [ 123.435431874831082, -11.97387895643239 ], [ 123.443068248200177, -11.98327756980974 ], [ 123.450704621569287, -11.994438423195344 ], [ 123.453641688249704, -12.000312556556189 ], [ 123.459515821610552, -12.009123756597456 ], [ 123.4653899549714, -12.019109783310894 ], [ 123.470089261660078, -12.027920983352161 ], [ 123.481250115045682, -12.048480450115115 ], [ 123.494173208439534, -12.068452503541986 ], [ 123.503571821816891, -12.086074903624517 ], [ 123.508858541841647, -12.094886103665784 ], [ 123.510620781849894, -12.097823170346206 ], [ 123.512970435194248, -12.103697303707042 ], [ 123.520313101895297, -12.12719383715042 ], [ 123.521487928567467, -12.130718317166927 ], [ 123.523837581911806, -12.136886157195814 ], [ 123.525599821920054, -12.140704343880362 ], [ 123.526774648592223, -12.146284770573164 ], [ 123.527949475264393, -12.150396663925756 ], [ 123.529418008604608, -12.155095970614431 ], [ 123.531473955280902, -12.16155751731136 ], [ 123.534411021961319, -12.170075010684583 ], [ 123.537054381973704, -12.179179917393892 ], [ 123.539110328649997, -12.185641464090821 ], [ 123.539697741986089, -12.190340770779496 ], [ 123.540872568658259, -12.194158957464046 ], [ 123.541459981994336, -12.198858264152719 ], [ 123.544984462010845, -12.24937581105598 ], [ 123.550858595371693, -12.310466798008759 ] ], [ [ 119.984633604129584, -13.845656099331672 ], [ 120.122853748180361, -13.898833470853203 ], [ 121.8167, -13.25 ], [ 122.504161457136206, -12.869243733959072 ] ], [ [ 123.550858595371693, -12.310466798008759 ], [ 125.3333, -11.7833 ], [ 125.4167, -11.75 ], [ 125.75, -11.6167 ], [ 126.0, -11.5167 ], [ 126.2, -11.4333 ], [ 126.4667, -11.35 ], [ 126.5167, -11.3333 ], [ 126.5329, -11.3341 ] ], [ [ 128.2079, -10.4866 ], [ 128.2333, -10.4667 ], [ 128.3, -10.4333 ], [ 129.0167, -9.9833 ], [ 129.5, -9.75 ], [ 130.1, -9.65 ], [ 130.7167, -9.75 ], [ 130.9167, -9.7833 ], [ 131.4667, -9.7 ], [ 131.5167, -9.6667 ], [ 131.7167, -9.6 ], [ 131.8667, -9.55 ], [ 131.95, -9.5167 ], [ 132.2, -9.3833 ], [ 132.3333, -9.3333 ], [ 132.5, -9.2667 ], [ 132.55, -9.2333 ], [ 132.7667, -9.1 ], [ 133.383333333332985, -8.883333333333329 ] ] ] } }
]
}
