{
"type": "FeatureCollection",
"name": "GarisPangkal",
"crs": { "type": "name", "properties": { "name": "urn:ogc:def:crs:OGC:1.3:CRS84" } },
"features": [
{ "type": "Feature", "properties": { "fid": 1, "ID": 1, "TipeSegmen": "Garis Pangkal Lurus Kepulauan", "Datum_H": "WGS'84", "Datum_V": "MLWS", "Panjang": 19.173, "Panjang_NM": "19.173 mil laut", "Perairan": "Laut Natuna", "Sumber": "PP", "Sumber_No": 38, "Sumber_Th": 2002 }, "geometry": { "type": "MultiLineString", "coordinates": [ [ [ 104.5756, 1.2408 ], [ 104.8306, 1.0478 ] ] ] } },
{ "type": "Feature", "properties": { "fid": 2, "ID": 2, "TipeSegmen": "Garis Pangkal Lurus Kepulauan", "Datum_H": "WGS'84", "Datum_V": "MLWS", "Panjang": 87.787, "Panjang_NM": "87.787 mil laut", "Perairan": "Laut Natuna", "Sumber": "PP", "Sumber_No": 38, "Sumber_Th": 2002 }, "geometry": { "type": "MultiLineString", "coordinates": [ [ [ 104.8306, 1.0478 ], [ 105.5964, 2.3 ] ] ] } },
{ "type": "Feature", "properties": { "fid": 3, "ID": 3, "TipeSegmen": "Garis Pangkal Lurus Kepulauan", "Datum_H": "WGS'84", "Datum_V": "MLWS", "Panjang": 29.4, "Panjang_NM": "29.4 mil laut", "Perairan": "Laut Natuna", "Sumber": "PP", "Sumber_No": 38, "Sumber_Th": 2002 }, "geometry": { "type": "MultiLineString", "coordinates": [ [ [ 105.5964, 2.3 ], [ 105.3794, 2.7414 ] ] ] } },
{ "type": "Feature", "properties": { "fid": 4, "ID": 4, "TipeSegmen": "Garis Pangkal Lurus Kepulauan", "Datum_H": "WGS'84", "Datum_V": "MLWS", "Panjang": 24.259, "Panjang_NM": "24.259 mil laut", "Perairan": "Laut Natuna", "Sumber": "PP", "Sumber_No": 38, "Sumber_Th": 2002 }, "geometry": { "type": "MultiLineString", "coordinates": [ [ [ 105.3794, 2.7414 ], [ 105.5833, 3.0922 ] ] ] } },
{ "type": "Feature", "properties": { "fid": 5, "ID": 5, "TipeSegmen": "Garis Pangkal Lurus Kepulauan", "Datum_H": "WGS'84", "Datum_V": "MLWS", "Panjang": 26.281, "Panjang_NM": "26.281 mil laut", "Perairan": "Laut Natuna", "Sumber": "PP", "Sumber_No": 38, "Sumber_Th": 2002 }, "geometry": { "type": "MultiLineString", "coordinates": [ [ [ 105.5833, 3.0922 ], [ 105.9511, 3.3311 ] ] ] } },
{ "type": "Feature", "properties": { "fid": 6, "ID": 6, "TipeSegmen": "Garis Pangkal Lurus Kepulauan", "Datum_H": "WGS'84", "Datum_V": "MLWS", "Panjang": 20.371, "Panjang_NM": "20.371 mil laut", "Perairan": "Laut Natuna", "Sumber": "PP", "Sumber_No": 38, "Sumber_Th": 2002 }, "geometry": { "type": "MultiLineString", "coordinates": [ [ [ 105.9511, 3.3311 ], [ 106.2689, 3.4511 ] ] ] } },
{ "type": "Feature", "properties": { "fid": 7, "ID": 7, "TipeSegmen": "Garis Pangkal Lurus Kepulauan", "Datum_H": "WGS'84", "Datum_V": "MLWS", "Panjang": 79.06, "Panjang_NM": "79.06 mil laut", "Perairan": "Laut Natuna", "Sumber": "PP", "Sumber_No": 38, "Sumber_Th": 2002 }, "geometry": { "type": "MultiLineString", "coordinates": [ [ [ 106.2689, 3.4511 ], [ 107.4358, 4.0669 ] ] ] } },
{ "type": "Feature", "properties": { "fid": 8, "ID": 8, "TipeSegmen": "Garis Pangkal Lurus Kepulauan", "Datum_H": "WGS'84", "Datum_V": "MLWS", "Panjang": 31.975, "Panjang_NM": "31.975 mil laut", "Perairan": "Laut Natuna", "Sumber": "PP", "Sumber_No": 38, "Sumber_Th": 2002 }, "geometry": { "type": "MultiLineString", "coordinates": [ [ [ 107.4358, 4.0669 ], [ 107.7214, 4.5192 ] ] ] } },
{ "type": "Feature", "properties": { "fid": 9, "ID": 9, "TipeSegmen": "Garis Pangkal Lurus Kepulauan", "Datum_H": "WGS'84", "Datum_V": "MLWS", "Panjang": 15.729, "Panjang_NM": "15.729 mil laut", "Perairan": "Laut Natuna", "Sumber": "PP", "Sumber_No": 38, "Sumber_Th": 2002 }, "geometry": { "type": "MultiLineString", "coordinates": [ [ [ 107.7214, 4.5192 ], [ 107.9056, 4.7069 ] ] ] } },
{ "type": "Feature", "properties": { "fid": 10, "ID": 10, "TipeSegmen": "Garis Pangkal Biasa", "Datum_H": "WGS'84", "Datum_V": "MLWS", "Panjang": 8.167, "Panjang_NM": "8.167 mil laut", "Perairan": "Laut Cina Selatan", "Sumber": "PP", "Sumber_No": 38, "Sumber_Th": 2002 }, "geometry": { "type": "MultiLineString", "coordinates": [ [ [ 107.9056, 4.7069 ], [ 108.0108, 4.7939 ] ] ] } },
{ "type": "Feature", "properties": { "fid": 11, "ID": 11, "TipeSegmen": "Garis Pangkal Lurus Kepulauan", "Datum_H": "WGS'84", "Datum_V": "MLWS", "Panjang": 0.674, "Panjang_NM": "0.674 mil laut", "Perairan": "Laut Cina Selatan", "Sumber": "PP", "Sumber_No": 38, "Sumber_Th": 2002 }, "geometry": { "type": "MultiLineString", "coordinates": [ [ [ 108.0108, 4.7939 ], [ 108.0219, 4.7958 ] ] ] } },
{ "type": "Feature", "properties": { "fid": 12, "ID": 12, "TipeSegmen": "Garis Pangkal Lurus Kepulauan", "Datum_H": "WGS'84", "Datum_V": "MLWS", "Panjang": 52.402, "Panjang_NM": "52.402 mil laut", "Perairan": "Laut Cina Selatan", "Sumber": "PP", "Sumber_No": 38, "Sumber_Th": 2002 }, "geometry": { "type": "MultiLineString", "coordinates": [ [ [ 108.0219, 4.7958 ], [ 108.4178, 4.0133 ] ] ] } },
{ "type": "Feature", "properties": { "fid": 13, "ID": 13, "TipeSegmen": "Garis Pangkal Lurus Kepulauan", "Datum_H": "WGS'84", "Datum_V": "MLWS", "Panjang": 65.795, "Panjang_NM": "65.795 mil laut", "Perairan": "Laut Natuna", "Sumber": "PP", "Sumber_No": 38, "Sumber_Th": 2002 }, "geometry": { "type": "MultiLineString", "coordinates": [ [ [ 108.4178, 4.0133 ], [ 108.9144, 3.0308 ] ] ] } },
{ "type": "Feature", "properties": { "fid": 14, "ID": 14, "TipeSegmen": "Garis Pangkal Lurus Kepulauan", "Datum_H": "WGS'84", "Datum_V": "MLWS", "Panjang": 27.59, "Panjang_NM": "27.59 mil laut", "Perairan": "Laut Natuna", "Sumber": "PP", "Sumber_No": 38, "Sumber_Th": 2002 }, "geometry": { "type": "MultiLineString", "coordinates": [ [ [ 108.9144, 3.0308 ], [ 109.1678, 2.6453 ] ] ] } },
{ "type": "Feature", "properties": { "fid": 15, "ID": 15, "TipeSegmen": "Garis Pangkal Biasa", "Datum_H": "WGS'84", "Datum_V": "MLWS", "Panjang": 44.013, "Panjang_NM": "44.013 mil laut", "Perairan": "Laut Natuna", "Sumber": "PP", "Sumber_No": 38, "Sumber_Th": 2002 }, "geometry": { "type": "MultiLineString", "coordinates": [ [ [ 109.1678, 2.6453 ], [ 109.6453, 2.0861 ] ] ] } },
{ "type": "Feature", "properties": { "fid": 16, "ID": 16, "TipeSegmen": "Garis Pangkal Lurus Kepulauan", "Datum_H": "WGS'84", "Datum_V": "MLWS", "Panjang": 1.262, "Panjang_NM": "1.262 mil laut", "Perairan": "Laut Sulawesi", "Sumber": "PP", "Sumber_No": 37, "Sumber_Th": 2008 }, "geometry": { "type": "MultiLineString", "coordinates": [ [ [ 117.9081, 4.1694 ], [ 117.9289, 4.1661 ] ] ] } },
{ "type": "Feature", "properties": { "fid": 17, "ID": 17, "TipeSegmen": "Garis Pangkal Lurus Kepulauan", "Datum_H": "WGS'84", "Datum_V": "MLWS", "Panjang": 0.818, "Panjang_NM": "0.818 mil laut", "Perairan": "Laut Sulawesi", "Sumber": "PP", "Sumber_No": 37, "Sumber_Th": 2008 }, "geometry": { "type": "MultiLineString", "coordinates": [ [ [ 117.9289, 4.1661 ], [ 117.9408, 4.1594 ] ] ] } },
{ "type": "Feature", "properties": { "fid": 18, "ID": 18, "TipeSegmen": "Garis Pangkal Lurus Kepulauan", "Datum_H": "WGS'84", "Datum_V": "MLWS", "Panjang": 12.305, "Panjang_NM": "12.305 mil laut", "Perairan": "Laut Sulawesi", "Sumber": "PP", "Sumber_No": 37, "Sumber_Th": 2008 }, "geometry": { "type": "MultiLineString", "coordinates": [ [ [ 117.9408, 4.1594 ], [ 118.0828, 4.0106 ] ] ] } },
{ "type": "Feature", "properties": { "fid": 19, "ID": 19, "TipeSegmen": "Garis Pangkal Lurus Kepulauan", "Datum_H": "WGS'84", "Datum_V": "MLWS", "Panjang": 110.21, "Panjang_NM": "110.21 mil laut", "Perairan": "Laut Sulawesi", "Sumber": "PP", "Sumber_No": 38, "Sumber_Th": 2002 }, "geometry": { "type": "MultiLineString", "coordinates": [ [ [ 118.0828, 4.0106 ], [ 118.6447, 2.2533 ] ] ] } },
{ "type": "Feature", "properties": { "fid": 20, "ID": 20, "TipeSegmen": "Garis Pangkal Lurus Kepulauan", "Datum_H": "WGS'84", "Datum_V": "MLWS", "Panjang": 36.87, "Panjang_NM": "36.87 mil laut", "Perairan": "Laut Sulawesi", "Sumber": "PP", "Sumber_No": 38, "Sumber_Th": 2002 }, "geometry": { "type": "MultiLineString", "coordinates": [ [ [ 118.6447, 2.2533 ], [ 119.0406, 1.7814 ] ] ] } },
{ "type": "Feature", "properties": { "fid": 21, "ID": 21, "TipeSegmen": "Garis Pangkal Lurus Kepulauan", "Datum_H": "WGS'84", "Datum_V": "MLWS", "Panjang": 84.588, "Panjang_NM": "84.588 mil laut", "Perairan": "Laut Sulawesi", "Sumber": "PP", "Sumber_No": 38, "Sumber_Th": 2002 }, "geometry": { "type": "MultiLineString", "coordinates": [ [ [ 119.0406, 1.7814 ], [ 120.2139, 0.9986 ] ] ] } },
{ "type": "Feature", "properties": { "fid": 22, "ID": 22, "TipeSegmen": "Garis Pangkal Lurus Kepulauan", "Datum_H": "WGS'84", "Datum_V": "MLWS", "Panjang": 40.208, "Panjang_NM": "40.208 mil laut", "Perairan": "Laut Sulawesi", "Sumber": "PP", "Sumber_No": 38, "Sumber_Th": 2002 }, "geometry": { "type": "MultiLineString", "coordinates": [ [ [ 120.2139, 0.9986 ], [ 120.7919, 1.3378 ] ] ] } },
{ "type": "Feature", "properties": { "fid": 23, "ID": 23, "TipeSegmen": "Garis Pangkal Lurus Kepulauan", "Datum_H": "WGS'84", "Datum_V": "MLWS", "Panjang": 6.05, "Panjang_NM": "6.05 mil laut", "Perairan": "Laut Sulawesi", "Sumber": "PP", "Sumber_No": 38, "Sumber_Th": 2002 }, "geometry": { "type": "MultiLineString", "coordinates": [ [ [ 120.7919, 1.3378 ], [ 120.8844, 1.3778 ] ] ] } },
{ "type": "Feature", "properties": { "fid": 24, "ID": 24, "TipeSegmen": "Garis Pangkal Biasa", "Datum_H": "WGS'84", "Datum_V": "MLWS", "Panjang": 0.057, "Panjang_NM": "0.057 mil laut", "Perairan": "Laut Sulawesi", "Sumber": "PP", "Sumber_No": 38, "Sumber_Th": 2002 }, "geometry": { "type": "MultiLineString", "coordinates": [ [ [ 120.8844, 1.3778 ], [ 120.8853, 1.3781 ] ] ] } },
{ "type": "Feature", "properties": { "fid": 25, "ID": 25, "TipeSegmen": "Garis Pangkal Lurus Kepulauan", "Datum_H": "WGS'84", "Datum_V": "MLWS", "Panjang": 33.753, "Panjang_NM": "33.753 mil laut", "Perairan": "Laut Sulawesi", "Sumber": "PP", "Sumber_No": 38, "Sumber_Th": 2002 }, "geometry": { "type": "MultiLineString", "coordinates": [ [ [ 120.8853, 1.3781 ], [ 121.4433, 1.3133 ] ] ] } },
{ "type": "Feature", "properties": { "fid": 26, "ID": 26, "TipeSegmen": "Garis Pangkal Lurus Kepulauan", "Datum_H": "WGS'84", "Datum_V": "MLWS", "Panjang": 60.193, "Panjang_NM": "60.193 mil laut", "Perairan": "Laut Sulawesi", "Sumber": "PP", "Sumber_No": 38, "Sumber_Th": 2002 }, "geometry": { "type": "MultiLineString", "coordinates": [ [ [ 121.4433, 1.3133 ], [ 122.4297, 1.1381 ] ] ] } },
{ "type": "Feature", "properties": { "fid": 27, "ID": 27, "TipeSegmen": "Garis Pangkal Lurus Kepulauan", "Datum_H": "WGS'84", "Datum_V": "MLWS", "Panjang": 41.387, "Panjang_NM": "41.387 mil laut", "Perairan": "Laut Sulawesi", "Sumber": "PP", "Sumber_No": 38, "Sumber_Th": 2002 }, "geometry": { "type": "MultiLineString", "coordinates": [ [ [ 122.4297, 1.1381 ], [ 123.1125, 1.0478 ] ] ] } },
{ "type": "Feature", "properties": { "fid": 28, "ID": 28, "TipeSegmen": "Garis Pangkal Lurus Kepulauan", "Datum_H": "WGS'84", "Datum_V": "MLWS", "Panjang": 74.295, "Panjang_NM": "74.295 mil laut", "Perairan": "Laut Sulawesi", "Sumber": "PP", "Sumber_No": 38, "Sumber_Th": 2002 }, "geometry": { "type": "MultiLineString", "coordinates": [ [ [ 123.1125, 1.0478 ], [ 124.3439, 1.1581 ] ] ] } },
{ "type": "Feature", "properties": { "fid": 29, "ID": 29, "TipeSegmen": "Garis Pangkal Lurus Kepulauan", "Datum_H": "WGS'84", "Datum_V": "MLWS", "Panjang": 42.957, "Panjang_NM": "42.957 mil laut", "Perairan": "Laut Sulawesi", "Sumber": "PP", "Sumber_No": 38, "Sumber_Th": 2002 }, "geometry": { "type": "MultiLineString", "coordinates": [ [ [ 124.3439, 1.1581 ], [ 124.7308, 1.7631 ] ] ] } },
{ "type": "Feature", "properties": { "fid": 30, "ID": 30, "TipeSegmen": "Garis Pangkal Lurus Kepulauan", "Datum_H": "WGS'84", "Datum_V": "MLWS", "Panjang": 63.58, "Panjang_NM": "63.58 mil laut", "Perairan": "Laut Sulawesi", "Sumber": "PP", "Sumber_No": 38, "Sumber_Th": 2002 }, "geometry": { "type": "MultiLineString", "coordinates": [ [ [ 124.7308, 1.7631 ], [ 125.1578, 2.7375 ] ] ] } },
{ "type": "Feature", "properties": { "fid": 31, "ID": 31, "TipeSegmen": "Garis Pangkal Lurus Kepulauan", "Datum_H": "WGS'84", "Datum_V": "MLWS", "Panjang": 89.917, "Panjang_NM": "89.917 mil laut", "Perairan": "Laut Sulawesi", "Sumber": "PP", "Sumber_No": 38, "Sumber_Th": 2002 }, "geometry": { "type": "MultiLineString", "coordinates": [ [ [ 125.1578, 2.7375 ], [ 125.3164, 4.235 ] ] ] } },
{ "type": "Feature", "properties": { "fid": 32, "ID": 32, "TipeSegmen": "Garis Pangkal Lurus Kepulauan", "Datum_H": "WGS'84", "Datum_V": "MLWS", "Panjang": 26.886, "Panjang_NM": "26.886 mil laut", "Perairan": "Laut Mindanao", "Sumber": "PP", "Sumber_No": 38, "Sumber_Th": 2002 }, "geometry": { "type": "MultiLineString", "coordinates": [ [ [ 125.3164, 4.235 ], [ 125.4281, 4.6711 ] ] ] } },
{ "type": "Feature", "properties": { "fid": 33, "ID": 33, "TipeSegmen": "Garis Pangkal Lurus Kepulauan", "Datum_H": "WGS'84", "Datum_V": "MLWS", "Panjang": 4.962, "Panjang_NM": "4.962 mil laut", "Perairan": "Laut Mindanao", "Sumber": "PP", "Sumber_No": 38, "Sumber_Th": 2002 }, "geometry": { "type": "MultiLineString", "coordinates": [ [ [ 125.4281, 4.6711 ], [ 125.4783, 4.7372 ] ] ] } },
{ "type": "Feature", "properties": { "fid": 34, "ID": 34, "TipeSegmen": "Garis Pangkal Biasa", "Datum_H": "WGS'84", "Datum_V": "MLWS", "Panjang": 0.298, "Panjang_NM": "0.298 mil laut", "Perairan": "Laut Mindanao", "Sumber": "PP", "Sumber_No": 38, "Sumber_Th": 2002 }, "geometry": { "type": "MultiLineString", "coordinates": [ [ [ 125.4783, 4.7372 ], [ 125.4822, 4.7403 ] ] ] } },
{ "type": "Feature", "properties": { "fid": 35, "ID": 35, "TipeSegmen": "Garis Pangkal Lurus Kepulauan", "Datum_H": "WGS'84", "Datum_V": "MLWS", "Panjang": 0.582, "Panjang_NM": "0.582 mil laut", "Perairan": "Laut Mindanao", "Sumber": "PP", "Sumber_No": 38, "Sumber_Th": 2002 }, "geometry": { "type": "MultiLineString", "coordinates": [ [ [ 125.4822, 4.7403 ], [ 125.49, 4.7461 ] ] ] } },
{ "type": "Feature", "properties": { "fid": 36, "ID": 36, "TipeSegmen": "Garis Pangkal Lurus Kepulauan", "Datum_H": "WGS'84", "Datum_V": "MLWS", "Panjang": 81.701, "Panjang_NM": "81.701 mil laut", "Perairan": "Laut Filipina", "Sumber": "PP", "Sumber_No": 38, "Sumber_Th": 2002 }, "geometry": { "type": "MultiLineString", "coordinates": [ [ [ 125.49, 4.7461 ], [ 126.5817, 5.5672 ] ] ] } },
{ "type": "Feature", "properties": { "fid": 37, "ID": 37, "TipeSegmen": "Garis Pangkal Biasa", "Datum_H": "WGS'84", "Datum_V": "MLWS", "Panjang": 0.586, "Panjang_NM": "0.586 mil laut", "Perairan": "Laut Filipina", "Sumber": "PP", "Sumber_No": 38, "Sumber_Th": 2002 }, "geometry": { "type": "MultiLineString", "coordinates": [ [ [ 126.5817, 5.5672 ], [ 126.5914, 5.5658 ] ] ] } },
{ "type": "Feature", "properties": { "fid": 38, "ID": 38, "TipeSegmen": "Garis Pangkal Lurus Kepulauan", "Datum_H": "WGS'84", "Datum_V": "MLWS", "Panjang": 57.754, "Panjang_NM": "57.754 mil laut", "Perairan": "Laut Filipina", "Sumber": "PP", "Sumber_No": 38, "Sumber_Th": 2002 }, "geometry": { "type": "MultiLineString", "coordinates": [ [ [ 126.5914, 5.5658 ], [ 127.1422, 4.7717 ] ] ] } },
{ "type": "Feature", "properties": { "fid": 39, "ID": 39, "TipeSegmen": "Garis Pangkal Biasa", "Datum_H": "WGS'84", "Datum_V": "MLWS", "Panjang": 0.682, "Panjang_NM": "0.682 mil laut", "Perairan": "Laut Filipina", "Sumber": "PP", "Sumber_No": 38, "Sumber_Th": 2002 }, "geometry": { "type": "MultiLineString", "coordinates": [ [ [ 127.1422, 4.7717 ], [ 127.1456, 4.7608 ] ] ] } },
{ "type": "Feature", "properties": { "fid": 40, "ID": 40, "TipeSegmen": "Garis Pangkal Lurus Kepulauan", "Datum_H": "WGS'84", "Datum_V": "MLWS", "Panjang": 7.063, "Panjang_NM": "7.063 mil laut", "Perairan": "Laut Filipina", "Sumber": "PP", "Sumber_No": 38, "Sumber_Th": 2002 }, "geometry": { "type": "MultiLineString", "coordinates": [ [ [ 127.1456, 4.7608 ], [ 127.1636, 4.6439 ] ] ] } },
{ "type": "Feature", "properties": { "fid": 41, "ID": 41, "TipeSegmen": "Garis Pangkal Biasa", "Datum_H": "WGS'84", "Datum_V": "MLWS", "Panjang": 1.029, "Panjang_NM": "1.029 mil laut", "Perairan": "Laut Filipina", "Sumber": "PP", "Sumber_No": 38, "Sumber_Th": 2002 }, "geometry": { "type": "MultiLineString", "coordinates": [ [ [ 127.1636, 4.6439 ], [ 127.1647, 4.6267 ] ] ] } },
{ "type": "Feature", "properties": { "fid": 42, "ID": 42, "TipeSegmen": "Garis Pangkal Lurus Kepulauan", "Datum_H": "WGS'84", "Datum_V": "MLWS", "Panjang": 55.406, "Panjang_NM": "55.406 mil laut", "Perairan": "Laut Halmahera", "Sumber": "PP", "Sumber_No": 38, "Sumber_Th": 2002 }, "geometry": { "type": "MultiLineString", "coordinates": [ [ [ 127.1647, 4.6267 ], [ 126.8517, 3.7536 ] ] ] } },
{ "type": "Feature", "properties": { "fid": 43, "ID": 43, "TipeSegmen": "Garis Pangkal Lurus Kepulauan", "Datum_H": "WGS'84", "Datum_V": "MLWS", "Panjang": 122.733, "Panjang_NM": "122.733 mil laut", "Perairan": "Laut Halmahera", "Sumber": "PP", "Sumber_No": 38, "Sumber_Th": 2002 }, "geometry": { "type": "MultiLineString", "coordinates": [ [ [ 126.8517, 3.7536 ], [ 128.5742, 2.6455 ] ] ] } },
{ "type": "Feature", "properties": { "fid": 44, "ID": 44, "TipeSegmen": "Garis Pangkal Lurus Kepulauan", "Datum_H": "WGS'84", "Datum_V": "MLWS", "Panjang": 50.718, "Panjang_NM": "50.718 mil laut", "Perairan": "Laut Halmahera", "Sumber": "PP", "Sumber_No": 38, "Sumber_Th": 2002 }, "geometry": { "type": "MultiLineString", "coordinates": [ [ [ 128.6991, 2.4275 ], [ 128.7372, 1.5789 ] ] ] } },
{ "type": "Feature", "properties": { "fid": 45, "ID": 45, "TipeSegmen": "Garis Pangkal Lurus Kepulauan", "Datum_H": "WGS'84", "Datum_V": "MLWS", "Panjang": 56.344, "Panjang_NM": "56.344 mil laut", "Perairan": "Laut Halmahera", "Sumber": "PP", "Sumber_No": 38, "Sumber_Th": 2002 }, "geometry": { "type": "MultiLineString", "coordinates": [ [ [ 128.7372, 1.5789 ], [ 129.1416, 0.7275 ] ] ] } },
{ "type": "Feature", "properties": { "fid": 46, "ID": 46, "TipeSegmen": "Garis Pangkal Lurus Kepulauan", "Datum_H": "WGS'84", "Datum_V": "MLWS", "Panjang": 96.221, "Panjang_NM": "96.221 mil laut", "Perairan": "Samudra Pasifik", "Sumber": "PP", "Sumber_No": 38, "Sumber_Th": 2002 }, "geometry": { "type": "MultiLineString", "coordinates": [ [ [ 129.1416, 0.7275 ], [ 130.7311, 0.5355 ] ] ] } },
{ "type": "Feature", "properties": { "fid": 47, "ID": 47, "TipeSegmen": "Garis Pangkal Lurus Kepulauan", "Datum_H": "WGS'84", "Datum_V": "MLWS", "Panjang": 45.837, "Panjang_NM": "45.837 mil laut", "Perairan": "Samudra Pasifik", "Sumber": "PP", "Sumber_No": 38, "Sumber_Th": 2002 }, "geometry": { "type": "MultiLineString", "coordinates": [ [ [ 130.7311, 0.5355 ], [ 131.2597, 1.0889 ] ] ] } },
{ "type": "Feature", "properties": { "fid": 48, "ID": 48, "TipeSegmen": "Garis Pangkal Lurus Kepulauan", "Datum_H": "WGS'84", "Datum_V": "MLWS", "Panjang": 99.504, "Panjang_NM": "99.504 mil laut", "Perairan": "Samudra Pasifik", "Sumber": "PP", "Sumber_No": 38, "Sumber_Th": 2002 }, "geometry": { "type": "MultiLineString", "coordinates": [ [ [ 131.2803, 1.0745 ], [ 132.1594, -0.3377 ] ] ] } },
{ "type": "Feature", "properties": { "fid": 49, "ID": 49, "TipeSegmen": "Garis Pangkal Lurus Kepulauan", "Datum_H": "WGS'84", "Datum_V": "MLWS", "Panjang": 15.799, "Panjang_NM": "15.799 mil laut", "Perairan": "Samudra Pasifik", "Sumber": "PP", "Sumber_No": 38, "Sumber_Th": 2002 }, "geometry": { "type": "MultiLineString", "coordinates": [ [ [ 132.1594, -0.3377 ], [ 132.4222, -0.3427 ] ] ] } },
{ "type": "Feature", "properties": { "fid": 50, "ID": 50, "TipeSegmen": "Garis Pangkal Lurus Kepulauan", "Datum_H": "WGS'84", "Datum_V": "MLWS", "Panjang": 17.75, "Panjang_NM": "17.75 mil laut", "Perairan": "Samudra Pasifik", "Sumber": "PP", "Sumber_No": 38, "Sumber_Th": 2002 }, "geometry": { "type": "MultiLineString", "coordinates": [ [ [ 132.4222, -0.3427 ], [ 132.7169, -0.3617 ] ] ] } },
{ "type": "Feature", "properties": { "fid": 51, "ID": 51, "TipeSegmen": "Garis Pangkal Lurus Kepulauan", "Datum_H": "WGS'84", "Datum_V": "MLWS", "Panjang": 122.632, "Panjang_NM": "122.632 mil laut", "Perairan": "Samudra Pasifik", "Sumber": "PP", "Sumber_No": 38, "Sumber_Th": 2002 }, "geometry": { "type": "MultiLineString", "coordinates": [ [ [ 132.7169, -0.3617 ], [ 134.2956, 0.9394 ] ] ] } },
{ "type": "Feature", "properties": { "fid": 52, "ID": 52, "TipeSegmen": "Garis Pangkal Lurus Kepulauan", "Datum_H": "WGS'84", "Datum_V": "MLWS", "Panjang": 97.021, "Panjang_NM": "97.021 mil laut", "Perairan": "Samudra Pasifik", "Sumber": "PP", "Sumber_No": 38, "Sumber_Th": 2002 }, "geometry": { "type": "MultiLineString", "coordinates": [ [ [ 134.3417, 0.9325 ], [ 135.2742, -0.3939 ] ] ] } },
{ "type": "Feature", "properties": { "fid": 53, "ID": 53, "TipeSegmen": "Garis Pangkal Lurus Kepulauan", "Datum_H": "WGS'84", "Datum_V": "MLWS", "Panjang": 39.416, "Panjang_NM": "39.416 mil laut", "Perairan": "Samudra Pasifik", "Sumber": "PP", "Sumber_No": 38, "Sumber_Th": 2002 }, "geometry": { "type": "MultiLineString", "coordinates": [ [ [ 135.2742, -0.3939 ], [ 135.8558, -0.6989 ] ] ] } },
{ "type": "Feature", "properties": { "fid": 54, "ID": 54, "TipeSegmen": "Garis Pangkal Lurus Kepulauan", "Datum_H": "WGS'84", "Datum_V": "MLWS", "Panjang": 38.881, "Panjang_NM": "38.881 mil laut", "Perairan": "Samudra Pasifik", "Sumber": "PP", "Sumber_No": 38, "Sumber_Th": 2002 }, "geometry": { "type": "MultiLineString", "coordinates": [ [ [ 135.8558, -0.6989 ], [ 136.3872, -1.0703 ] ] ] } },
{ "type": "Feature", "properties": { "fid": 55, "ID": 55, "TipeSegmen": "Garis Pangkal Lurus Kepulauan", "Datum_H": "WGS'84", "Datum_V": "MLWS", "Panjang": 95.581, "Panjang_NM": "95.581 mil laut", "Perairan": "Samudra Pasifik", "Sumber": "PP", "Sumber_No": 38, "Sumber_Th": 2002 }, "geometry": { "type": "MultiLineString", "coordinates": [ [ [ 136.3872, -1.0703 ], [ 137.9308, -1.4564 ] ] ] } },
{ "type": "Feature", "properties": { "fid": 56, "ID": 56, "TipeSegmen": "Garis Pangkal Lurus Kepulauan", "Datum_H": "WGS'84", "Datum_V": "MLWS", "Panjang": 47.687, "Panjang_NM": "47.687 mil laut", "Perairan": "Samudra Pasifik", "Sumber": "PP", "Sumber_No": 38, "Sumber_Th": 2002 }, "geometry": { "type": "MultiLineString", "coordinates": [ [ [ 137.9308, -1.4564 ], [ 138.7158, -1.5739 ] ] ] } },
{ "type": "Feature", "properties": { "fid": 57, "ID": 57, "TipeSegmen": "Garis Pangkal Lurus Kepulauan", "Datum_H": "WGS'84", "Datum_V": "MLWS", "Panjang": 97.093, "Panjang_NM": "97.093 mil laut", "Perairan": "Samudra Pasifik", "Sumber": "PP", "Sumber_No": 38, "Sumber_Th": 2002 }, "geometry": { "type": "MultiLineString", "coordinates": [ [ [ 138.7158, -1.5739 ], [ 140.1519, -2.32 ] ] ] } },
{ "type": "Feature", "properties": { "fid": 58, "ID": 58, "TipeSegmen": "Garis Pangkal Lurus Kepulauan", "Datum_H": "WGS'84", "Datum_V": "MLWS", "Panjang": 28.601, "Panjang_NM": "28.601 mil laut", "Perairan": "Samudra Pasifik", "Sumber": "PP", "Sumber_No": 38, "Sumber_Th": 2002 }, "geometry": { "type": "MultiLineString", "coordinates": [ [ [ 140.1519, -2.32 ], [ 140.6131, -2.4394 ] ] ] } },
{ "type": "Feature", "properties": { "fid": 59, "ID": 59, "TipeSegmen": "Garis Pangkal Lurus Kepulauan", "Datum_H": "WGS'84", "Datum_V": "MLWS", "Panjang": 25.236, "Panjang_NM": "25.236 mil laut", "Perairan": "Samudra Pasifik", "Sumber": "PP", "Sumber_No": 38, "Sumber_Th": 2002 }, "geometry": { "type": "MultiLineString", "coordinates": [ [ [ 140.6131, -2.4394 ], [ 141.0, -2.6044 ] ] ] } },
{ "type": "Feature", "properties": { "fid": 60, "ID": 60, "TipeSegmen": "Garis Pangkal Biasa", "Datum_H": "WGS'84", "Datum_V": "MLWS", "Panjang": 3.787, "Panjang_NM": "3.787 mil laut", "Perairan": "Laut Arafura", "Sumber": "PP", "Sumber_No": 38, "Sumber_Th": 2002 }, "geometry": { "type": "MultiLineString", "coordinates": [ [ [ 141.0194, -9.1278 ], [ 140.9853, -9.1814 ] ] ] } },
{ "type": "Feature", "properties": { "fid": 61, "ID": 61, "TipeSegmen": "Garis Pangkal Biasa", "Datum_H": "WGS'84", "Datum_V": "MLWS", "Panjang": 2.116, "Panjang_NM": "2.116 mil laut", "Perairan": "Laut Arafura", "Sumber": "PP", "Sumber_No": 38, "Sumber_Th": 2002 }, "geometry": { "type": "MultiLineString", "coordinates": [ [ [ 140.9853, -9.1814 ], [ 140.9575, -9.2036 ] ] ] } },
{ "type": "Feature", "properties": { "fid": 62, "ID": 62, "TipeSegmen": "Garis Pangkal Biasa", "Datum_H": "WGS'84", "Datum_V": "MLWS", "Panjang": 1.317, "Panjang_NM": "1.317 mil laut", "Perairan": "Laut Arafura", "Sumber": "PP", "Sumber_No": 38, "Sumber_Th": 2002 }, "geometry": { "type": "MultiLineString", "coordinates": [ [ [ 140.9575, -9.2036 ], [ 140.9356, -9.2 ] ] ] } },
{ "type": "Feature", "properties": { "fid": 63, "ID": 63, "TipeSegmen": "Garis Pangkal Biasa", "Datum_H": "WGS'84", "Datum_V": "MLWS", "Panjang": 8.093, "Panjang_NM": "8.093 mil laut", "Perairan": "Laut Arafura", "Sumber": "PP", "Sumber_No": 38, "Sumber_Th": 2002 }, "geometry": { "type": "MultiLineString", "coordinates": [ [ [ 140.9356, -9.2 ], [ 140.8494, -9.095 ] ] ] } },
{ "type": "Feature", "properties": { "fid": 64, "ID": 64, "TipeSegmen": "Garis Pangkal Lurus Kepulauan", "Datum_H": "WGS'84", "Datum_V": "MLWS", "Panjang": 97.358, "Panjang_NM": "97.358 mil laut", "Perairan": "Laut Arafura", "Sumber": "PP", "Sumber_No": 38, "Sumber_Th": 2002 }, "geometry": { "type": "MultiLineString", "coordinates": [ [ [ 140.8494, -9.095 ], [ 139.4364, -8.2698 ] ] ] } },
{ "type": "Feature", "properties": { "fid": 65, "ID": 65, "TipeSegmen": "Garis Pangkal Lurus Kepulauan", "Datum_H": "WGS'84", "Datum_V": "MLWS", "Panjang": 33.043, "Panjang_NM": "33.043 mil laut", "Perairan": "Laut Arafura", "Sumber": "PP", "Sumber_No": 38, "Sumber_Th": 2002 }, "geometry": { "type": "MultiLineString", "coordinates": [ [ [ 139.4364, -8.2698 ], [ 138.9064, -8.4358 ] ] ] } },
{ "type": "Feature", "properties": { "fid": 66, "ID": 66, "TipeSegmen": "Garis Pangkal Lurus Kepulauan", "Datum_H": "WGS'84", "Datum_V": "MLWS", "Panjang": 74.245, "Panjang_NM": "74.245 mil laut", "Perairan": "Laut Arafura", "Sumber": "PP", "Sumber_No": 38, "Sumber_Th": 2002 }, "geometry": { "type": "MultiLineString", "coordinates": [ [ [ 138.9064, -8.4358 ], [ 137.6578, -8.4455 ] ] ] } },
{ "type": "Feature", "properties": { "fid": 67, "ID": 67, "TipeSegmen": "Garis Pangkal Biasa", "Datum_H": "WGS'84", "Datum_V": "MLWS", "Panjang": 13.98, "Panjang_NM": "13.98 mil laut", "Perairan": "Laut Aru", "Sumber": "PP", "Sumber_No": 38, "Sumber_Th": 2002 }, "geometry": { "type": "MultiLineString", "coordinates": [ [ [ 137.6578, -8.4455 ], [ 137.69, -8.2136 ] ] ] } },
{ "type": "Feature", "properties": { "fid": 68, "ID": 68, "TipeSegmen": "Garis Pangkal Lurus Kepulauan", "Datum_H": "WGS'84", "Datum_V": "MLWS", "Panjang": 25.049, "Panjang_NM": "25.049 mil laut", "Perairan": "Laut Aru", "Sumber": "PP", "Sumber_No": 38, "Sumber_Th": 2002 }, "geometry": { "type": "MultiLineString", "coordinates": [ [ [ 137.69, -8.2136 ], [ 137.8472, -7.8245 ] ] ] } },
{ "type": "Feature", "properties": { "fid": 69, "ID": 69, "TipeSegmen": "Garis Pangkal Lurus Kepulauan", "Datum_H": "WGS'84", "Datum_V": "MLWS", "Panjang": 93.534, "Panjang_NM": "93.534 mil laut", "Perairan": "Laut Aru", "Sumber": "PP", "Sumber_No": 38, "Sumber_Th": 2002 }, "geometry": { "type": "MultiLineString", "coordinates": [ [ [ 137.8472, -7.8245 ], [ 138.3997, -6.3586 ] ] ] } },
{ "type": "Feature", "properties": { "fid": 70, "ID": 70, "TipeSegmen": "Garis Pangkal Lurus Kepulauan", "Datum_H": "WGS'84", "Datum_V": "MLWS", "Panjang": 30.576, "Panjang_NM": "30.576 mil laut", "Perairan": "Laut Aru", "Sumber": "PP", "Sumber_No": 38, "Sumber_Th": 2002 }, "geometry": { "type": "MultiLineString", "coordinates": [ [ [ 138.3997, -6.3586 ], [ 138.0561, -5.9792 ] ] ] } },
{ "type": "Feature", "properties": { "fid": 71, "ID": 71, "TipeSegmen": "Garis Pangkal Lurus Kepulauan", "Datum_H": "WGS'84", "Datum_V": "MLWS", "Panjang": 40.707, "Panjang_NM": "40.707 mil laut", "Perairan": "Laut Aru", "Sumber": "PP", "Sumber_No": 38, "Sumber_Th": 2002 }, "geometry": { "type": "MultiLineString", "coordinates": [ [ [ 138.0561, -5.9792 ], [ 137.7186, -5.3872 ] ] ] } },
{ "type": "Feature", "properties": { "fid": 72, "ID": 72, "TipeSegmen": "Garis Pangkal Lurus Kepulauan", "Datum_H": "WGS'84", "Datum_V": "MLWS", "Panjang": 64.177, "Panjang_NM": "64.177 mil laut", "Perairan": "Laut Aru", "Sumber": "PP", "Sumber_No": 38, "Sumber_Th": 2002 }, "geometry": { "type": "MultiLineString", "coordinates": [ [ [ 137.7186, -5.3872 ], [ 136.7597, -4.9067 ] ] ] } },
{ "type": "Feature", "properties": { "fid": 73, "ID": 73, "TipeSegmen": "Garis Pangkal Lurus Kepulauan", "Datum_H": "WGS'84", "Datum_V": "MLWS", "Panjang": 41.355, "Panjang_NM": "41.355 mil laut", "Perairan": "Laut Aru", "Sumber": "PP", "Sumber_No": 38, "Sumber_Th": 2002 }, "geometry": { "type": "MultiLineString", "coordinates": [ [ [ 136.7597, -4.9067 ], [ 136.1206, -4.6447 ] ] ] } },
{ "type": "Feature", "properties": { "fid": 74, "ID": 74, "TipeSegmen": "Garis Pangkal Lurus Kepulauan", "Datum_H": "WGS'84", "Datum_V": "MLWS", "Panjang": 96.439, "Panjang_NM": "96.439 mil laut", "Perairan": "Laut Aru", "Sumber": "PP", "Sumber_No": 38, "Sumber_Th": 2002 }, "geometry": { "type": "MultiLineString", "coordinates": [ [ [ 136.1206, -4.6447 ], [ 134.8181, -5.595 ] ] ] } },
{ "type": "Feature", "properties": { "fid": 75, "ID": 75, "TipeSegmen": "Garis Pangkal Lurus Kepulauan", "Datum_H": "WGS'84", "Datum_V": "MLWS", "Panjang": 24.909, "Panjang_NM": "24.909 mil laut", "Perairan": "Laut Aru", "Sumber": "PP", "Sumber_No": 38, "Sumber_Th": 2002 }, "geometry": { "type": "MultiLineString", "coordinates": [ [ [ 134.8181, -5.595 ], [ 134.9072, -6.0025 ] ] ] } },
{ "type": "Feature", "properties": { "fid": 76, "ID": 76, "TipeSegmen": "Garis Pangkal Lurus Kepulauan", "Datum_H": "WGS'84", "Datum_V": "MLWS", "Panjang": 19.197, "Panjang_NM": "19.197 mil laut", "Perairan": "Laut Aru", "Sumber": "PP", "Sumber_No": 38, "Sumber_Th": 2002 }, "geometry": { "type": "MultiLineString", "coordinates": [ [ [ 134.9072, -6.0025 ], [ 134.9147, -6.3239 ] ] ] } },
{ "type": "Feature", "properties": { "fid": 77, "ID": 77, "TipeSegmen": "Garis Pangkal Lurus Kepulauan", "Datum_H": "WGS'84", "Datum_V": "MLWS", "Panjang": 19.859, "Panjang_NM": "19.859 mil laut", "Perairan": "Laut Aru", "Sumber": "PP", "Sumber_No": 38, "Sumber_Th": 2002 }, "geometry": { "type": "MultiLineString", "coordinates": [ [ [ 134.9147, -6.3239 ], [ 134.8367, -6.6472 ] ] ] } },
{ "type": "Feature", "properties": { "fid": 78, "ID": 78, "TipeSegmen": "Garis Pangkal Lurus Kepulauan", "Datum_H": "WGS'84", "Datum_V": "MLWS", "Panjang": 11.407, "Panjang_NM": "11.407 mil laut", "Perairan": "Laut Aru", "Sumber": "PP", "Sumber_No": 38, "Sumber_Th": 2002 }, "geometry": { "type": "MultiLineString", "coordinates": [ [ [ 134.8367, -6.6472 ], [ 134.7872, -6.8317 ] ] ] } },
{ "type": "Feature", "properties": { "fid": 79, "ID": 79, "TipeSegmen": "Garis Pangkal Lurus Kepulauan", "Datum_H": "WGS'84", "Datum_V": "MLWS", "Panjang": 12.577, "Panjang_NM": "12.577 mil laut", "Perairan": "Laut Aru", "Sumber": "PP", "Sumber_No": 38, "Sumber_Th": 2002 }, "geometry": { "type": "MultiLineString", "coordinates": [ [ [ 134.7872, -6.8317 ], [ 134.6906, -7.0189 ] ] ] } },
{ "type": "Feature", "properties": { "fid": 80, "ID": 80, "TipeSegmen": "Garis Pangkal Biasa", "Datum_H": "WGS'84", "Datum_V": "MLWS", "Panjang": 1.038, "Panjang_NM": "1.038 mil laut", "Perairan": "Laut Aru", "Sumber": "PP", "Sumber_No": 38, "Sumber_Th": 2002 }, "geometry": { "type": "MultiLineString", "coordinates": [ [ [ 134.6906, -7.0189 ], [ 134.6772, -7.03 ] ] ] } },
{ "type": "Feature", "properties": { "fid": 81, "ID": 81, "TipeSegmen": "Garis Pangkal Lurus Kepulauan", "Datum_H": "WGS'84", "Datum_V": "MLWS", "Panjang": 10.262, "Panjang_NM": "10.262 mil laut", "Perairan": "Laut Aru", "Sumber": "PP", "Sumber_No": 38, "Sumber_Th": 2002 }, "geometry": { "type": "MultiLineString", "coordinates": [ [ [ 134.6772, -7.03 ], [ 134.5219, -7.1039 ] ] ] } },
{ "type": "Feature", "properties": { "fid": 82, "ID": 82, "TipeSegmen": "Garis Pangkal Biasa", "Datum_H": "WGS'84", "Datum_V": "MLWS", "Panjang": 3.112, "Panjang_NM": "3.112 mil laut", "Perairan": "Laut Aru", "Sumber": "PP", "Sumber_No": 38, "Sumber_Th": 2002 }, "geometry": { "type": "MultiLineString", "coordinates": [ [ [ 134.5219, -7.1039 ], [ 134.4717, -7.0897 ] ] ] } },
{ "type": "Feature", "properties": { "fid": 83, "ID": 83, "TipeSegmen": "Garis Pangkal Lurus Kepulauan", "Datum_H": "WGS'84", "Datum_V": "MLWS", "Panjang": 18.547, "Panjang_NM": "18.547 mil laut", "Perairan": "Laut Aru", "Sumber": "PP", "Sumber_No": 38, "Sumber_Th": 2002 }, "geometry": { "type": "MultiLineString", "coordinates": [ [ [ 134.4717, -7.0897 ], [ 134.1939, -6.9503 ] ] ] } },
{ "type": "Feature", "properties": { "fid": 84, "ID": 84, "TipeSegmen": "Garis Pangkal Lurus Kepulauan", "Datum_H": "WGS'84", "Datum_V": "MLWS", "Panjang": 98.306, "Panjang_NM": "98.306 mil laut", "Perairan": "Laut Aru", "Sumber": "PP", "Sumber_No": 38, "Sumber_Th": 2002 }, "geometry": { "type": "MultiLineString", "coordinates": [ [ [ 134.1939, -6.9503 ], [ 132.845, -6.0069 ] ] ] } },
{ "type": "Feature", "properties": { "fid": 85, "ID": 85, "TipeSegmen": "Garis Pangkal Lurus Kepulauan", "Datum_H": "WGS'84", "Datum_V": "MLWS", "Panjang": 89.954, "Panjang_NM": "89.954 mil laut", "Perairan": "Laut Aru", "Sumber": "PP", "Sumber_No": 38, "Sumber_Th": 2002 }, "geometry": { "type": "MultiLineString", "coordinates": [ [ [ 132.845, -6.0069 ], [ 131.9803, -7.2405 ] ] ] } },
{ "type": "Feature", "properties": { "fid": 86, "ID": 86, "TipeSegmen": "Garis Pangkal Lurus Kepulauan", "Datum_H": "WGS'84", "Datum_V": "MLWS", "Panjang": 29.469, "Panjang_NM": "29.469 mil laut", "Perairan": "Laut Aru", "Sumber": "PP", "Sumber_No": 38, "Sumber_Th": 2002 }, "geometry": { "type": "MultiLineString", "coordinates": [ [ [ 131.9803, -7.2405 ], [ 131.7258, -7.6636 ] ] ] } },
{ "type": "Feature", "properties": { "fid": 87, "ID": 87, "TipeSegmen": "Garis Pangkal Lurus Kepulauan", "Datum_H": "WGS'84", "Datum_V": "MLWS", "Panjang": 34.333, "Panjang_NM": "34.333 mil laut", "Perairan": "Laut Aru", "Sumber": "PP", "Sumber_No": 38, "Sumber_Th": 2002 }, "geometry": { "type": "MultiLineString", "coordinates": [ [ [ 131.7258, -7.6636 ], [ 131.3006, -8.0519 ] ] ] } },
{ "type": "Feature", "properties": { "fid": 88, "ID": 88, "TipeSegmen": "Garis Pangkal Biasa", "Datum_H": "WGS'84", "Datum_V": "MLWS", "Panjang": 1.388, "Panjang_NM": "1.388 mil laut", "Perairan": "Laut Timor", "Sumber": "PP", "Sumber_No": 38, "Sumber_Th": 2002 }, "geometry": { "type": "MultiLineString", "coordinates": [ [ [ 131.3006, -8.0519 ], [ 131.2819, -8.0658 ] ] ] } },
{ "type": "Feature", "properties": { "fid": 89, "ID": 89, "TipeSegmen": "Garis Pangkal Lurus Kepulauan", "Datum_H": "WGS'84", "Datum_V": "MLWS", "Panjang": 11.252, "Panjang_NM": "11.252 mil laut", "Perairan": "Laut Timor", "Sumber": "PP", "Sumber_No": 38, "Sumber_Th": 2002 }, "geometry": { "type": "MultiLineString", "coordinates": [ [ [ 131.2819, -8.0658 ], [ 131.1253, -8.1714 ] ] ] } },
{ "type": "Feature", "properties": { "fid": 90, "ID": 90, "TipeSegmen": "Garis Pangkal Lurus Kepulauan", "Datum_H": "WGS'84", "Datum_V": "MLWS", "Panjang": 16.243, "Panjang_NM": "16.243 mil laut", "Perairan": "Laut Timor", "Sumber": "PP", "Sumber_No": 38, "Sumber_Th": 2002 }, "geometry": { "type": "MultiLineString", "coordinates": [ [ [ 131.1253, -8.1714 ], [ 130.8889, -8.3075 ] ] ] } },
{ "type": "Feature", "properties": { "fid": 91, "ID": 91, "TipeSegmen": "Garis Pangkal Lurus Kepulauan", "Datum_H": "WGS'84", "Datum_V": "MLWS", "Panjang": 4.518, "Panjang_NM": "4.518 mil laut", "Perairan": "Laut Timor", "Sumber": "PP", "Sumber_No": 38, "Sumber_Th": 2002 }, "geometry": { "type": "MultiLineString", "coordinates": [ [ [ 130.8889, -8.3075 ], [ 130.8211, -8.3416 ] ] ] } },
{ "type": "Feature", "properties": { "fid": 92, "ID": 92, "TipeSegmen": "Garis Pangkal Lurus Kepulauan", "Datum_H": "WGS'84", "Datum_V": "MLWS", "Panjang": 0.511, "Panjang_NM": "0.511 mil laut", "Perairan": "Laut Timor", "Sumber": "PP", "Sumber_No": 38, "Sumber_Th": 2002 }, "geometry": { "type": "MultiLineString", "coordinates": [ [ [ 130.8211, -8.3416 ], [ 130.8131, -8.3447 ] ] ] } },
{ "type": "Feature", "properties": { "fid": 93, "ID": 93, "TipeSegmen": "Garis Pangkal Biasa", "Datum_H": "WGS'84", "Datum_V": "MLWS", "Panjang": 3.415, "Panjang_NM": "3.415 mil laut", "Perairan": "Laut Timor", "Sumber": "PP", "Sumber_No": 38, "Sumber_Th": 2002 }, "geometry": { "type": "MultiLineString", "coordinates": [ [ [ 130.8131, -8.3447 ], [ 130.7558, -8.3483 ] ] ] } },
{ "type": "Feature", "properties": { "fid": 94, "ID": 94, "TipeSegmen": "Garis Pangkal Lurus Kepulauan", "Datum_H": "WGS'84", "Datum_V": "MLWS", "Panjang": 55.822, "Panjang_NM": "55.822 mil laut", "Perairan": "Laut Timor", "Sumber": "PP", "Sumber_No": 38, "Sumber_Th": 2002 }, "geometry": { "type": "MultiLineString", "coordinates": [ [ [ 130.7558, -8.3483 ], [ 129.8256, -8.2248 ] ] ] } },
{ "type": "Feature", "properties": { "fid": 95, "ID": 95, "TipeSegmen": "Garis Pangkal Lurus Kepulauan", "Datum_H": "WGS'84", "Datum_V": "MLWS", "Panjang": 78.367, "Panjang_NM": "78.367 mil laut", "Perairan": "Laut Timor", "Sumber": "PP", "Sumber_No": 38, "Sumber_Th": 2002 }, "geometry": { "type": "MultiLineString", "coordinates": [ [ [ 129.8256, -8.2248 ], [ 128.5144, -8.3525 ] ] ] } },
{ "type": "Feature", "properties": { "fid": 96, "ID": 96, "TipeSegmen": "Garis Pangkal Lurus Kepulauan", "Datum_H": "WGS'84", "Datum_V": "MLWS", "Panjang": 52.287, "Panjang_NM": "52.287 mil laut", "Perairan": "Laut Timor", "Sumber": "PP", "Sumber_No": 37, "Sumber_Th": 2008 }, "geometry": { "type": "MultiLineString", "coordinates": [ [ [ 128.5144, -8.3525 ], [ 127.6428, -8.2389 ] ] ] } },
{ "type": "Feature", "properties": { "fid": 97, "ID": 97, "TipeSegmen": "Garis Pangkal Biasa", "Datum_H": "WGS'84", "Datum_V": "MLWS", "Panjang": 0.503, "Panjang_NM": "0.503 mil laut", "Perairan": "Laut Timor", "Sumber": "PP", "Sumber_No": 37, "Sumber_Th": 2008 }, "geometry": { "type": "MultiLineString", "coordinates": [ [ [ 127.6428, -8.2389 ], [ 127.6344, -8.238 ] ] ] } },
{ "type": "Feature", "properties": { "fid": 98, "ID": 98, "TipeSegmen": "Garis Pangkal Lurus Kepulauan", "Datum_H": "WGS'84", "Datum_V": "MLWS", "Panjang": 30.073, "Panjang_NM": "30.073 mil laut", "Perairan": "Laut Timor", "Sumber": "PP", "Sumber_No": 37, "Sumber_Th": 2008 }, "geometry": { "type": "MultiLineString", "coordinates": [ [ [ 127.6344, -8.238 ], [ 127.1478, -8.1019 ] ] ] } },
{ "type": "Feature", "properties": { "fid": 99, "ID": 99, "TipeSegmen": "Garis Pangkal Lurus Kepulauan", "Datum_H": "WGS'84", "Datum_V": "MLWS", "Panjang": 41.256, "Panjang_NM": "41.256 mil laut", "Perairan": "Laut Wetar", "Sumber": "PP", "Sumber_No": 37, "Sumber_Th": 2008 }, "geometry": { "type": "MultiLineString", "coordinates": [ [ [ 127.1478, -8.1019 ], [ 126.4664, -7.9753 ] ] ] } },
{ "type": "Feature", "properties": { "fid": 100, "ID": 100, "TipeSegmen": "Garis Pangkal Lurus Kepulauan", "Datum_H": "WGS'84", "Datum_V": "MLWS", "Panjang": 43.844, "Panjang_NM": "43.844 mil laut", "Perairan": "Laut Wetar", "Sumber": "PP", "Sumber_No": 37, "Sumber_Th": 2008 }, "geometry": { "type": "MultiLineString", "coordinates": [ [ [ 126.4664, -7.9753 ], [ 125.735, -8.0622 ] ] ] } },
{ "type": "Feature", "properties": { "fid": 101, "ID": 101, "TipeSegmen": "Garis Pangkal Lurus Kepulauan", "Datum_H": "WGS'84", "Datum_V": "MLWS", "Panjang": 38.536, "Panjang_NM": "38.536 mil laut", "Perairan": "Laut Wetar", "Sumber": "PP", "Sumber_No": 37, "Sumber_Th": 2008 }, "geometry": { "type": "MultiLineString", "coordinates": [ [ [ 125.735, -8.0622 ], [ 125.1403, -8.3178 ] ] ] } },
{ "type": "Feature", "properties": { "fid": 102, "ID": 102, "TipeSegmen": "Garis Pangkal Biasa", "Datum_H": "WGS'84", "Datum_V": "MLWS", "Panjang": 5.308, "Panjang_NM": "5.308 mil laut", "Perairan": "Laut Ombai", "Sumber": "PP", "Sumber_No": 37, "Sumber_Th": 2008 }, "geometry": { "type": "MultiLineString", "coordinates": [ [ [ 125.1403, -8.3178 ], [ 125.0603, -8.3572 ] ] ] } },
{ "type": "Feature", "properties": { "fid": 103, "ID": 103, "TipeSegmen": "Garis Pangkal Lurus Kepulauan", "Datum_H": "WGS'84", "Datum_V": "MLWS", "Panjang": 16.5, "Panjang_NM": "16.5 mil laut", "Perairan": "Laut Ombai", "Sumber": "PP", "Sumber_No": 37, "Sumber_Th": 2008 }, "geometry": { "type": "MultiLineString", "coordinates": [ [ [ 125.0603, -8.3572 ], [ 124.7861, -8.3994 ] ] ] } },
{ "type": "Feature", "properties": { "fid": 104, "ID": 104, "TipeSegmen": "Garis Pangkal Lurus Kepulauan", "Datum_H": "WGS'84", "Datum_V": "MLWS", "Panjang": 34.693, "Panjang_NM": "34.693 mil laut", "Perairan": "Laut Ombai", "Sumber": "PP", "Sumber_No": 37, "Sumber_Th": 2008 }, "geometry": { "type": "MultiLineString", "coordinates": [ [ [ 124.7861, -8.3994 ], [ 124.9492, -8.9572 ] ] ] } },
{ "type": "Feature", "properties": { "fid": 105, "ID": 105, "TipeSegmen": "Garis Pangkal Lurus Kepulauan", "Datum_H": "WGS'84", "Datum_V": "MLWS", "Panjang": 11.89, "Panjang_NM": "11.89 mil laut", "Perairan": "Laut Timor", "Sumber": "PP", "Sumber_No": 38, "Sumber_Th": 2002 }, "geometry": { "type": "MultiLineString", "coordinates": [ [ [ 125.0889, -9.4603 ], [ 124.9942, -9.6358 ] ] ] } },
{ "type": "Feature", "properties": { "fid": 106, "ID": 106, "TipeSegmen": "Garis Pangkal Lurus Kepulauan", "Datum_H": "WGS'84", "Datum_V": "MLWS", "Panjang": 20.662, "Panjang_NM": "20.662 mil laut", "Perairan": "Laut Timor", "Sumber": "PP", "Sumber_No": 38, "Sumber_Th": 2002 }, "geometry": { "type": "MultiLineString", "coordinates": [ [ [ 124.9942, -9.6358 ], [ 124.75, -9.8828 ] ] ] } },
{ "type": "Feature", "properties": { "fid": 107, "ID": 107, "TipeSegmen": "Garis Pangkal Lurus Kepulauan", "Datum_H": "WGS'84", "Datum_V": "MLWS", "Panjang": 21.245, "Panjang_NM": "21.245 mil laut", "Perairan": "Laut Timor", "Sumber": "PP", "Sumber_No": 38, "Sumber_Th": 2002 }, "geometry": { "type": "MultiLineString", "coordinates": [ [ [ 124.75, -9.8828 ], [ 124.4831, -10.1206 ] ] ] } },
{ "type": "Feature", "properties": { "fid": 108, "ID": 108, "TipeSegmen": "Garis Pangkal Lurus Kepulauan", "Datum_H": "WGS'84", "Datum_V": "MLWS", "Panjang": 6.019, "Panjang_NM": "6.019 mil laut", "Perairan": "Laut Timor", "Sumber": "PP", "Sumber_No": 38, "Sumber_Th": 2002 }, "geometry": { "type": "MultiLineString", "coordinates": [ [ [ 124.4831, -10.1206 ], [ 124.3956, -10.172 ] ] ] } },
{ "type": "Feature", "properties": { "fid": 109, "ID": 109, "TipeSegmen": "Garis Pangkal Lurus Kepulauan", "Datum_H": "WGS'84", "Datum_V": "MLWS", "Panjang": 79.68, "Panjang_NM": "79.68 mil laut", "Perairan": "Laut Timor", "Sumber": "PP", "Sumber_No": 38, "Sumber_Th": 2002 }, "geometry": { "type": "MultiLineString", "coordinates": [ [ [ 124.3956, -10.172 ], [ 123.2228, -10.8298 ] ] ] } },
{ "type": "Feature", "properties": { "fid": 110, "ID": 110, "TipeSegmen": "Garis Pangkal Lurus Kepulauan", "Datum_H": "WGS'84", "Datum_V": "MLWS", "Panjang": 23.08, "Panjang_NM": "23.08 mil laut", "Perairan": "Samudra Hindia", "Sumber": "PP", "Sumber_No": 38, "Sumber_Th": 2002 }, "geometry": { "type": "MultiLineString", "coordinates": [ [ [ 123.2228, -10.8298 ], [ 122.8769, -11.01 ] ] ] } },
{ "type": "Feature", "properties": { "fid": 111, "ID": 111, "TipeSegmen": "Garis Pangkal Lurus Kepulauan", "Datum_H": "WGS'84", "Datum_V": "MLWS", "Panjang": 65.497, "Panjang_NM": "65.497 mil laut", "Perairan": "Samudra Hindia", "Sumber": "PP", "Sumber_No": 38, "Sumber_Th": 2002 }, "geometry": { "type": "MultiLineString", "coordinates": [ [ [ 122.8769, -11.01 ], [ 121.8375, -10.627 ] ] ] } },
{ "type": "Feature", "properties": { "fid": 112, "ID": 112, "TipeSegmen": "Garis Pangkal Lurus Kepulauan", "Datum_H": "WGS'84", "Datum_V": "MLWS", "Panjang": 35.02, "Panjang_NM": "35.02 mil laut", "Perairan": "Samudra Hindia", "Sumber": "PP", "Sumber_No": 38, "Sumber_Th": 2002 }, "geometry": { "type": "MultiLineString", "coordinates": [ [ [ 121.8375, -10.627 ], [ 121.2825, -10.8333 ] ] ] } },
{ "type": "Feature", "properties": { "fid": 113, "ID": 113, "TipeSegmen": "Garis Pangkal Biasa", "Datum_H": "WGS'84", "Datum_V": "MLWS", "Panjang": 0.327, "Panjang_NM": "0.327 mil laut", "Perairan": "Samudra Hindia", "Sumber": "PP", "Sumber_No": 38, "Sumber_Th": 2002 }, "geometry": { "type": "MultiLineString", "coordinates": [ [ [ 121.2825, -10.8333 ], [ 121.2772, -10.8317 ] ] ] } },
{ "type": "Feature", "properties": { "fid": 114, "ID": 114, "TipeSegmen": "Garis Pangkal Lurus Kepulauan", "Datum_H": "WGS'84", "Datum_V": "MLWS", "Panjang": 57.555, "Panjang_NM": "57.555 mil laut", "Perairan": "Samudra Hindia", "Sumber": "PP", "Sumber_No": 38, "Sumber_Th": 2002 }, "geometry": { "type": "MultiLineString", "coordinates": [ [ [ 121.2772, -10.8317 ], [ 120.4536, -10.3173 ] ] ] } },
{ "type": "Feature", "properties": { "fid": 115, "ID": 115, "TipeSegmen": "Garis Pangkal Lurus Kepulauan", "Datum_H": "WGS'84", "Datum_V": "MLWS", "Panjang": 19.938, "Panjang_NM": "19.938 mil laut", "Perairan": "Samudra Hindia", "Sumber": "PP", "Sumber_No": 38, "Sumber_Th": 2002 }, "geometry": { "type": "MultiLineString", "coordinates": [ [ [ 120.4536, -10.3173 ], [ 120.1172, -10.3394 ] ] ] } },
{ "type": "Feature", "properties": { "fid": 116, "ID": 116, "TipeSegmen": "Garis Pangkal Biasa", "Datum_H": "WGS'84", "Datum_V": "MLWS", "Panjang": 1.107, "Panjang_NM": "1.107 mil laut", "Perairan": "Samudra Hindia", "Sumber": "PP", "Sumber_No": 38, "Sumber_Th": 2002 }, "geometry": { "type": "MultiLineString", "coordinates": [ [ [ 120.1172, -10.3394 ], [ 120.0989, -10.3355 ] ] ] } },
{ "type": "Feature", "properties": { "fid": 117, "ID": 117, "TipeSegmen": "Garis Pangkal Lurus Kepulauan", "Datum_H": "WGS'84", "Datum_V": "MLWS", "Panjang": 72.439, "Panjang_NM": "72.439 mil laut", "Perairan": "Samudra Hindia", "Sumber": "PP", "Sumber_No": 38, "Sumber_Th": 2002 }, "geometry": { "type": "MultiLineString", "coordinates": [ [ [ 120.0989, -10.3355 ], [ 119.0575, -9.6986 ] ] ] } },
{ "type": "Feature", "properties": { "fid": 118, "ID": 118, "TipeSegmen": "Garis Pangkal Biasa", "Datum_H": "WGS'84", "Datum_V": "MLWS", "Panjang": 11.301, "Panjang_NM": "11.301 mil laut", "Perairan": "Samudra Hindia", "Sumber": "PP", "Sumber_No": 38, "Sumber_Th": 2002 }, "geometry": { "type": "MultiLineString", "coordinates": [ [ [ 119.0575, -9.6986 ], [ 118.9247, -9.5628 ] ] ] } },
{ "type": "Feature", "properties": { "fid": 119, "ID": 119, "TipeSegmen": "Garis Pangkal Lurus Kepulauan", "Datum_H": "WGS'84", "Datum_V": "MLWS", "Panjang": 48.52, "Panjang_NM": "48.52 mil laut", "Perairan": "Samudra Hindia", "Sumber": "PP", "Sumber_No": 38, "Sumber_Th": 2002 }, "geometry": { "type": "MultiLineString", "coordinates": [ [ [ 118.9247, -9.5628 ], [ 118.4672, -8.8894 ] ] ] } },
{ "type": "Feature", "properties": { "fid": 120, "ID": 120, "TipeSegmen": "Garis Pangkal Lurus Kepulauan", "Datum_H": "WGS'84", "Datum_V": "MLWS", "Panjang": 84.711, "Panjang_NM": "84.711 mil laut", "Perairan": "Samudra Hindia", "Sumber": "PP", "Sumber_No": 38, "Sumber_Th": 2002 }, "geometry": { "type": "MultiLineString", "coordinates": [ [ [ 118.4672, -8.8894 ], [ 117.0569, -9.1042 ] ] ] } },
{ "type": "Feature", "properties": { "fid": 121, "ID": 121, "TipeSegmen": "Garis Pangkal Lurus Kepulauan", "Datum_H": "WGS'84", "Datum_V": "MLWS", "Panjang": 2.643, "Panjang_NM": "2.643 mil laut", "Perairan": "Samudra Hindia", "Sumber": "PP", "Sumber_No": 38, "Sumber_Th": 2002 }, "geometry": { "type": "MultiLineString", "coordinates": [ [ [ 117.0569, -9.1042 ], [ 117.0128, -9.1103 ] ] ] } },
{ "type": "Feature", "properties": { "fid": 122, "ID": 122, "TipeSegmen": "Garis Pangkal Lurus Kepulauan", "Datum_H": "WGS'84", "Datum_V": "MLWS", "Panjang": 61.041, "Panjang_NM": "61.041 mil laut", "Perairan": "Samudra Hindia", "Sumber": "PP", "Sumber_No": 38, "Sumber_Th": 2002 }, "geometry": { "type": "MultiLineString", "coordinates": [ [ [ 117.0128, -9.1103 ], [ 116.0022, -8.9223 ] ] ] } },
{ "type": "Feature", "properties": { "fid": 123, "ID": 123, "TipeSegmen": "Garis Pangkal Lurus Kepulauan", "Datum_H": "WGS'84", "Datum_V": "MLWS", "Panjang": 25.414, "Panjang_NM": "25.414 mil laut", "Perairan": "Samudra Hindia", "Sumber": "PP", "Sumber_No": 38, "Sumber_Th": 2002 }, "geometry": { "type": "MultiLineString", "coordinates": [ [ [ 116.0022, -8.9223 ], [ 115.5869, -8.8198 ] ] ] } },
{ "type": "Feature", "properties": { "fid": 124, "ID": 124, "TipeSegmen": "Garis Pangkal Lurus Kepulauan", "Datum_H": "WGS'84", "Datum_V": "MLWS", "Panjang": 24.505, "Panjang_NM": "24.505 mil laut", "Perairan": "Samudra Hindia", "Sumber": "PP", "Sumber_No": 38, "Sumber_Th": 2002 }, "geometry": { "type": "MultiLineString", "coordinates": [ [ [ 115.5869, -8.8198 ], [ 115.1756, -8.8517 ] ] ] } },
{ "type": "Feature", "properties": { "fid": 125, "ID": 125, "TipeSegmen": "Garis Pangkal Biasa", "Datum_H": "WGS'84", "Datum_V": "MLWS", "Panjang": 3.983, "Panjang_NM": "3.983 mil laut", "Perairan": "Samudra Hindia", "Sumber": "PP", "Sumber_No": 38, "Sumber_Th": 2002 }, "geometry": { "type": "MultiLineString", "coordinates": [ [ [ 115.1756, -8.8517 ], [ 115.1086, -8.8489 ] ] ] } },
{ "type": "Feature", "properties": { "fid": 126, "ID": 126, "TipeSegmen": "Garis Pangkal Lurus Kepulauan", "Datum_H": "WGS'84", "Datum_V": "MLWS", "Panjang": 34.815, "Panjang_NM": "34.815 mil laut", "Perairan": "Samudra Hindia", "Sumber": "PP", "Sumber_No": 38, "Sumber_Th": 2002 }, "geometry": { "type": "MultiLineString", "coordinates": [ [ [ 115.1086, -8.8489 ], [ 114.5258, -8.7872 ] ] ] } },
{ "type": "Feature", "properties": { "fid": 127, "ID": 127, "TipeSegmen": "Garis Pangkal Lurus Kepulauan", "Datum_H": "WGS'84", "Datum_V": "MLWS", "Panjang": 75.098, "Panjang_NM": "75.098 mil laut", "Perairan": "Samudra Hindia", "Sumber": "PP", "Sumber_No": 38, "Sumber_Th": 2002 }, "geometry": { "type": "MultiLineString", "coordinates": [ [ [ 114.5258, -8.7872 ], [ 113.2936, -8.5083 ] ] ] } },
{ "type": "Feature", "properties": { "fid": 128, "ID": 128, "TipeSegmen": "Garis Pangkal Lurus Kepulauan", "Datum_H": "WGS'84", "Datum_V": "MLWS", "Panjang": 94.437, "Panjang_NM": "94.437 mil laut", "Perairan": "Samudra Hindia", "Sumber": "PP", "Sumber_No": 38, "Sumber_Th": 2002 }, "geometry": { "type": "MultiLineString", "coordinates": [ [ [ 113.2936, -8.5083 ], [ 111.7086, -8.4067 ] ] ] } },
{ "type": "Feature", "properties": { "fid": 129, "ID": 129, "TipeSegmen": "Garis Pangkal Lurus Kepulauan", "Datum_H": "WGS'84", "Datum_V": "MLWS", "Panjang": 11.915, "Panjang_NM": "11.915 mil laut", "Perairan": "Samudra Hindia", "Sumber": "PP", "Sumber_No": 38, "Sumber_Th": 2002 }, "geometry": { "type": "MultiLineString", "coordinates": [ [ [ 111.7086, -8.4067 ], [ 111.5114, -8.3714 ] ] ] } },
{ "type": "Feature", "properties": { "fid": 130, "ID": 130, "TipeSegmen": "Garis Pangkal Lurus Kepulauan", "Datum_H": "WGS'84", "Datum_V": "MLWS", "Panjang": 48.829, "Panjang_NM": "48.829 mil laut", "Perairan": "Samudra Hindia", "Sumber": "PP", "Sumber_No": 38, "Sumber_Th": 2002 }, "geometry": { "type": "MultiLineString", "coordinates": [ [ [ 111.5114, -8.3714 ], [ 110.7086, -8.2008 ] ] ] } },
{ "type": "Feature", "properties": { "fid": 131, "ID": 131, "TipeSegmen": "Garis Pangkal Lurus Kepulauan", "Datum_H": "WGS'84", "Datum_V": "MLWS", "Panjang": 17.111, "Panjang_NM": "17.111 mil laut", "Perairan": "Samudra Hindia", "Sumber": "PP", "Sumber_No": 37, "Sumber_Th": 2008 }, "geometry": { "type": "MultiLineString", "coordinates": [ [ [ 110.7086, -8.2008 ], [ 110.4389, -8.1014 ] ] ] } },
{ "type": "Feature", "properties": { "fid": 132, "ID": 132, "TipeSegmen": "Garis Pangkal Lurus Kepulauan", "Datum_H": "WGS'84", "Datum_V": "MLWS", "Panjang": 63.04, "Panjang_NM": "63.04 mil laut", "Perairan": "Samudra Hindia", "Sumber": "PP", "Sumber_No": 37, "Sumber_Th": 2008 }, "geometry": { "type": "MultiLineString", "coordinates": [ [ [ 110.4389, -8.1014 ], [ 109.4311, -7.7775 ] ] ] } },
{ "type": "Feature", "properties": { "fid": 133, "ID": 133, "TipeSegmen": "Garis Pangkal Lurus Kepulauan", "Datum_H": "WGS'84", "Datum_V": "MLWS", "Panjang": 23.13, "Panjang_NM": "23.13 mil laut", "Perairan": "Samudra Hindia", "Sumber": "PP", "Sumber_No": 38, "Sumber_Th": 2002 }, "geometry": { "type": "MultiLineString", "coordinates": [ [ [ 109.4311, -7.7775 ], [ 109.0428, -7.7847 ] ] ] } },
{ "type": "Feature", "properties": { "fid": 134, "ID": 134, "TipeSegmen": "Garis Pangkal Lurus Kepulauan", "Datum_H": "WGS'84", "Datum_V": "MLWS", "Panjang": 36.412, "Panjang_NM": "36.412 mil laut", "Perairan": "Samudra Hindia", "Sumber": "PP", "Sumber_No": 38, "Sumber_Th": 2002 }, "geometry": { "type": "MultiLineString", "coordinates": [ [ [ 109.0428, -7.7847 ], [ 108.4325, -7.8214 ] ] ] } },
{ "type": "Feature", "properties": { "fid": 135, "ID": 135, "TipeSegmen": "Garis Pangkal Lurus Kepulauan", "Datum_H": "WGS'84", "Datum_V": "MLWS", "Panjang": 6.599, "Panjang_NM": "6.599 mil laut", "Perairan": "Samudra Hindia", "Sumber": "PP", "Sumber_No": 38, "Sumber_Th": 2002 }, "geometry": { "type": "MultiLineString", "coordinates": [ [ [ 108.4325, -7.8214 ], [ 108.3217, -7.8198 ] ] ] } },
{ "type": "Feature", "properties": { "fid": 136, "ID": 136, "TipeSegmen": "Garis Pangkal Lurus Kepulauan", "Datum_H": "WGS'84", "Datum_V": "MLWS", "Panjang": 1.383, "Panjang_NM": "1.383 mil laut", "Perairan": "Samudra Hindia", "Sumber": "PP", "Sumber_No": 38, "Sumber_Th": 2002 }, "geometry": { "type": "MultiLineString", "coordinates": [ [ [ 108.3217, -7.8198 ], [ 108.2986, -7.8175 ] ] ] } },
{ "type": "Feature", "properties": { "fid": 137, "ID": 137, "TipeSegmen": "Garis Pangkal Lurus Kepulauan", "Datum_H": "WGS'84", "Datum_V": "MLWS", "Panjang": 27.552, "Panjang_NM": "27.552 mil laut", "Perairan": "Samudra Hindia", "Sumber": "PP", "Sumber_No": 38, "Sumber_Th": 2002 }, "geometry": { "type": "MultiLineString", "coordinates": [ [ [ 108.2986, -7.8175 ], [ 107.8422, -7.7422 ] ] ] } },
{ "type": "Feature", "properties": { "fid": 138, "ID": 138, "TipeSegmen": "Garis Pangkal Lurus Kepulauan", "Datum_H": "WGS'84", "Datum_V": "MLWS", "Panjang": 88.264, "Panjang_NM": "88.264 mil laut", "Perairan": "Samudra Hindia", "Sumber": "PP", "Sumber_No": 38, "Sumber_Th": 2002 }, "geometry": { "type": "MultiLineString", "coordinates": [ [ [ 107.8422, -7.7422 ], [ 106.4039, -7.3889 ] ] ] } },
{ "type": "Feature", "properties": { "fid": 139, "ID": 139, "TipeSegmen": "Garis Pangkal Lurus Kepulauan", "Datum_H": "WGS'84", "Datum_V": "MLWS", "Panjang": 57.009, "Panjang_NM": "57.009 mil laut", "Perairan": "Samudra Hindia", "Sumber": "PP", "Sumber_No": 38, "Sumber_Th": 2002 }, "geometry": { "type": "MultiLineString", "coordinates": [ [ [ 106.4039, -7.3889 ], [ 105.5236, -7.0167 ] ] ] } },
{ "type": "Feature", "properties": { "fid": 140, "ID": 140, "TipeSegmen": "Garis Pangkal Lurus Kepulauan", "Datum_H": "WGS'84", "Datum_V": "MLWS", "Panjang": 18.354, "Panjang_NM": "18.354 mil laut", "Perairan": "Samudra Hindia", "Sumber": "PP", "Sumber_No": 38, "Sumber_Th": 2002 }, "geometry": { "type": "MultiLineString", "coordinates": [ [ [ 105.5236, -7.0167 ], [ 105.2622, -6.8547 ] ] ] } },
{ "type": "Feature", "properties": { "fid": 141, "ID": 141, "TipeSegmen": "Garis Pangkal Lurus Kepulauan", "Datum_H": "WGS'84", "Datum_V": "MLWS", "Panjang": 1.664, "Panjang_NM": "1.664 mil laut", "Perairan": "Samudra Hindia", "Sumber": "PP", "Sumber_No": 38, "Sumber_Th": 2002 }, "geometry": { "type": "MultiLineString", "coordinates": [ [ [ 105.2622, -6.8547 ], [ 105.2389, -6.8394 ] ] ] } },
{ "type": "Feature", "properties": { "fid": 142, "ID": 142, "TipeSegmen": "Garis Pangkal Lurus Kepulauan", "Datum_H": "WGS'84", "Datum_V": "MLWS", "Panjang": 73.818, "Panjang_NM": "73.818 mil laut", "Perairan": "Samudra Hindia", "Sumber": "PP", "Sumber_No": 38, "Sumber_Th": 2002 }, "geometry": { "type": "MultiLineString", "coordinates": [ [ [ 105.2389, -6.8394 ], [ 104.4406, -5.8958 ] ] ] } },
{ "type": "Feature", "properties": { "fid": 143, "ID": 143, "TipeSegmen": "Garis Pangkal Lurus Kepulauan", "Datum_H": "WGS'84", "Datum_V": "MLWS", "Panjang": 50.219, "Panjang_NM": "50.219 mil laut", "Perairan": "Samudra Hindia", "Sumber": "PP", "Sumber_No": 38, "Sumber_Th": 2002 }, "geometry": { "type": "MultiLineString", "coordinates": [ [ [ 104.4406, -5.8958 ], [ 103.9158, -5.2394 ] ] ] } },
{ "type": "Feature", "properties": { "fid": 144, "ID": 144, "TipeSegmen": "Garis Pangkal Lurus Kepulauan", "Datum_H": "WGS'84", "Datum_V": "MLWS", "Panjang": 94.945, "Panjang_NM": "94.945 mil laut", "Perairan": "Samudra Hindia", "Sumber": "PP", "Sumber_No": 38, "Sumber_Th": 2002 }, "geometry": { "type": "MultiLineString", "coordinates": [ [ [ 103.9158, -5.2394 ], [ 102.3531, -5.5139 ] ] ] } },
{ "type": "Feature", "properties": { "fid": 145, "ID": 145, "TipeSegmen": "Garis Pangkal Lurus Kepulauan", "Datum_H": "WGS'84", "Datum_V": "MLWS", "Panjang": 5.184, "Panjang_NM": "5.184 mil laut", "Perairan": "Samudra Hindia", "Sumber": "PP", "Sumber_No": 38, "Sumber_Th": 2002 }, "geometry": { "type": "MultiLineString", "coordinates": [ [ [ 102.3531, -5.5139 ], [ 102.2667, -5.5203 ] ] ] } },
{ "type": "Feature", "properties": { "fid": 146, "ID": 146, "TipeSegmen": "Garis Pangkal Biasa", "Datum_H": "WGS'84", "Datum_V": "MLWS", "Panjang": 1.483, "Panjang_NM": "1.483 mil laut", "Perairan": "Samudra Hindia", "Sumber": "PP", "Sumber_No": 38, "Sumber_Th": 2002 }, "geometry": { "type": "MultiLineString", "coordinates": [ [ [ 102.2667, -5.5203 ], [ 102.245, -5.5083 ] ] ] } },
{ "type": "Feature", "properties": { "fid": 147, "ID": 147, "TipeSegmen": "Garis Pangkal Lurus Kepulauan", "Datum_H": "WGS'84", "Datum_V": "MLWS", "Panjang": 13.08, "Panjang_NM": "13.08 mil laut", "Perairan": "Samudra Hindia", "Sumber": "PP", "Sumber_No": 38, "Sumber_Th": 2002 }, "geometry": { "type": "MultiLineString", "coordinates": [ [ [ 102.245, -5.5083 ], [ 102.0844, -5.3597 ] ] ] } },
{ "type": "Feature", "properties": { "fid": 148, "ID": 148, "TipeSegmen": "Garis Pangkal Lurus Kepulauan", "Datum_H": "WGS'84", "Datum_V": "MLWS", "Panjang": 101.914, "Panjang_NM": "101.914 mil laut", "Perairan": "Samudra Hindia", "Sumber": "PP", "Sumber_No": 38, "Sumber_Th": 2002 }, "geometry": { "type": "MultiLineString", "coordinates": [ [ [ 102.0844, -5.3597 ], [ 101.0303, -4.02 ] ] ] } },
{ "type": "Feature", "properties": { "fid": 149, "ID": 149, "TipeSegmen": "Garis Pangkal Lurus Kepulauan", "Datum_H": "WGS'84", "Datum_V": "MLWS", "Panjang": 60.264, "Panjang_NM": "60.264 mil laut", "Perairan": "Samudra Hindia", "Sumber": "PP", "Sumber_No": 38, "Sumber_Th": 2002 }, "geometry": { "type": "MultiLineString", "coordinates": [ [ [ 101.0303, -4.02 ], [ 100.3297, -3.2966 ] ] ] } },
{ "type": "Feature", "properties": { "fid": 150, "ID": 150, "TipeSegmen": "Garis Pangkal Lurus Kepulauan", "Datum_H": "WGS'84", "Datum_V": "MLWS", "Panjang": 33.872, "Panjang_NM": "33.872 mil laut", "Perairan": "Samudra Hindia", "Sumber": "PP", "Sumber_No": 38, "Sumber_Th": 2002 }, "geometry": { "type": "MultiLineString", "coordinates": [ [ [ 100.3297, -3.2966 ], [ 99.9986, -2.8372 ] ] ] } },
{ "type": "Feature", "properties": { "fid": 151, "ID": 151, "TipeSegmen": "Garis Pangkal Lurus Kepulauan", "Datum_H": "WGS'84", "Datum_V": "MLWS", "Panjang": 80.195, "Panjang_NM": "80.195 mil laut", "Perairan": "Samudra Hindia", "Sumber": "PP", "Sumber_No": 38, "Sumber_Th": 2002 }, "geometry": { "type": "MultiLineString", "coordinates": [ [ [ 99.9986, -2.8372 ], [ 99.0761, -1.8661 ] ] ] } },
{ "type": "Feature", "properties": { "fid": 152, "ID": 152, "TipeSegmen": "Garis Pangkal Biasa", "Datum_H": "WGS'84", "Datum_V": "MLWS", "Panjang": 16.41, "Panjang_NM": "16.41 mil laut", "Perairan": "Samudra Hindia", "Sumber": "PP", "Sumber_No": 38, "Sumber_Th": 2002 }, "geometry": { "type": "MultiLineString", "coordinates": [ [ [ 99.0761, -1.8661 ], [ 98.8764, -1.6786 ] ] ] } },
{ "type": "Feature", "properties": { "fid": 153, "ID": 153, "TipeSegmen": "Garis Pangkal Lurus Kepulauan", "Datum_H": "WGS'84", "Datum_V": "MLWS", "Panjang": 81.228, "Panjang_NM": "81.228 mil laut", "Perairan": "Samudra Hindia", "Sumber": "PP", "Sumber_No": 38, "Sumber_Th": 2002 }, "geometry": { "type": "MultiLineString", "coordinates": [ [ [ 98.6019, -1.2256 ], [ 97.8539, -0.0925 ] ] ] } },
{ "type": "Feature", "properties": { "fid": 154, "ID": 154, "TipeSegmen": "Garis Pangkal Biasa", "Datum_H": "WGS'84", "Datum_V": "MLWS", "Panjang": 1.836, "Panjang_NM": "1.836 mil laut", "Perairan": "Samudra Hindia", "Sumber": "PP", "Sumber_No": 38, "Sumber_Th": 2002 }, "geometry": { "type": "MultiLineString", "coordinates": [ [ [ 97.8539, -0.0925 ], [ 97.8353, -0.0681 ] ] ] } },
{ "type": "Feature", "properties": { "fid": 155, "ID": 155, "TipeSegmen": "Garis Pangkal Lurus Kepulauan", "Datum_H": "WGS'84", "Datum_V": "MLWS", "Panjang": 88.951, "Panjang_NM": "88.951 mil laut", "Perairan": "Samudra Hindia", "Sumber": "PP", "Sumber_No": 38, "Sumber_Th": 2002 }, "geometry": { "type": "MultiLineString", "coordinates": [ [ [ 97.8353, -0.0681 ], [ 97.08, 1.2131 ] ] ] } },
{ "type": "Feature", "properties": { "fid": 156, "ID": 156, "TipeSegmen": "Garis Pangkal Lurus Kepulauan", "Datum_H": "WGS'84", "Datum_V": "MLWS", "Panjang": 11.534, "Panjang_NM": "11.534 mil laut", "Perairan": "Samudra Hindia", "Sumber": "PP", "Sumber_No": 38, "Sumber_Th": 2002 }, "geometry": { "type": "MultiLineString", "coordinates": [ [ [ 97.08, 1.2131 ], [ 97.0606, 1.4053 ] ] ] } },
{ "type": "Feature", "properties": { "fid": 157, "ID": 157, "TipeSegmen": "Garis Pangkal Lurus Kepulauan", "Datum_H": "WGS'84", "Datum_V": "MLWS", "Panjang": 96.006, "Panjang_NM": "96.006 mil laut", "Perairan": "Samudra Hindia", "Sumber": "PP", "Sumber_No": 38, "Sumber_Th": 2002 }, "geometry": { "type": "MultiLineString", "coordinates": [ [ [ 97.0606, 1.4053 ], [ 95.9181, 2.5297 ] ] ] } },
{ "type": "Feature", "properties": { "fid": 158, "ID": 158, "TipeSegmen": "Garis Pangkal Lurus Kepulauan", "Datum_H": "WGS'84", "Datum_V": "MLWS", "Panjang": 40.837, "Panjang_NM": "40.837 mil laut", "Perairan": "Samudra Hindia", "Sumber": "PP", "Sumber_No": 38, "Sumber_Th": 2002 }, "geometry": { "type": "MultiLineString", "coordinates": [ [ [ 95.9181, 2.5297 ], [ 95.3928, 2.9642 ] ] ] } },
{ "type": "Feature", "properties": { "fid": 159, "ID": 159, "TipeSegmen": "Garis Pangkal Biasa", "Datum_H": "WGS'84", "Datum_V": "MLWS", "Panjang": 1.189, "Panjang_NM": "1.189 mil laut", "Perairan": "Samudra Hindia", "Sumber": "PP", "Sumber_No": 38, "Sumber_Th": 2002 }, "geometry": { "type": "MultiLineString", "coordinates": [ [ [ 95.3928, 2.9642 ], [ 95.385, 2.9825 ] ] ] } },
{ "type": "Feature", "properties": { "fid": 160, "ID": 160, "TipeSegmen": "Garis Pangkal Lurus Kepulauan", "Datum_H": "WGS'84", "Datum_V": "MLWS", "Panjang": 113.053, "Panjang_NM": "113.053 mil laut", "Perairan": "Samudra Hindia", "Sumber": "PP", "Sumber_No": 38, "Sumber_Th": 2002 }, "geometry": { "type": "MultiLineString", "coordinates": [ [ [ 95.385, 2.9825 ], [ 95.3628, 4.8758 ] ] ] } },
{ "type": "Feature", "properties": { "fid": 161, "ID": 161, "TipeSegmen": "Garis Pangkal Lurus Kepulauan", "Datum_H": "WGS'84", "Datum_V": "MLWS", "Panjang": 25.77, "Panjang_NM": "25.77 mil laut", "Perairan": "Samudra Hindia", "Sumber": "PP", "Sumber_No": 38, "Sumber_Th": 2002 }, "geometry": { "type": "MultiLineString", "coordinates": [ [ [ 95.3628, 4.8758 ], [ 95.2019, 5.2761 ] ] ] } },
{ "type": "Feature", "properties": { "fid": 162, "ID": 162, "TipeSegmen": "Garis Pangkal Lurus Kepulauan", "Datum_H": "WGS'84", "Datum_V": "MLWS", "Panjang": 33.768, "Panjang_NM": "33.768 mil laut", "Perairan": "Samudra Hindia", "Sumber": "PP", "Sumber_No": 38, "Sumber_Th": 2002 }, "geometry": { "type": "MultiLineString", "coordinates": [ [ [ 95.2019, 5.2761 ], [ 94.9725, 5.7928 ] ] ] } },
{ "type": "Feature", "properties": { "fid": 163, "ID": 163, "TipeSegmen": "Garis Pangkal Lurus Kepulauan", "Datum_H": "WGS'84", "Datum_V": "MLWS", "Panjang": 18.815, "Panjang_NM": "18.815 mil laut", "Perairan": "Samudra Hindia", "Sumber": "PP", "Sumber_No": 38, "Sumber_Th": 2002 }, "geometry": { "type": "MultiLineString", "coordinates": [ [ [ 94.9725, 5.7928 ], [ 95.1125, 6.075 ] ] ] } },
{ "type": "Feature", "properties": { "fid": 164, "ID": 164, "TipeSegmen": "Garis Pangkal Biasa", "Datum_H": "WGS'84", "Datum_V": "MLWS", "Panjang": 0.43, "Panjang_NM": "0.43 mil laut", "Perairan": "Samudra Hindia", "Sumber": "PP", "Sumber_No": 38, "Sumber_Th": 2002 }, "geometry": { "type": "MultiLineString", "coordinates": [ [ [ 95.1125, 6.075 ], [ 95.1197, 6.075 ] ] ] } },
{ "type": "Feature", "properties": { "fid": 165, "ID": 165, "TipeSegmen": "Garis Pangkal Lurus Kepulauan", "Datum_H": "WGS'84", "Datum_V": "MLWS", "Panjang": 16.648, "Panjang_NM": "16.648 mil laut", "Perairan": "Samudra Hindia", "Sumber": "PP", "Sumber_No": 38, "Sumber_Th": 2002 }, "geometry": { "type": "MultiLineString", "coordinates": [ [ [ 95.1197, 6.075 ], [ 95.3342, 5.8972 ] ] ] } },
{ "type": "Feature", "properties": { "fid": 166, "ID": 166, "TipeSegmen": "Garis Pangkal Lurus Kepulauan", "Datum_H": "WGS'84", "Datum_V": "MLWS", "Panjang": 40.615, "Panjang_NM": "40.615 mil laut", "Perairan": "Selat Malaka", "Sumber": "PP", "Sumber_No": 38, "Sumber_Th": 2002 }, "geometry": { "type": "MultiLineString", "coordinates": [ [ [ 95.3342, 5.8972 ], [ 95.8878, 5.5033 ] ] ] } },
{ "type": "Feature", "properties": { "fid": 167, "ID": 167, "TipeSegmen": "Garis Pangkal Lurus Kepulauan", "Datum_H": "WGS'84", "Datum_V": "MLWS", "Panjang": 58.15, "Panjang_NM": "58.15 mil laut", "Perairan": "Selat Malaka", "Sumber": "PP", "Sumber_No": 38, "Sumber_Th": 2002 }, "geometry": { "type": "MultiLineString", "coordinates": [ [ [ 95.8878, 5.5033 ], [ 96.8325, 5.2753 ] ] ] } },
{ "type": "Feature", "properties": { "fid": 168, "ID": 168, "TipeSegmen": "Garis Pangkal Lurus Kepulauan", "Datum_H": "WGS'84", "Datum_V": "MLWS", "Panjang": 39.645, "Panjang_NM": "39.645 mil laut", "Perairan": "Selat Malaka", "Sumber": "PP", "Sumber_No": 38, "Sumber_Th": 2002 }, "geometry": { "type": "MultiLineString", "coordinates": [ [ [ 96.8325, 5.2753 ], [ 97.4944, 5.2511 ] ] ] } },
{ "type": "Feature", "properties": { "fid": 169, "ID": 169, "TipeSegmen": "Garis Pangkal Biasa", "Datum_H": "WGS'84", "Datum_V": "MLWS", "Panjang": 3.818, "Panjang_NM": "3.818 mil laut", "Perairan": "Selat Malaka", "Sumber": "PP", "Sumber_No": 38, "Sumber_Th": 2002 }, "geometry": { "type": "MultiLineString", "coordinates": [ [ [ 97.4944, 5.2511 ], [ 97.5483, 5.2169 ] ] ] } },
{ "type": "Feature", "properties": { "fid": 170, "ID": 170, "TipeSegmen": "Garis Pangkal Lurus Kepulauan", "Datum_H": "WGS'84", "Datum_V": "MLWS", "Panjang": 29.161, "Panjang_NM": "29.161 mil laut", "Perairan": "Selat Malaka", "Sumber": "PP", "Sumber_No": 38, "Sumber_Th": 2002 }, "geometry": { "type": "MultiLineString", "coordinates": [ [ [ 97.5483, 5.2169 ], [ 97.9136, 4.8939 ] ] ] } },
{ "type": "Feature", "properties": { "fid": 171, "ID": 171, "TipeSegmen": "Garis Pangkal Lurus Kepulauan", "Datum_H": "WGS'84", "Datum_V": "MLWS", "Panjang": 35.777, "Panjang_NM": "35.777 mil laut", "Perairan": "Selat Malaka", "Sumber": "PP", "Sumber_No": 38, "Sumber_Th": 2002 }, "geometry": { "type": "MultiLineString", "coordinates": [ [ [ 97.9136, 4.8939 ], [ 98.2875, 4.4267 ] ] ] } },
{ "type": "Feature", "properties": { "fid": 172, "ID": 172, "TipeSegmen": "Garis Pangkal Lurus Kepulauan", "Datum_H": "WGS'84", "Datum_V": "MLWS", "Panjang": 82.434, "Panjang_NM": "82.434 mil laut", "Perairan": "Selat Malaka", "Sumber": "PP", "Sumber_No": 38, "Sumber_Th": 2002 }, "geometry": { "type": "MultiLineString", "coordinates": [ [ [ 98.2875, 4.4267 ], [ 99.5008, 3.7772 ] ] ] } },
{ "type": "Feature", "properties": { "fid": 173, "ID": 173, "TipeSegmen": "Garis Pangkal Lurus Kepulauan", "Datum_H": "WGS'84", "Datum_V": "MLWS", "Panjang": 89.358, "Panjang_NM": "89.358 mil laut", "Perairan": "Selat Malaka", "Sumber": "PP", "Sumber_No": 38, "Sumber_Th": 2002 }, "geometry": { "type": "MultiLineString", "coordinates": [ [ [ 99.5008, 3.7772 ], [ 100.6847, 2.8694 ] ] ] } },
{ "type": "Feature", "properties": { "fid": 174, "ID": 174, "TipeSegmen": "Garis Pangkal Lurus Kepulauan", "Datum_H": "WGS'84", "Datum_V": "MLWS", "Panjang": 76.917, "Panjang_NM": "76.917 mil laut", "Perairan": "Selat Malaka", "Sumber": "PP", "Sumber_No": 38, "Sumber_Th": 2002 }, "geometry": { "type": "MultiLineString", "coordinates": [ [ [ 100.6847, 2.8694 ], [ 101.7083, 2.095 ] ] ] } },
{ "type": "Feature", "properties": { "fid": 175, "ID": 175, "TipeSegmen": "Garis Pangkal Lurus Kepulauan", "Datum_H": "WGS'84", "Datum_V": "MLWS", "Panjang": 57.054, "Panjang_NM": "57.054 mil laut", "Perairan": "Selat Malaka", "Sumber": "PP", "Sumber_No": 38, "Sumber_Th": 2002 }, "geometry": { "type": "MultiLineString", "coordinates": [ [ [ 101.7083, 2.095 ], [ 102.4703, 1.5247 ] ] ] } },
{ "type": "Feature", "properties": { "fid": 176, "ID": 176, "TipeSegmen": "Garis Pangkal Lurus Kepulauan", "Datum_H": "WGS'84", "Datum_V": "MLWS", "Panjang": 39.246, "Panjang_NM": "39.246 mil laut", "Perairan": "Selat Malaka", "Sumber": "PP", "Sumber_No": 38, "Sumber_Th": 2002 }, "geometry": { "type": "MultiLineString", "coordinates": [ [ [ 102.4703, 1.5247 ], [ 102.9697, 1.1011 ] ] ] } },
{ "type": "Feature", "properties": { "fid": 177, "ID": 177, "TipeSegmen": "Garis Pangkal Lurus Kepulauan", "Datum_H": "WGS'84", "Datum_V": "MLWS", "Panjang": 23.615, "Panjang_NM": "23.615 mil laut", "Perairan": "Selat Malaka", "Sumber": "PP", "Sumber_No": 38, "Sumber_Th": 2002 }, "geometry": { "type": "MultiLineString", "coordinates": [ [ [ 102.9697, 1.1011 ], [ 103.3522, 1.1917 ] ] ] } },
{ "type": "Feature", "properties": { "fid": 178, "ID": 178, "TipeSegmen": "Garis Pangkal Lurus Kepulauan", "Datum_H": "WGS'84", "Datum_V": "MLWS", "Panjang": 2.673, "Panjang_NM": "2.673 mil laut", "Perairan": "Selat Malaka", "Sumber": "PP", "Sumber_No": 38, "Sumber_Th": 2002 }, "geometry": { "type": "MultiLineString", "coordinates": [ [ [ 103.3522, 1.1917 ], [ 103.3889, 1.1664 ] ] ] } },
{ "type": "Feature", "properties": { "fid": 179, "ID": 179, "TipeSegmen": "Garis Pangkal Lurus Kepulauan", "Datum_H": "WGS'84", "Datum_V": "MLWS", "Panjang": 15.896, "Panjang_NM": "15.896 mil laut", "Perairan": "Selat Malaka", "Sumber": "PP", "Sumber_No": 38, "Sumber_Th": 2002 }, "geometry": { "type": "MultiLineString", "coordinates": [ [ [ 103.3889, 1.1664 ], [ 103.6531, 1.1536 ] ] ] } },
{ "type": "Feature", "properties": { "fid": 180, "ID": 180, "TipeSegmen": "Garis Pangkal Biasa", "Datum_H": "WGS'84", "Datum_V": "MLWS", "Panjang": 0.163, "Panjang_NM": "0.163 mil laut", "Perairan": "Selat Main", "Sumber": "PP", "Sumber_No": 38, "Sumber_Th": 2002 }, "geometry": { "type": "MultiLineString", "coordinates": [ [ [ 103.6531, 1.1536 ], [ 103.6558, 1.1533 ] ] ] } },
{ "type": "Feature", "properties": { "fid": 181, "ID": 181, "TipeSegmen": "Garis Pangkal Lurus Kepulauan", "Datum_H": "WGS'84", "Datum_V": "MLWS", "Panjang": 2.998, "Panjang_NM": "2.998 mil laut", "Perairan": "Selat Main", "Sumber": "PP", "Sumber_No": 38, "Sumber_Th": 2002 }, "geometry": { "type": "MultiLineString", "coordinates": [ [ [ 103.6558, 1.1533 ], [ 103.6994, 1.1289 ] ] ] } },
{ "type": "Feature", "properties": { "fid": 182, "ID": 182, "TipeSegmen": "Garis Pangkal Lurus Kepulauan", "Datum_H": "WGS'84", "Datum_V": "MLWS", "Panjang": 4.552, "Panjang_NM": "4.552 mil laut", "Perairan": "Selat Main", "Sumber": "PP", "Sumber_No": 38, "Sumber_Th": 2002 }, "geometry": { "type": "MultiLineString", "coordinates": [ [ [ 103.6994, 1.1289 ], [ 103.775, 1.1242 ] ] ] } },
{ "type": "Feature", "properties": { "fid": 183, "ID": 183, "TipeSegmen": "Garis Pangkal Lurus Kepulauan", "Datum_H": "WGS'84", "Datum_V": "MLWS", "Panjang": 3.057, "Panjang_NM": "3.057 mil laut", "Perairan": "Selat Main", "Sumber": "PP", "Sumber_No": 38, "Sumber_Th": 2002 }, "geometry": { "type": "MultiLineString", "coordinates": [ [ [ 103.775, 1.1242 ], [ 103.8139, 1.1572 ] ] ] } },
{ "type": "Feature", "properties": { "fid": 184, "ID": 184, "TipeSegmen": "Garis Pangkal Lurus Kepulauan", "Datum_H": "WGS'84", "Datum_V": "MLWS", "Panjang": 4.444, "Panjang_NM": "4.444 mil laut", "Perairan": "Selat Main", "Sumber": "PP", "Sumber_No": 38, "Sumber_Th": 2002 }, "geometry": { "type": "MultiLineString", "coordinates": [ [ [ 103.8139, 1.1572 ], [ 103.8825, 1.185 ] ] ] } },
{ "type": "Feature", "properties": { "fid": 185, "ID": 185, "TipeSegmen": "Garis Pangkal Lurus Kepulauan", "Datum_H": "WGS'84", "Datum_V": "MLWS", "Panjang": 11.931, "Panjang_NM": "11.931 mil laut", "Perairan": "Selat Singapura", "Sumber": "PP", "Sumber_No": 38, "Sumber_Th": 2002 }, "geometry": { "type": "MultiLineString", "coordinates": [ [ [ 103.8825, 1.185 ], [ 104.0797, 1.2081 ] ] ] } },
{ "type": "Feature", "properties": { "fid": 186, "ID": 186, "TipeSegmen": "Garis Pangkal Lurus Kepulauan", "Datum_H": "WGS'84", "Datum_V": "MLWS", "Panjang": 18.865, "Panjang_NM": "18.865 mil laut", "Perairan": "Selat Singapura", "Sumber": "PP", "Sumber_No": 38, "Sumber_Th": 2002 }, "geometry": { "type": "MultiLineString", "coordinates": [ [ [ 104.0797, 1.2081 ], [ 104.3936, 1.2044 ] ] ] } },
{ "type": "Feature", "properties": { "fid": 187, "ID": 187, "TipeSegmen": "Garis Pangkal Lurus Kepulauan", "Datum_H": "WGS'84", "Datum_V": "MLWS", "Panjang": 10.035, "Panjang_NM": "10.035 mil laut", "Perairan": "Selat Singapura", "Sumber": "PP", "Sumber_No": 38, "Sumber_Th": 2002 }, "geometry": { "type": "MultiLineString", "coordinates": [ [ [ 104.3936, 1.2044 ], [ 104.5561, 1.2431 ] ] ] } },
{ "type": "Feature", "properties": { "fid": 188, "ID": 188, "TipeSegmen": "Garis Pangkal Lurus Kepulauan", "Datum_H": "WGS'84", "Datum_V": "MLWS", "Panjang": 1.18, "Panjang_NM": "1.18 mil laut", "Perairan": "Selat Singapura", "Sumber": "PP", "Sumber_No": 38, "Sumber_Th": 2002 }, "geometry": { "type": "MultiLineString", "coordinates": [ [ [ 104.5561, 1.2431 ], [ 104.5756, 1.2408 ] ] ] } }
]
}
