{
"type": "FeatureCollection",
"name": "LandasKontinen_Sepakat",
"crs": { "type": "name", "properties": { "name": "urn:ogc:def:crs:OGC:1.3:CRS84" } },
"features": [
{ "type": "Feature", "properties": { "fid": 1, "ID": "14", "Jenis": "Bilateral", "TipeZona": "Batas Landas Kontinen", "Datum": "WGS-84", "Panjang": "507.791 mil laut", "Batas_Ngr": "Australia", "StatusLaut": "Kesepakatan sudah ratifikasi", "Jenis_Janj": "Agreement", "Janji_Tgl": "18 Mei", "Janji_Thn": 1971, "Ratif_Jns": "KEPPRES", "Ratif_No": 42, "Ratif_Thn": 1971 }, "geometry": { "type": "MultiLineString", "coordinates": [ [ [ 140.483333333333007, -9.866666666666671 ], [ 139.766666666666993, -10.4 ], [ 139.2, -10.833333333333302 ], [ 138.633333333332985, -10.4 ], [ 138.583333333333002, -10.366666666666699 ], [ 138.21666666666701, -10.15 ], [ 137.75, -9.95 ], [ 135.483333333333007, -9.133333333333329 ], [ 135.21666666666701, -9.28333333333333 ], [ 135.05, -9.366666666666671 ], [ 134.833333333333002, -9.41666666666667 ], [ 133.383333333332985, -8.883333333333329 ] ], [ [ 140.483333333333007, -9.866666666666671 ], [ 140.825, -9.408333333 ] ] ] } },
{ "type": "Feature", "properties": { "fid": 2, "ID": "15", "Jenis": "Bilateral", "TipeZona": "Batas Landas Kontinen", "Datum": "WGS-84", "Panjang": "327 mil laut", "Batas_Ngr": "Australia", "StatusLaut": "Kesepakatan sudah ratifikasi", "Jenis_Janj": "Agreement", "Janji_Tgl": "9 Oktober", "Janji_Thn": 1972, "Ratif_Jns": "KEPPRES", "Ratif_No": 66, "Ratif_Thn": 1972 }, "geometry": { "type": "MultiLineString", "coordinates": [ [ [ 133.383333333332985, -8.883333333333329 ], [ 133.233333333333007, -8.9 ], [ 130.166666666666998, -9.41666666666667 ], [ 128.0, -9.41666666666667 ], [ 127.933333333332996, -9.46666666666667 ] ] ] } },
{ "type": "Feature", "properties": { "fid": 3, "ID": "16", "Jenis": "Bilateral", "TipeZona": "Batas Landas Kontinen", "Datum": "WGS-84", "Panjang": "15.838 mil laut", "Batas_Ngr": "Australia", "StatusLaut": "Kesepakatan sudah ratifikasi", "Jenis_Janj": "Agreement", "Janji_Tgl": "9 Oktober", "Janji_Thn": 1972, "Ratif_Jns": "KEPPRES", "Ratif_No": 66, "Ratif_Thn": 1972 }, "geometry": { "type": "MultiLineString", "coordinates": [ [ [ 123.2333, -11.5833 ], [ 123.233387879598055, -11.848467664310588 ] ] ] } },
{ "type": "Feature", "properties": { "fid": 4, "ID": "11", "Jenis": "Bilateral", "TipeZona": "Batas Landas Kontinen", "Datum": "WGS-84", "Panjang": "47.359 mil laut", "Batas_Ngr": "India", "StatusLaut": "Kesepakatan sudah ratifikasi", "Jenis_Janj": "Agreement", "Janji_Tgl": "8 Agustus", "Janji_Thn": 1974, "Ratif_Jns": "KEPPRES", "Ratif_No": 54, "Ratif_Thn": 1974 }, "geometry": { "type": "MultiLineString", "coordinates": [ [ [ 94.633333333333297, 6.64166666666667 ], [ 94.54, 6.5 ], [ 94.403333333333308, 6.27 ], [ 94.171666666666695, 6.0 ] ] ] } },
{ "type": "Feature", "properties": { "fid": 5, "ID": "12", "Jenis": "Bilateral", "TipeZona": "Batas Landas Kontinen", "Datum": "WGS-84", "Panjang": "85.605 mil laut", "Batas_Ngr": "India", "StatusLaut": "Kesepakatan sudah ratifikasi", "Jenis_Janj": "Agreement", "Janji_Tgl": "14 Januari", "Janji_Thn": 1977, "Ratif_Jns": "KEPPRES", "Ratif_No": 26, "Ratif_Thn": 1977 }, "geometry": { "type": "MultiLineString", "coordinates": [ [ [ 94.633333333333297, 6.64166666666667 ], [ 94.926944444444402, 7.04 ], [ 95.429166666666703, 7.66833333333333 ], [ 95.52, 7.76833333333333 ] ] ] } },
{ "type": "Feature", "properties": { "fid": 6, "ID": "13", "Jenis": "Bilateral", "TipeZona": "Batas Landas Kontinen", "Datum": "WGS-84", "Panjang": "158.815 mil laut", "Batas_Ngr": "India", "StatusLaut": "Kesepakatan sudah ratifikasi", "Jenis_Janj": "Agreement", "Janji_Tgl": "14 Januari", "Janji_Thn": 1977, "Ratif_Jns": "KEPPRES", "Ratif_No": 26, "Ratif_Thn": 1977 }, "geometry": { "type": "MultiLineString", "coordinates": [ [ [ 94.171666666666695, 6.0 ], [ 93.686666666666696, 5.42222222222222 ], [ 92.854722222222193, 4.459444444444441 ], [ 92.725277777777805, 4.30861111111111 ], [ 92.398611111111094, 4.027777777777779 ] ] ] } },
{ "type": "Feature", "properties": { "fid": 7, "ID": "7", "Jenis": "Bilateral", "TipeZona": "Batas Landas Kontinen", "Datum": "WGS-84", "Panjang": "398.637 mil laut", "Batas_Ngr": "Malaysia", "StatusLaut": "Kesepakatan sudah ratifikasi", "Jenis_Janj": "Agreement", "Janji_Tgl": "27 Oktober", "Janji_Thn": 1969, "Ratif_Jns": "KEPPRES", "Ratif_No": 89, "Ratif_Thn": 1969 }, "geometry": { "type": "MultiLineString", "coordinates": [ [ [ 98.2916666666667, 5.45 ], [ 98.691666666666706, 4.92833333333333 ], [ 99.726666666666702, 3.99333333333333 ], [ 99.9166666666667, 3.79 ], [ 100.823546332109302, 3.015245503206519 ], [ 101.003333333333003, 2.86 ], [ 101.201666666667009, 2.69166666666667 ], [ 101.775, 2.25666666666667 ], [ 102.223333333333002, 1.92 ], [ 102.583333333333002, 1.68666666666667 ], [ 103.065, 1.325 ], [ 103.38, 1.25 ] ] ] } },
{ "type": "Feature", "properties": { "fid": 8, "ID": "8", "Jenis": "Bilateral", "TipeZona": "Batas Landas Kontinen", "Datum": "WGS-84", "Panjang": "315.806 mil laut", "Batas_Ngr": "Malaysia", "StatusLaut": "Kesepakatan sudah ratifikasi", "Jenis_Janj": "Agreement", "Janji_Tgl": "27 Oktober", "Janji_Thn": 1969, "Ratif_Jns": "KEPPRES", "Ratif_No": 89, "Ratif_Thn": 1969 }, "geometry": { "type": "MultiLineString", "coordinates": [ [ [ 104.491666666667001, 1.39833333333333 ], [ 104.891666666667007, 1.63333333333333 ], [ 105.086666666667, 1.90666666666667 ], [ 105.02, 2.375 ], [ 104.858333333332993, 2.92 ], [ 104.775, 3.835 ], [ 104.865, 4.05 ], [ 105.48, 5.07833333333333 ], [ 105.785, 5.676666666666669 ], [ 105.82, 6.09666666666667 ] ] ] } },
{ "type": "Feature", "properties": { "fid": 9, "ID": "9", "Jenis": "Bilateral", "TipeZona": "Batas Landas Kontinen", "Datum": "WGS-84", "Panjang": "258.778 mil laut", "Batas_Ngr": "Malaysia", "StatusLaut": "Kesepakatan sudah ratifikasi", "Jenis_Janj": "Agreement", "Janji_Tgl": "27 Oktober", "Janji_Thn": 1969, "Ratif_Jns": "KEPPRES", "Ratif_No": 89, "Ratif_Thn": 1969 }, "geometry": { "type": "MultiLineString", "coordinates": [ [ [ 109.646666666667002, 2.08333333333333 ], [ 109.90833333333299, 3.0 ], [ 110.03333333333299, 4.66666666666667 ], [ 109.983333333332993, 5.52 ], [ 109.64333333333299, 6.30333333333333 ] ] ] } },
{ "type": "Feature", "properties": { "fid": 10, "ID": "10", "Jenis": "Bilateral", "TipeZona": "Batas Landas Kontinen", "Datum": "WGS-84", "Panjang": "33.849 mil laut", "Batas_Ngr": "Malaysia", "StatusLaut": "Kesepakatan sudah ratifikasi", "Jenis_Janj": "Agreement", "Janji_Tgl": "21 Desember", "Janji_Thn": 1971, "Ratif_Jns": "KEPPRES", "Ratif_No": 20, "Ratif_Thn": 1972 }, "geometry": { "type": "MultiLineString", "coordinates": [ [ [ 98.025, 5.95 ], [ 98.2916666666667, 5.45 ] ] ] } },
{ "type": "Feature", "properties": { "fid": 11, "ID": "4", "Jenis": "Bilateral", "TipeZona": "Batas Landas Kontinen", "Datum": "WGS-84", "Panjang": "19.23 mil laut", "Batas_Ngr": "Papua New Guinea", "StatusLaut": "Kesepakatan sudah ratifikasi", "Jenis_Janj": "Agreement", "Janji_Tgl": "12 Februari", "Janji_Thn": 1973, "Ratif_Jns": "UU", "Ratif_No": 6, "Ratif_Thn": 1973 }, "geometry": { "type": "MultiLineString", "coordinates": [ [ [ 140.825, -9.40833333333333 ], [ 140.866666666667015, -9.383333333333329 ], [ 141.0194, -9.1556 ] ] ] } },
{ "type": "Feature", "properties": { "fid": 12, "ID": "5", "Jenis": "Bilateral", "TipeZona": "Batas Landas Kontinen", "Datum": "WGS-84", "Panjang": "26.91 mil laut", "Batas_Ngr": "Papua New Guinea", "StatusLaut": "Kesepakatan sudah ratifikasi", "Jenis_Janj": "Agreement", "Janji_Tgl": "18 Mei", "Janji_Thn": 1971, "Ratif_Jns": "KEPPRES", "Ratif_No": 42, "Ratif_Thn": 1971 }, "geometry": { "type": "MultiLineString", "coordinates": [ [ [ 141.0, -2.59166666666667 ], [ 141.025, -2.14166666666667 ] ] ] } },
{ "type": "Feature", "properties": { "fid": 13, "ID": "6", "Jenis": "Bilateral", "TipeZona": "Batas Landas Kontinen", "Datum": "WGS-84", "Panjang": "198.52 mil laut", "Batas_Ngr": "Papua New Guinea", "StatusLaut": "Kesepakatan sudah ratifikasi", "Jenis_Janj": "Agreement", "Janji_Tgl": "13 Desember", "Janji_Thn": 1980, "Ratif_Jns": "KEPPRES", "Ratif_No": 21, "Ratif_Thn": 1982 }, "geometry": { "type": "MultiLineString", "coordinates": [ [ [ 141.025, -2.14166666666667 ], [ 141.4, -1.07638888888889 ], [ 140.819444444444002, 0.736111111111111 ], [ 140.809722222222007, 1.02638888888889 ] ] ] } },
{ "type": "Feature", "properties": { "fid": 14, "ID": "1", "Jenis": "Bilateral", "TipeZona": "Batas Landas Kontinen", "Datum": "WGS-84", "Panjang": "250.706 mil laut", "Batas_Ngr": "Viet Nam", "StatusLaut": "Kesepakatan sudah ratifikasi", "Jenis_Janj": "Agreement", "Janji_Tgl": "26 Juni", "Janji_Thn": 2003, "Ratif_Jns": "UU", "Ratif_No": 18, "Ratif_Thn": 2007 }, "geometry": { "type": "MultiLineString", "coordinates": [ [ [ 105.82, 6.09666666666667 ], [ 106.2, 6.25 ], [ 106.316944444444005, 6.25 ], [ 106.660463888889012, 6.34996666666667 ], [ 109.286944444444003, 6.8375 ], [ 109.64333333333299, 6.30333333333333 ] ] ] } },
{ "type": "Feature", "properties": { "fid": 15, "ID": "21", "Jenis": "Trilateral", "TipeZona": "Batas Landas Kontinen", "Datum": "WGS-84", "Panjang": "2.632 mil laut", "Batas_Ngr": "India-Thailand", "StatusLaut": "Kesepakatan sudah ratifikasi", "Jenis_Janj": "Agreement", "Janji_Tgl": "22 Juni", "Janji_Thn": 1978, "Ratif_Jns": "KEPPRES", "Ratif_No": 24, "Ratif_Thn": 1978 }, "geometry": { "type": "MultiLineString", "coordinates": [ [ [ 95.52, 7.7683 ], [ 95.53, 7.7833 ], [ 95.5503, 7.7669 ] ] ] } },
{ "type": "Feature", "properties": { "fid": 16, "ID": "22", "Jenis": "Bilateral", "TipeZona": "Batas Landas Kontinen", "Datum": "WGS-84", "Panjang": "74.665 mil laut", "Batas_Ngr": "Thailand", "StatusLaut": "Kesepakatan sudah ratifikasi", "Jenis_Janj": "Treaty", "Janji_Tgl": "11 Desember", "Janji_Thn": 1975, "Ratif_Jns": "KEPPRES", "Ratif_No": 1, "Ratif_Thn": 1977 }, "geometry": { "type": "MultiLineString", "coordinates": [ [ [ 95.5517, 7.7683 ], [ 96.6083, 7.0967 ] ] ] } },
{ "type": "Feature", "properties": { "fid": 17, "ID": "17", "Jenis": "Bilateral", "TipeZona": "Batas Landas Kontinen", "Datum": "WGS-84", "Panjang": "188.27 mil laut", "Batas_Ngr": "Australia", "StatusLaut": "Kesepakatan sudah ratifikasi", "Jenis_Janj": "Agreement", "Janji_Tgl": "9 Oktober", "Janji_Thn": 1972, "Ratif_Jns": "KEPPRES", "Ratif_No": 66, "Ratif_Thn": 1972 }, "geometry": { "type": "MultiLineString", "coordinates": [ [ [ 126.0, -10.466666666666701 ], [ 125.683333333332996, -10.616666666666699 ], [ 125.316666666667004, -11.016666666666698 ], [ 124.566666666667004, -11.116666666666699 ], [ 124.166666666666998, -11.416666666666698 ], [ 124.0, -11.433333333333302 ], [ 123.666666666666998, -11.466666666666699 ], [ 123.433333333332996, -11.383333333333301 ], [ 123.233333333332993, -11.583333333333302 ] ] ] } },
{ "type": "Feature", "properties": { "fid": 18, "ID": "23", "Jenis": "Unilateral", "TipeZona": "Batas Landas Kontinen", "Datum": "WGS-84", "Panjang": "560.185 mil laut", "Batas_Ngr": "-", "StatusLaut": "Unilateral", "Jenis_Janj": "-", "Janji_Tgl": "-", "Janji_Thn": null, "Ratif_Jns": "-", "Ratif_No": null, "Ratif_Thn": null }, "geometry": { "type": "MultiLineString", "coordinates": [ [ [ 118.17041981872157, -13.015916611849116 ], [ 118.017458847652918, -12.923296803230929 ], [ 117.902212155977438, -12.85351346927137 ], [ 117.310284360558626, -12.495093679278863 ], [ 117.223508272373181, -12.440638567454201 ], [ 117.158127533043825, -12.396745088278097 ], [ 117.150193743618686, -12.397193748835106 ], [ 117.04266842553001, -12.39985145566137 ], [ 116.935111896362073, -12.399091629234793 ], [ 116.82763654755486, -12.394915033281578 ], [ 116.720354685718675, -12.387325866012498 ], [ 116.613378415279243, -12.376331756643626 ], [ 116.506819521333796, -12.361943759068417 ], [ 116.400789352841088, -12.344176342677491 ], [ 115.390189352841105, -12.158184745906254 ], [ 115.305750705305059, -12.141382530832468 ], [ 115.235200456426497, -12.143666440545934 ], [ 115.135539151592013, -12.143954394419373 ], [ 115.035913786709457, -12.141305462311875 ], [ 114.968913786709436, -12.138535475276571 ], [ 114.862553025794327, -12.132458342132738 ], [ 114.756444521947614, -12.123033529505358 ], [ 114.173644521947622, -12.061989314606334 ], [ 114.076528927413889, -12.050392282123013 ], [ 113.979801691628097, -12.035989543014756 ], [ 113.883546427514574, -12.018793092268904 ], [ 113.787846340016031, -11.998817255351296 ], [ 112.814701068453246, -11.780828487521179 ], [ 111.494823199332529, -11.697092968037445 ], [ 111.400649654790087, -11.689793101704714 ], [ 111.306724319040072, -11.67986109331528 ], [ 111.21312289615139, -11.667304662225034 ], [ 111.119920829118385, -11.652133569351065 ], [ 110.922720829118376, -11.617189457185985 ], [ 110.817163452405623, -11.59674072565565 ], [ 110.014363452405632, -11.427830917622977 ], [ 109.920892334303048, -11.406764307077339 ], [ 109.828075271768412, -11.383047618936528 ], [ 109.735989333388446, -11.356699881155668 ], [ 109.644710980677189, -11.327742241058134 ], [ 109.554316004587832, -11.296197950979495 ], [ 109.350812237299849, -11.221896799751516 ], [ 108.963922340526722, -11.098738804236547 ] ] ] } },
{ "type": "Feature", "properties": { "fid": 19, "ID": "25", "Jenis": "Unilateral", "TipeZona": "Batas Landas Kontinen", "Datum": "WGS-84", "Panjang": "942.465 mil laut", "Batas_Ngr": "-", "StatusLaut": "Unilateral", "Jenis_Janj": "-", "Janji_Tgl": "-", "Janji_Thn": null, "Ratif_Jns": "-", "Ratif_No": null, "Ratif_Thn": null }, "geometry": { "type": "MultiLineString", "coordinates": [ [ [ 102.569122404611875, -8.829764578007618 ], [ 102.512006368611267, -8.83396428518123 ], [ 102.405329452308578, -8.840096844593816 ], [ 102.298509565898058, -8.842819212824113 ], [ 102.191656873925709, -8.842128658847214 ], [ 102.084881574770321, -8.838025875403337 ], [ 101.978293786994598, -8.830514978399714 ], [ 101.872003435778637, -8.819603503356273 ], [ 101.766120139552939, -8.805302398893861 ], [ 101.660753096947531, -8.787626017263145 ], [ 101.55601097417437, -8.766592101911295 ], [ 101.452001792958583, -8.742221772083077 ], [ 101.348832819134401, -8.714539504452151 ], [ 101.246610452020818, -8.68357311177815 ], [ 101.145440114690672, -8.649353718584724 ], [ 101.045426145246751, -8.611915733853808 ], [ 100.9466716892166, -8.571296820731432 ], [ 100.849278593177544, -8.527537863240994 ], [ 100.753347299721071, -8.480682930000446 ], [ 100.65897674386521, -8.430779234941078 ], [ 100.637276743865229, -8.418854514720509 ], [ 100.550171358418808, -8.369263298423679 ], [ 100.464607112567265, -8.317072361689362 ], [ 100.380661811490313, -8.262328162802772 ], [ 100.298411788230823, -8.205079464896171 ], [ 100.217931834283576, -8.145377296669219 ], [ 100.139295131586024, -8.083274911068786 ], [ 100.062573185972539, -8.018827741936553 ], [ 99.987835762152798, -7.95209335863473 ], [ 99.827235762152796, -7.804241101114621 ], [ 99.751593687993974, -7.732357802296887 ], [ 99.67825172026474, -7.658128253989084 ], [ 99.607282172869034, -7.581624547292302 ], [ 99.538755020545608, -7.502921042509213 ], [ 99.472737829874205, -7.422094301132041 ], [ 98.525379546444412, -6.222620595121172 ], [ 97.944914488797025, -5.625273661970498 ], [ 97.878765468880033, -5.555157943968443 ], [ 97.814669364411344, -5.483144930683256 ], [ 97.752679862619758, -5.409294368796576 ], [ 97.692848886232824, -5.333667567688225 ], [ 97.635226549986015, -5.256327350515668 ], [ 97.436752254467308, -4.981658853687365 ], [ 96.736343714072333, -4.246140409398448 ], [ 96.606416629860931, -4.124421395550993 ], [ 96.533840489152823, -4.054329257031968 ], [ 96.46340979944685, -3.982057541227477 ], [ 96.395189065227527, -3.907671978375602 ], [ 96.329240766974877, -3.831240257400238 ], [ 96.265625303941022, -3.75283196642867 ], [ 96.204400938833174, -3.672518531370599 ], [ 96.145623744453275, -3.590373152599657 ], [ 96.089347552343298, -3.506470739781965 ], [ 96.035623903483142, -3.420887844899766 ], [ 95.794819734388895, -3.024002513529758 ], [ 95.127711371756035, -2.014358993160339 ], [ 95.079899563004361, -1.945524124880924 ], [ 95.025649448065053, -1.862247163224424 ], [ 94.973884637598744, -1.777379663107377 ], [ 94.218584637598724, -0.496370447256611 ], [ 94.19964961738178, -0.463084326300684 ], [ 93.693764655111607, 0.035086804331144 ], [ 93.279044217813663, 0.378519269174811 ], [ 93.198310312327322, 0.447572642689906 ], [ 93.119800951316094, 0.519177700286785 ], [ 93.043595719371481, 0.593261662200735 ], [ 92.969771865399437, 0.669749211108315 ], [ 92.898404224313794, 0.748562567959465 ], [ 92.829565141176118, 0.829621570535415 ], [ 92.76332439786006, 0.912843754665622 ], [ 92.699749142313664, 0.99814443803205 ], [ 92.638903820491876, 1.08543680648403 ], [ 92.580850111027871, 1.174632002781894 ], [ 92.525646862709763, 1.265639217682491 ], [ 92.473350034825842, 1.358365783274617 ], [ 92.424012640438832, 1.452717268467383 ], [ 92.377684692646909, 1.548597576529601 ], [ 92.334413153885507, 1.645909044573461 ], [ 92.326613153885518, 1.664226296711552 ], [ 92.288390505993092, 1.75786996167987 ], [ 92.252998642634466, 1.852628769870901 ], [ 92.220469917498306, 1.948415664210747 ], [ 92.190834066917915, 2.045142642945944 ], [ 92.164118182687574, 2.142720842505614 ], [ 92.142150027838341, 2.233600421267198 ] ] ] } },
{ "type": "Feature", "properties": { "fid": 20, "ID": "27", "Jenis": "Bilateral", "TipeZona": "Batas Landas Kontinen", "Datum": "WGS-84", "Panjang": "88.678 mil laut", "Batas_Ngr": "Thailand", "StatusLaut": "Kesepakatan sudah ratifikasi", "Jenis_Janj": "Agreement", "Janji_Tgl": "17 Desember", "Janji_Thn": 1971, "Ratif_Jns": "KEPPRES", "Ratif_No": 21, "Ratif_Thn": 1972 }, "geometry": { "type": "MultiLineString", "coordinates": [ [ [ 96.6083, 7.0967 ], [ 97.9, 6.3633 ] ] ] } },
{ "type": "Feature", "properties": { "fid": 21, "ID": "28", "Jenis": "Trilateral", "TipeZona": "Batas Landas Kontinen", "Datum": "WGS-84", "Panjang": "25.785 mil laut", "Batas_Ngr": "Thailand-Malaysia", "StatusLaut": "Kesepakatan sudah ratifikasi", "Jenis_Janj": "Agreement", "Janji_Tgl": "21 Desember", "Janji_Thn": 1971, "Ratif_Jns": "KEPPRES", "Ratif_No": 20, "Ratif_Thn": 1972 }, "geometry": { "type": "MultiLineString", "coordinates": [ [ [ 97.9, 6.3633 ], [ 98.025, 5.95 ] ] ] } },
{ "type": "Feature", "properties": { "fid": 22, "ID": "26", "Jenis": "Unilateral", "TipeZona": "Batas Landas Kontinen", "Datum": "WGS-84", "Panjang": "734.073 mil laut", "Batas_Ngr": "-", "StatusLaut": "Unilateral", "Jenis_Janj": "-", "Janji_Tgl": "-", "Janji_Thn": null, "Ratif_Jns": "-", "Ratif_No": null, "Ratif_Thn": null }, "geometry": { "type": "MultiLineString", "coordinates": [ [ [ 129.525277777777802, 6.405555555555556 ], [ 129.880480928848357, 6.664752528056446 ], [ 129.883475962432669, 6.660303070037743 ], [ 129.930505876475962, 6.590434862463999 ], [ 129.98446812117902, 6.50473435196461 ], [ 130.035797605468332, 6.417416013617101 ], [ 130.08444678343028, 6.328560112587253 ], [ 130.130370591888521, 6.238248389064096 ], [ 130.173526492145044, 6.146563984572461 ], [ 130.213874509383686, 6.053591366657853 ], [ 130.251377269698082, 5.959416252008583 ], [ 130.286000034710781, 5.864125528083883 ], [ 130.317710733751056, 5.767807173320437 ], [ 130.321110733751027, 5.756924851731236 ], [ 130.349488639856872, 5.661065880076911 ], [ 130.374983258025139, 5.564381086887782 ], [ 130.397571644785074, 5.466957371874535 ], [ 130.403867896859111, 5.435552840362212 ], [ 130.456384036258584, 5.400671761821159 ], [ 130.542978406536861, 5.339077366430334 ], [ 130.627567717700259, 5.274738271637889 ], [ 130.710065821623289, 5.207719226201007 ], [ 130.790388699924364, 5.138087715941907 ], [ 130.8684545495328, 5.065913899836613 ], [ 130.944183865999122, 4.991270543243327 ], [ 131.017499524464711, 4.914232948304673 ], [ 131.071706219146137, 4.853500439536015 ], [ 131.088326858207921, 4.834878881562543 ], [ 131.156593734686794, 4.753288498828916 ], [ 131.222230629000705, 4.669544267360987 ], [ 131.285170694696689, 4.583730885393935 ], [ 131.345349831847614, 4.49593519908992 ], [ 131.386463099262215, 4.431647458256408 ], [ 131.396362125, 4.419384577417015 ] ], [ [ 132.923508547499978, 3.977290439925352 ], [ 132.97494853850236, 4.01074897391142 ], [ 133.069857618077862, 4.050228200956014 ], [ 133.165935085990185, 4.086744640071142 ], [ 133.263089360358265, 4.120263878690133 ], [ 133.361227832879848, 4.150754338413955 ], [ 133.460256957106395, 4.17818730234757 ], [ 133.560082337612329, 4.202536939893608 ], [ 133.660608819973675, 4.223780329000198 ], [ 133.761740581470065, 4.241897475860592 ], [ 133.863381222423726, 4.256871332062865 ], [ 133.965433858088574, 4.268687809188519 ], [ 134.067801211001637, 4.277335790859171 ], [ 134.170385703708575, 4.282807142230873 ], [ 134.273089551775655, 4.285096716935727 ], [ 134.375814856998431, 4.284202361470673 ], [ 134.478463700719374, 4.280124917033345 ], [ 134.580938237164787, 4.272868218805001 ], [ 134.683140786712073, 4.262439092680506 ], [ 134.784973928999023, 4.248847349445439 ], [ 134.831073928999018, 4.241965604186327 ], [ 134.933010122395757, 4.225120675030499 ], [ 135.034376306093691, 4.205106332193107 ], [ 135.13507476536472, 4.181941624420253 ], [ 135.235008429152145, 4.155648603135109 ], [ 135.33408096364488, 4.126252303286977 ], [ 135.432196865141208, 4.093780721563617 ], [ 135.529261552112246, 4.05826479196912 ], [ 135.625181456376197, 4.019738358770146 ], [ 135.719864113296296, 3.978238146814533 ], [ 135.813218250914304, 3.933803729227204 ], [ 135.905153877934907, 3.886477492489723 ], [ 135.995582370475148, 3.836304598911346 ], [ 136.084416557495985, 3.783332946501089 ], [ 136.171570804833038, 3.727613126252276 ], [ 136.256961097746199, 3.669198376853216 ], [ 136.340505121907825, 3.608144536839931 ], [ 136.422122342752004, 3.544509994209462 ], [ 136.50173408310792, 3.478355633515077 ], [ 136.579263599043088, 3.409744780467655 ], [ 136.654636153842603, 3.338743144070689 ], [ 136.727779090053758, 3.265418756319762 ], [ 136.798621899526154, 3.189841909500867 ], [ 136.867096291379994, 3.112085091125629 ], [ 136.933136257836964, 3.032222916545399 ], [ 136.996678137850239, 2.950332059290134 ], [ 137.057660678472331, 2.866491179182089 ], [ 137.530436166719028, 2.194655001235747 ], [ 137.576708386187335, 2.167521509516827 ], [ 137.665998070792881, 2.111278141642035 ], [ 137.753473168250224, 2.052217049990676 ], [ 137.782835551440201, 2.031706121517902 ], [ 138.578286486518266, 1.832805693663807 ], [ 139.205301058027487, 1.738966136853935 ], [ 139.313295637903451, 1.720971230730159 ], [ 139.420643541393417, 1.699411167578732 ], [ 139.527228584629427, 1.674309163992724 ], [ 139.632935409396026, 1.645692254837061 ], [ 139.737649607983599, 1.613591265982143 ], [ 139.841257847013225, 1.57804078315422 ], [ 139.94364799009881, 1.539079116911401 ], [ 140.044709219213388, 1.496748263756002 ], [ 140.144332154628898, 1.451093863396227 ], [ 140.242408973299007, 1.402165152172533 ], [ 140.3094225816765, 1.367335643932699 ], [ 140.81052645785806, 1.106892996430963 ], [ 140.80972220000001, 1.026388889 ] ] ] } },
{ "type": "Feature", "properties": { "fid": 23, "ID": "29", "Jenis": "Unilateral", "TipeZona": "Batas Landas Kontinen Ekstensi", "Datum": "WGS-84", "Panjang": "122.973 mil laut", "Batas_Ngr": "-", "StatusLaut": "Unilateral", "Jenis_Janj": "-", "Janji_Tgl": "-", "Janji_Thn": null, "Ratif_Jns": "-", "Ratif_No": null, "Ratif_Thn": null }, "geometry": { "type": "MultiLineString", "coordinates": [ [ [ 92.142150027838341, 2.233600421267198 ], [ 92.030583596859103, 2.202845967115091 ], [ 91.940245664476947, 2.850092451037812 ], [ 91.654200597383365, 3.479151098324525 ], [ 91.654238175558191, 3.655543051153904 ], [ 92.047807523485872, 3.801920667061794 ] ] ] } }
]
}
