{
"type": "FeatureCollection",
"name": "LandasKontinenEkstensi",
"crs": { "type": "name", "properties": { "name": "urn:ogc:def:crs:OGC:1.3:CRS84" } },
"features": [
{ "type": "Feature", "properties": { "fid": 1, "ID": 1, "Jenis": "Unilateral", "TipeZona": "Batas Landas Kontinen Ekstensi", "Datum": "WGS-84", "Luas": 1181.961, "Luas_SNM": "1181.961 mil laut persegi", "Batas_Ngr": "-", "StatusLaut": "Unilateral", "Jenis_Janj": "-", "Janji_Tgl": "-", "Janji_Thn": null, "Ratif_Jns": "-", "Ratif_No": null, "Ratif_Thn": null }, "geometry": { "type": "MultiPolygon", "coordinates": [ [ [ [ 92.142150079306859, 2.233600439284375 ], [ 92.030583596859103, 2.202845967115091 ], [ 91.940245664476947, 2.850092451037812 ], [ 91.654200597383365, 3.479151098324525 ], [ 91.654238175558191, 3.655543051153904 ], [ 92.047812762559587, 3.801931519725683 ], [ 92.057870869879125, 2.943109374969564 ], [ 92.060576100176689, 2.841995943141098 ], [ 92.066320372942371, 2.741001995759849 ], [ 92.075098437014063, 2.640220219545944 ], [ 92.086902267870713, 2.53974312675886 ], [ 92.10172107496804, 2.4396629678167 ], [ 92.119541311602802, 2.340071644132237 ], [ 92.1403466872965, 2.241060621267202 ], [ 92.142150079306859, 2.233600439284375 ] ] ] ] } }
]
}
