{
"type": "FeatureCollection",
"name": "LandasKontinen_SepakatPerluRatif",
"crs": { "type": "name", "properties": { "name": "urn:ogc:def:crs:OGC:1.3:CRS84" } },
"features": [
{ "type": "Feature", "properties": { "fid": 1, "ID": "24", "Jenis": "Bilateral", "TipeZona": "Batas Landas Kontinen", "Datum": "WGS-84", "Panjang": "403.251 mil laut", "Batas_Ngr": "Australia", "StatusLaut": "Kesepakatan belum ratifikasi", "Jenis_Janj": "Agreement", "Janji_Tgl": "16 Maret", "Janji_Thn": 1977, "Ratif_Jns": "-", "Ratif_No": null, "Ratif_Thn": null }, "geometry": { "type": "MultiLineString", "coordinates": [ [ [ 108.963922340526707, -11.098738804236547 ], [ 108.754210366073352, -11.024031591983832 ], [ 107.197731936273939, -10.339974940891192 ], [ 105.834619232399803, -9.740900585974407 ], [ 102.569122404611875, -8.829764578007618 ] ] ] } },
{ "type": "Feature", "properties": { "fid": 2, "ID": "27", "Jenis": "Bilateral", "TipeZona": "Batas Landas Kontinen", "Datum": "WGS-84", "Panjang": "476.216 mil laut", "Batas_Ngr": "Australia", "StatusLaut": "Kesepakatan belum ratifikasi", "Jenis_Janj": "Treaty", "Janji_Tgl": "14 Maret", "Janji_Thn": 1997, "Ratif_Jns": "-", "Ratif_No": null, "Ratif_Thn": null }, "geometry": { "type": "MultiLineString", "coordinates": [ [ [ 118.17041981872157, -13.015916611849114 ], [ 118.214685710380394, -12.849161540531638 ], [ 118.078332389741817, -12.094482256997175 ], [ 118.606673972216171, -12.200547077493917 ], [ 119.328311255595892, -12.454309638682389 ], [ 119.90940989831735, -12.762701640126707 ], [ 119.967123258587648, -12.755652680093695 ], [ 119.964479898575263, -12.797505880289711 ], [ 119.986948458680502, -12.803673720318596 ], [ 119.984633800032313, -13.845655888438269 ], [ 120.122853748180361, -13.898833470853203 ], [ 122.492266337080437, -12.277718504522017 ] ], [ [ 122.492266337080437, -12.277718504522017 ], [ 122.493034058954905, -12.265303387960818 ], [ 122.495856826702507, -12.243426937916956 ], [ 122.501149516229248, -12.216963490283252 ], [ 122.510323511408927, -12.170034976479485 ], [ 122.525495888052248, -12.128399152202459 ], [ 122.552312181654401, -12.072649489187453 ], [ 122.56572032845547, -12.05183157704894 ], [ 122.572071555887561, -12.041951889932358 ], [ 122.58053985913034, -12.034894970563371 ], [ 122.610178920480053, -11.993435569270567 ], [ 122.630820409634339, -11.96803065954221 ], [ 122.67527900165895, -11.9315111018077 ], [ 122.730852241689732, -11.906106192079344 ], [ 122.781662061146449, -11.8886403166411 ], [ 122.831677977174166, -11.863235406912745 ], [ 122.885663410346922, -11.841601538472194 ], [ 122.906304899501208, -11.832868600753072 ], [ 122.920595161223403, -11.826517373320982 ], [ 122.946793974380782, -11.822547856175927 ], [ 122.985695242402315, -11.813021015027793 ], [ 123.004748924698589, -11.813021015027793 ], [ 123.053177033868266, -11.816990532172849 ], [ 123.114307597902112, -11.825723469891971 ], [ 123.152414962494646, -11.835250311040104 ], [ 123.189728423658167, -11.843189345330215 ], [ 123.213389633791181, -11.845235435829901 ] ] ] } }
]
}
