{
"type": "FeatureCollection",
"name": "LandasKontinen_PerluKesepakatan",
"crs": { "type": "name", "properties": { "name": "urn:ogc:def:crs:OGC:1.3:CRS84" } },
"features": [
{ "type": "Feature", "properties": { "fid": 1, "ID": "18", "Jenis": "-", "TipeZona": "Batas Landas Kontinen", "Datum": "WGS-84", "Panjang": "144.633 mil laut", "Batas_Ngr": "Malaysia", "StatusLaut": "Perlu Kesepakatan", "Jenis_Janj": "-", "Janji_Tgl": "-", "Janji_Thn": null, "Ratif_Jns": "-", "Ratif_No": null, "Ratif_Thn": null }, "geometry": { "type": "MultiLineString", "coordinates": [ [ [ 118.266627776685382, 4.090575878103368 ], [ 118.459444444444443, 4.000833333333333 ], [ 118.478423252834702, 3.97458775099005 ], [ 118.483185723162492, 3.969833502856573 ], [ 118.501345277580171, 3.951705300390949 ], [ 118.527623615396053, 3.932771871697948 ], [ 118.557964811298021, 3.917720655051758 ], [ 118.590390914369365, 3.907939288536603 ], [ 118.623994033463447, 3.903701638427481 ], [ 118.657833322427535, 3.905126353734045 ], [ 118.69096132264194, 3.912173544173759 ], [ 118.722450490700211, 3.924645897050898 ], [ 118.751419168487885, 3.942194201770235 ], [ 118.777056268529066, 3.964327127305724 ], [ 118.806128589761059, 3.949240673124719 ], [ 118.837275852988128, 3.939109091064617 ], [ 118.869660260815039, 3.934204899869589 ], [ 118.902410739198416, 3.934660012208134 ], [ 118.93464636754878, 3.940462186493278 ], [ 118.965500073684979, 3.951455356156122 ], [ 118.994141956294484, 3.967343827515931 ], [ 119.019801607574038, 3.987700233332713 ], [ 119.041788835616572, 4.011977028108032 ], [ 119.059512229155985, 4.039521215934097 ], [ 119.072495065315181, 4.069591914742236 ], [ 119.080388132471967, 4.101380284508553 ], [ 119.082979123334525, 4.134031283388983 ], [ 119.080198345571333, 4.166666666588378 ], [ 119.144381948582307, 4.166666666588378 ], [ 119.926090277777746, 3.111347222163671 ] ] ] } },
{ "type": "Feature", "properties": { "fid": 2, "ID": "2", "Jenis": "-", "TipeZona": "Batas Landas Kontinen", "Datum": "WGS-84", "Panjang": "68.778 mil laut", "Batas_Ngr": "Timor Leste", "StatusLaut": "Perlu Kesepakatan", "Jenis_Janj": "-", "Janji_Tgl": "-", "Janji_Thn": null, "Ratif_Jns": "-", "Ratif_No": null, "Ratif_Thn": null }, "geometry": { "type": "MultiLineString", "coordinates": [ [ [ 125.231100005178547, -9.617896286649186 ], [ 125.263339521777539, -9.672188336067633 ], [ 125.371039387147476, -9.779743564341352 ], [ 125.51867975465602, -9.92718565607705 ], [ 125.819133544685513, -10.177240539245679 ], [ 126.0, -10.466666666666701 ] ] ] } },
{ "type": "Feature", "properties": { "fid": 4, "ID": "3", "Jenis": "-", "TipeZona": "Batas Landas Kontinen", "Datum": "WGS-84", "Panjang": "65.92 mil laut", "Batas_Ngr": "Timor Leste", "StatusLaut": "Perlu Kesepakatan", "Jenis_Janj": "-", "Janji_Tgl": "-", "Janji_Thn": null, "Ratif_Jns": "-", "Ratif_No": null, "Ratif_Thn": null }, "geometry": { "type": "MultiLineString", "coordinates": [ [ [ 127.584579330806562, -8.422457945578657 ], [ 127.684954105803186, -8.647768100760434 ], [ 127.726024089416754, -8.733751724561817 ], [ 127.798257829857093, -8.935254005941633 ], [ 127.865343626502664, -9.176253205149333 ], [ 127.933333333332996, -9.46666666666667 ] ] ] } },
{ "type": "Feature", "properties": { "fid": 6, "ID": "20", "Jenis": "Bilateral", "TipeZona": "Batas Landas Kontinen", "Datum": "WGS-84", "Panjang": "197.383 mil laut", "Batas_Ngr": "Australia", "StatusLaut": "Perlu Kesepakatan", "Jenis_Janj": "-", "Janji_Tgl": "-", "Janji_Thn": null, "Ratif_Jns": "-", "Ratif_No": null, "Ratif_Thn": null }, "geometry": { "type": "MultiLineString", "coordinates": [ [ [ 122.504161457136206, -12.869243733959072 ], [ 122.562535657409597, -12.835614320468238 ], [ 122.591318910877732, -12.816523387045494 ], [ 123.077550299821681, -12.533683865720846 ], [ 123.040249552980384, -12.524138399009484 ], [ 123.025270512910225, -12.52105447899504 ], [ 122.914689952392337, -12.50387263891457 ], [ 122.908522112363443, -12.502110398906318 ], [ 122.882529072241695, -12.495501998875369 ], [ 122.871735352191152, -12.491977518858862 ], [ 122.858738832130285, -12.488012478840291 ], [ 122.833406632011645, -12.473694278773234 ], [ 122.819088431944579, -12.464662798730936 ], [ 122.793976511826983, -12.447260678649434 ], [ 122.786046431789842, -12.439771158614358 ], [ 122.773049911728975, -12.426334078551426 ], [ 122.764899551690803, -12.418183718513253 ], [ 122.756088351649538, -12.407389998462703 ], [ 122.752343591631998, -12.400781598431752 ], [ 122.748653901614716, -12.391860258389963 ], [ 122.740971636578735, -12.379965138334255 ], [ 122.736263151556685, -12.369309093284347 ], [ 122.728085256518384, -12.352209858204265 ], [ 122.723624586497493, -12.338827848141591 ], [ 122.720898621484722, -12.324454578074276 ], [ 122.720650806483562, -12.303885932977945 ], [ 122.718916101475401, -12.238462772671538 ], [ 122.725421245255873, -12.214300810058377 ], [ 122.733227417792477, -12.190882292448697 ], [ 122.735736544679227, -12.182239744283223 ], [ 122.740754798452727, -12.174433571746663 ], [ 122.750233722247117, -12.155475724157876 ], [ 122.759712646041507, -12.145439216610871 ], [ 122.824392361344394, -12.08075950130795 ], [ 122.846695711448845, -12.065147156234831 ], [ 122.866768726542858, -12.053995481182604 ], [ 122.900223751699485, -12.038383136109482 ], [ 122.91695126427777, -12.033364882335984 ], [ 122.950963873187078, -12.024443542294202 ], [ 122.978843060817638, -12.013849450994586 ], [ 122.998916075911652, -12.009946364726305 ], [ 123.021219426016103, -12.009388780973694 ], [ 123.049656197399287, -12.010503948478917 ], [ 123.079765720040299, -12.011619115984139 ], [ 123.093705313855594, -12.013849450994586 ], [ 123.118238998970483, -12.018310121015476 ], [ 123.144445435343229, -12.02332837478898 ], [ 123.170651871715961, -12.031134547325538 ], [ 123.194070389325631, -12.043401389882989 ], [ 123.207144986794674, -12.050301871880539 ], [ 123.214143404419644, -12.053995481182605 ], [ 123.244810510813267, -12.07629883128706 ], [ 123.255962185865499, -12.094141511370625 ], [ 123.267671444670341, -12.105850770175465 ], [ 123.279938287227793, -12.12815412027992 ], [ 123.294435464795683, -12.146554384116095 ], [ 123.305587139847916, -12.170530485478386 ], [ 123.314508479889696, -12.186700414304115 ], [ 123.324544987436724, -12.224616109481687 ], [ 123.330120824962847, -12.265877307174929 ], [ 123.330120824962847, -12.29041099228983 ], [ 123.333466327478519, -12.309368839878617 ], [ 123.331235992468066, -12.329441854972627 ], [ 123.333466327478519, -12.350630037571861 ], [ 123.332490555911377, -12.35606647915982 ], [ 123.425746438535626, -12.325120580889889 ], [ 123.506038498911693, -12.309229443940465 ], [ 123.524856950562324, -12.30504756579588 ], [ 123.541584463140666, -12.304211190166962 ], [ 123.551202782873219, -12.303793002352505 ] ] ] } }
]
}
