{
"type": "FeatureCollection",
"name": "LautTeritorial_Sepakat",
"crs": { "type": "name", "properties": { "name": "urn:ogc:def:crs:OGC:1.3:CRS84" } },
"features": [
{ "type": "Feature", "properties": { "fid": 1, "ID": "10", "Jenis": "Bilateral", "TipeZona": "Batas Laut Teritorial", "Datum": "WGS-84", "Panjang": "11.636 mil laut", "Batas_Ngr": "Singapura", "StatusLaut": "Kesepakatan sudah ratifikasi", "Jenis_Janj": "Treaty", "Janji_Tgl": "10 Maret", "Janji_Thn": 2009, "Ratif_Jns": "UU", "Ratif_No": 4, "Ratif_Thn": 2010 }, "geometry": { "type": "MultiLineString", "coordinates": [ [ [ 103.566666666667004, 1.1955 ], [ 103.572333333332963, 1.19875 ], [ 103.660694444444005, 1.188166666666669 ], [ 103.670722222221997, 1.179444444444441 ], [ 103.740694399999981, 1.131111111 ] ] ] } },
{ "type": "Feature", "properties": { "fid": 2, "ID": "16", "Jenis": "Unilateral", "TipeZona": "Batas Laut Teritorial", "Datum": "WGS-84", "Panjang": "2818.382 mil laut", "Batas_Ngr": "-", "StatusLaut": "Unilateral", "Jenis_Janj": "-", "Janji_Tgl": "-", "Janji_Thn": null, "Ratif_Jns": "-", "Ratif_No": null, "Ratif_Thn": null }, "geometry": { "type": "MultiLineString", "coordinates": [ [ [ 125.230698851491056, -9.617227983880536 ], [ 125.170187457235087, -9.72932694514537 ], [ 125.167126527608872, -9.734787648526272 ], [ 125.163893491767155, -9.740149759734955 ], [ 125.160491567409281, -9.745407946986589 ], [ 125.156924140321877, -9.750556982089885 ], [ 125.153194761009189, -9.755591745630317 ], [ 125.149307141159468, -9.760507232044494 ], [ 125.145265149950873, -9.765298554580696 ], [ 125.141072810200569, -9.769960950140748 ], [ 125.136734294361119, -9.774489783998442 ], [ 124.892534294361113, -10.021384918543694 ], [ 124.888064747755806, -10.025762071080884 ], [ 124.883458444530348, -10.029997589577137 ], [ 124.616558444530341, -10.267687695839701 ], [ 124.611612322060012, -10.271947523151805 ], [ 124.606527669243476, -10.276044188221967 ], [ 124.601309967101585, -10.27997328152251 ], [ 124.595964840076192, -10.283730574062364 ], [ 124.590498049967351, -10.287312021917804 ], [ 124.58491548972215, -10.290713770564162 ], [ 124.497415489722187, -10.342085878273755 ], [ 124.494036010062871, -10.344025841189897 ], [ 123.321236010062833, -11.001452433118706 ], [ 123.315896581259281, -11.004336858725027 ], [ 122.969996581259281, -11.184428773928493 ], [ 122.964445367430656, -11.187209761514877 ], [ 122.95880904131478, -11.189818492047968 ], [ 122.953093082591735, -11.192252434040778 ], [ 122.947303048361078, -11.194509225683626 ], [ 122.941444567739154, -11.196586677122559 ], [ 122.935523336386353, -11.198482772571644 ], [ 122.929545110969883, -11.200195672257173 ], [ 122.923515703566977, -11.201723714191937 ], [ 122.917440976014447, -11.203065415777925 ], [ 122.911326834209632, -11.204219475235911 ], [ 122.905179222368815, -11.205184772860608 ], [ 122.899004117248012, -11.205960372100227 ], [ 122.892807522332461, -11.206545520459356 ], [ 122.886595461999974, -11.206939650224454 ], [ 122.880373975663886, -11.207142379011067 ], [ 122.874149111901644, -11.207153510132501 ], [ 122.867926922574213, -11.206973032789401 ], [ 122.861713456942454, -11.206601122080153 ], [ 122.855514755786018, -11.20603813883211 ], [ 122.849336845530317, -11.205284629253743 ], [ 122.843185732387838, -11.20434132440811 ], [ 122.837067396518606, -11.203209139508052 ], [ 122.830987786216355, -11.201889173033884 ], [ 122.824952812125488, -11.200382705674309 ], [ 122.818968341494767, -11.198691199091607 ], [ 122.81304019247311, -11.19681629451224 ], [ 122.807174128453099, -11.1947598111442 ], [ 121.837794933178955, -10.837801932083842 ], [ 121.352743251440572, -11.017980821870756 ], [ 121.346872936543903, -11.02005797380443 ], [ 121.340939824413425, -11.021952983783944 ], [ 121.334949702932207, -11.023664006764692 ], [ 121.32890841559724, -11.025189376869864 ], [ 121.322821855818887, -11.026527609002535 ], [ 121.316695961171817, -11.027677400282755 ], [ 121.310536707602779, -11.028637631308186 ], [ 121.304350103600825, -11.029407367237177 ], [ 121.298142184335987, -11.02998585869322 ], [ 121.291919005771831, -11.030372542489925 ], [ 121.285686638757696, -11.030567042175869 ], [ 121.279451163106458, -11.030569168398783 ], [ 121.273218661663549, -11.03037891908871 ], [ 121.26699521437294, -11.029996479460033 ], [ 121.260786892346189, -11.029422221832275 ], [ 121.254599751939665, -11.028656705269936 ], [ 121.24843982884677, -11.027700675041624 ], [ 121.242313132209674, -11.026555061899058 ], [ 121.236225638757432, -11.02522098117656 ], [ 121.230183286975574, -11.02369973171194 ], [ 121.224191971312848, -11.021992794589735 ], [ 121.218891971312829, -11.020393824662902 ], [ 121.212560137915688, -11.018368957372561 ], [ 121.206300139000177, -11.016136694899521 ], [ 121.20011893132282, -11.013699513217748 ], [ 121.194023384079046, -11.011060115659884 ], [ 121.188020271269664, -11.008221429936185 ], [ 121.182116264172819, -11.005186604905658 ], [ 121.176317923930071, -11.001959007102865 ], [ 121.170631694255164, -10.99854221702415 ], [ 120.401979156105142, -10.518755092246312 ], [ 120.130416142354093, -10.536584021237852 ], [ 120.124252289597322, -10.536894075691034 ], [ 120.118081696941189, -10.537015445026297 ], [ 120.111910261644013, -10.536948013476433 ], [ 120.105743881769442, -10.536691845360496 ], [ 120.099588450549575, -10.536247185022798 ], [ 120.09344985075289, -10.535614456601298 ], [ 120.087333949062014, -10.534794263625416 ], [ 120.081246590466876, -10.533787388443859 ], [ 120.075193592678687, -10.532594791482822 ], [ 120.056893592678705, -10.528697243715403 ], [ 120.050867117364461, -10.527316703765846 ], [ 120.044886756253632, -10.525752059755378 ], [ 120.038958250821096, -10.524004811002962 ], [ 120.033087292757443, -10.52207663183658 ], [ 120.027279518504571, -10.519969369998055 ], [ 120.021540503844562, -10.517685044882484 ], [ 120.015875758546429, -10.515225845613978 ], [ 120.010290721076515, -10.512594128959462 ], [ 120.00479075337735, -10.509792417082458 ], [ 119.999381135719744, -10.506823395139014 ], [ 119.994067061633515, -10.503689908717952 ], [ 118.95266706163352, -9.867127552263772 ], [ 118.947460496342387, -9.86383043286512 ], [ 118.942359294266339, -9.860375109625361 ], [ 118.937368339824431, -9.856764886055934 ], [ 118.93249241187327, -9.853003213878516 ], [ 118.927736179131145, -9.849093689739746 ], [ 118.923104195707793, -9.845040051787519 ], [ 118.918600896743754, -9.840846176112036 ], [ 118.914230594163769, -9.836516073054922 ], [ 118.781430594163737, -9.700772673067538 ], [ 118.777399858473927, -9.69652846276467 ], [ 118.773496795293852, -9.692168310590104 ], [ 118.769724787606449, -9.687695991231378 ], [ 118.766087104802295, -9.683115376640236 ], [ 118.762586899845672, -9.67843043269211 ], [ 118.759227206541979, -9.673645215763965 ], [ 118.372460796834332, -9.104626773137705 ], [ 117.087131994729546, -9.300278697565391 ], [ 117.084419582631341, -9.300672550561712 ], [ 117.040319582631327, -9.306769117376183 ], [ 117.03391408767672, -9.307550021725348 ], [ 117.027486529508138, -9.308124866325189 ], [ 117.021043624617121, -9.308493051521371 ], [ 117.01459210553179, -9.308654193239798 ], [ 117.008138713781719, -9.308608123385152 ], [ 117.001690192853275, -9.308354890015281 ], [ 116.995253281143107, -9.307894757291315 ], [ 116.988834704916755, -9.307228205203637 ], [ 116.982441171280001, -9.306355929073796 ], [ 116.976079361170449, -9.30527883883309 ], [ 115.965479361170452, -9.117382810355123 ], [ 115.959778944527997, -9.116237020614919 ], [ 115.954114527904267, -9.114926689657965 ], [ 115.570190519640505, -9.020222536366665 ], [ 115.191120397742807, -9.04960654683228 ], [ 115.185152497499672, -9.049979846002536 ], [ 115.179176027385608, -9.0501753106058 ], [ 115.173196349095548, -9.05019276557786 ], [ 115.167218827202589, -9.050032195285507 ], [ 115.100218827202568, -9.047233741164963 ], [ 115.093837181547656, -9.046865370456432 ], [ 115.087470671316837, -9.046294093315154 ], [ 114.504670671316859, -8.984627873719157 ], [ 114.49884373564484, -8.983924996904337 ], [ 114.493040101497684, -8.983052111781543 ], [ 114.487264785650879, -8.982009971648759 ], [ 114.481522780400965, -8.980799475878175 ], [ 113.264866064107181, -8.705563932945491 ], [ 111.69577339195996, -8.605036521022489 ], [ 111.690122979287409, -8.604594225564956 ], [ 111.684487459142403, -8.603992467983439 ], [ 111.678871373769084, -8.603231732527398 ], [ 111.673279249747097, -8.602312631383269 ], [ 111.476079249747087, -8.567030846270848 ], [ 111.469745807144335, -8.565792130738005 ], [ 110.666945807144359, -8.39527854496774 ], [ 110.661337540058184, -8.394002693914402 ], [ 110.655768516306111, -8.392566456592835 ], [ 110.65024336000333, -8.390971023756039 ], [ 110.644766658840638, -8.389217718158841 ], [ 110.639342960275272, -8.387307993466299 ], [ 110.37361473423806, -8.289418798798383 ], [ 109.401528191630746, -7.977147977828619 ], [ 109.050666955222823, -7.983650601840515 ], [ 108.444516062264128, -8.020083315044266 ], [ 108.437065940087464, -8.0203920329085 ], [ 108.429609448417366, -8.020423224686851 ], [ 108.318809448417369, -8.018824007848085 ], [ 108.313153319756196, -8.018662432761298 ], [ 108.307504056885378, -8.018341144917475 ], [ 108.301866198017848, -8.017860402033209 ], [ 108.278766198017806, -8.01556152203538 ], [ 108.272378032105223, -8.014822015609205 ], [ 108.266017076540535, -8.013877797624957 ], [ 107.809617076540562, -7.938613973150183 ], [ 107.802018393958505, -7.937209622502691 ], [ 107.794479922342887, -7.935513119287319 ], [ 106.356179922342875, -7.582375627297445 ], [ 106.350035891710121, -7.580762601061721 ], [ 106.343946408435897, -7.578955315083876 ], [ 106.337917639246754, -7.576955597110801 ], [ 106.331955689385026, -7.574765469528291 ], [ 106.326066596426159, -7.57238714732425 ], [ 105.445766596426168, -7.200341769334349 ], [ 105.440118532680785, -7.197850131553182 ], [ 105.434550323327301, -7.195185234078772 ], [ 105.429067294649315, -7.192349622961935 ], [ 105.423674691450685, -7.189346007405788 ], [ 105.418377672038574, -7.186177257186845 ], [ 105.156977672038579, -7.024237045375144 ], [ 105.152577395894752, -7.021430284650189 ], [ 105.129277395894746, -7.006135767016009 ], [ 105.124011078280006, -7.002557352123802 ], [ 105.118861681166806, -6.998812894823515 ], [ 105.113834445008976, -6.994906201799884 ], [ 105.108934485939287, -6.990841244772221 ], [ 105.104166790562743, -6.986622156469333 ], [ 105.099536210881823, -6.982253226440791 ], [ 105.095047459358696, -6.97773889670871 ], [ 105.090705104119465, -6.973083757264438 ], [ 105.086513564305193, -6.968292541414638 ], [ 104.28821356430521, -6.024935213852429 ], [ 104.284785844438048, -6.020768035561615 ], [ 103.833866423537401, -5.456943298015013 ], [ 102.668729887615441, -5.661545123000638 ], [ 102.387564490073288, -5.710907806523021 ], [ 102.381010859365489, -5.711946213127153 ], [ 102.374426399037915, -5.712765899280954 ], [ 102.367818382116681, -5.713365960532992 ], [ 102.281418382116669, -5.719763740632589 ], [ 102.275017767138522, -5.720134294365801 ], [ 102.268608573953884, -5.720298792651998 ], [ 102.262197412435526, -5.720257066022399 ], [ 102.255790894486211, -5.720009157464435 ], [ 102.24939562721967, -5.719555322377615 ], [ 102.243018206146715, -5.718896028311291 ], [ 102.236665208373168, -5.718031954484615 ], [ 102.230343185816849, -5.716963991089126 ], [ 102.224058658450446, -5.715693238374723 ], [ 102.2178181075775, -5.714221005519927 ], [ 102.211627969148068, -5.712548809287543 ], [ 102.20549462712124, -5.710678372467161 ], [ 102.199424406881448, -5.708611622105987 ], [ 102.193423568714806, -5.706350687529843 ], [ 102.187498301353003, -5.703897898156338 ], [ 102.181654715590653, -5.701255781102393 ], [ 102.175898837983269, -5.698427058588587 ], [ 102.17023660463191, -5.695414645142913 ], [ 102.148536604631929, -5.68341828964451 ], [ 102.143310281505137, -5.680425143197663 ], [ 102.138176426754043, -5.677275486964413 ], [ 102.133139708689427, -5.673972182420212 ], [ 102.128204707293847, -5.67051823068424 ], [ 102.123375910057007, -5.666916769800321 ], [ 102.118657707895167, -5.663171071893543 ], [ 102.114054391158334, -5.659284540205162 ], [ 102.109570145729165, -5.655260706008389 ], [ 101.948970145729163, -5.506697944629609 ], [ 101.944431621279634, -5.502364808480274 ], [ 101.940031103215887, -5.497890991214501 ], [ 101.935772930372153, -5.493280900802511 ], [ 101.931661301232737, -5.488539079591748 ], [ 101.927700269792453, -5.48367019984071 ], [ 100.880004772786663, -4.152360562362729 ], [ 100.186612869327817, -3.436515401195252 ], [ 100.182643928132805, -3.43229577916455 ], [ 100.178798161864677, -3.427962486316278 ], [ 100.175078791757173, -3.423519150723194 ], [ 100.171488933173961, -3.418969492647123 ], [ 100.168031592999156, -3.414317321428008 ], [ 99.844889135268005, -2.966011745980473 ], [ 98.935714622844429, -2.009036107913162 ], [ 98.740200997791646, -1.825481880083689 ], [ 98.735846429349166, -1.821267636943029 ], [ 98.731620587966816, -1.816922725361115 ], [ 98.72752734391365, -1.812451123741847 ], [ 98.723570446018499, -1.807856926526669 ], [ 98.719753518236459, -1.80314434044816 ], [ 98.716080056329972, -1.798317680680727 ], [ 98.712553424667192, -1.793381366891906 ], [ 98.709176853140605, -1.788339919197863 ], [ 98.705953434208979, -1.7831979540268 ], [ 98.433475184063226, -1.333556586402456 ], [ 97.691384974374245, -0.209436591099374 ], [ 97.676921696025445, -0.19046335635219 ], [ 97.673377219696121, -0.185667625280093 ], [ 97.669975973780268, -0.180767897519896 ], [ 97.666720966883915, -0.175768507126424 ], [ 97.66361507825593, -0.17067387631856 ], [ 96.90831507825591, 1.110547267919296 ], [ 96.905237139342162, 1.115957174463485 ], [ 96.902327406056969, 1.121460570312783 ], [ 96.89958867895831, 1.127052157993532 ], [ 96.897023594014172, 1.13272655516693 ], [ 96.894634620065631, 1.138478299811614 ], [ 96.892424056450565, 1.144301855482887 ], [ 96.890394030790603, 1.150191616643529 ], [ 96.888546496943349, 1.156141914061048 ], [ 96.886883233121793, 1.162147020266157 ], [ 96.885405840182855, 1.168201155067226 ], [ 96.884115740086628, 1.17429849111539 ], [ 96.883014174527659, 1.180433159514942 ], [ 96.882102203739962, 1.186599255473611 ], [ 96.881380705476545, 1.192790843987263 ], [ 96.869291207708528, 1.312566827883864 ], [ 95.78463987930671, 2.380112504337538 ], [ 95.26597465306881, 2.809178513479131 ], [ 95.261130618739628, 2.813316772249457 ], [ 95.256420057078969, 2.817607975443386 ], [ 95.251847743162287, 2.82204777137508 ], [ 95.247418311923965, 2.826631657718466 ], [ 95.243136253458829, 2.831354986077915 ], [ 95.23900590847056, 2.836212966707044 ], [ 95.235031463871593, 2.84120067337082 ], [ 95.23121694853883, 2.846313048346034 ], [ 95.22756622922951, 2.851544907555033 ], [ 95.224083006661658, 2.856890945827483 ], [ 95.220770811762591, 2.862345742284818 ], [ 95.217633002089542, 2.867903765841863 ], [ 95.214672758426332, 2.873559380820069 ], [ 95.211893081558813, 2.87930685266659 ], [ 95.209296789233122, 2.885140353773433 ], [ 95.201496789233119, 2.903441665209757 ], [ 95.199203430359574, 2.909055499273782 ], [ 95.197079918558074, 2.914736446647206 ], [ 95.195128195049918, 2.920479313011474 ], [ 95.193350044015077, 2.926278847510869 ], [ 95.191747090961258, 2.932129747556359 ], [ 95.190320801237789, 2.938026663676523 ], [ 95.189072478696161, 2.943964204411064 ], [ 95.188003264498093, 2.949936941242461 ], [ 95.187114136072239, 2.955939413561211 ], [ 95.186405906220841, 2.961966133660131 ], [ 95.185879222376556, 2.968011591753123 ], [ 95.185534566010602, 2.974070261013826 ], [ 95.185372252192764, 2.980136602629517 ], [ 95.163613830787043, 4.835828100705888 ], [ 95.01805503138263, 5.197994552376806 ], [ 94.79009272178817, 5.71152593774662 ], [ 94.787634072926153, 5.717304823093559 ], [ 94.785357843028621, 5.72315814943719 ], [ 94.783266278196365, 5.729080138640128 ], [ 94.781361442309361, 5.735064944963344 ], [ 94.779645214990353, 5.741106660843143 ], [ 94.778119289749895, 5.747199322728558 ], [ 94.776785172315485, 5.753336916973339 ], [ 94.775644179145601, 5.759513385776708 ], [ 94.774697436130751, 5.765722633166977 ], [ 94.773945877482504, 5.771958531022114 ], [ 94.773390244811523, 5.778214925121283 ], [ 94.773031086395889, 5.784485641221351 ], [ 94.772868756640065, 5.790764491152392 ], [ 94.772903415725153, 5.797045278926094 ], [ 94.773135029450785, 5.803321806851102 ], [ 94.773563369269013, 5.809587881649183 ], [ 94.774188012509697, 5.815837320566241 ], [ 94.775008342797634, 5.822063957472079 ], [ 94.776023550660767, 5.828261648942959 ], [ 94.777232634328939, 5.834424280320906 ], [ 94.778634400722424, 5.840545771743826 ], [ 94.780227466629199, 5.846620084140478 ], [ 94.782010260069853, 5.852641225184387 ], [ 94.783981021848703, 5.858603255200886 ], [ 94.786137807289833, 5.864500293021425 ], [ 94.788478488155917, 5.870326521779439 ], [ 94.791000754748296, 5.876076194642041 ], [ 94.793702118186147, 5.881743640471973 ], [ 94.933702118186162, 6.163897172385547 ], [ 94.936607622921997, 6.169525534612888 ], [ 94.939689949919625, 6.175058820578943 ], [ 94.942946000556816, 6.180491470797205 ], [ 94.946372501569272, 6.185818027069844 ], [ 94.949966008341192, 6.191033137962004 ], [ 94.953722908368135, 6.196131564168257 ], [ 94.957639424888598, 6.201108183765971 ], [ 94.961711620680717, 6.205957997350248 ], [ 94.965935402020335, 6.210676133045464 ], [ 94.970306522796434, 6.215257851388299 ], [ 94.974820588779522, 6.219698550077502 ], [ 94.979473062039261, 6.223993768585644 ], [ 94.984259265506324, 6.228139192628269 ], [ 94.989174387674126, 6.232130658486049 ], [ 94.994213487435914, 6.235964157175635 ], [ 94.999371499051875, 6.239635838465072 ], [ 95.004643237241694, 6.243142014729828 ], [ 95.010023402397223, 6.246479164645601 ], [ 95.015506585910188, 6.249643936714249 ], [ 95.021087275609275, 6.252633152619388 ], [ 95.026759861301542, 6.255443810408299 ], [ 95.032518640412221, 6.25807308749705 ], [ 95.038357823717419, 6.260518343495815 ], [ 95.044271541164036, 6.262777122851666 ], [ 95.050253847770747, 6.264847157306146 ], [ 95.05629872960445, 6.266726368165299 ], [ 95.062400109826058, 6.26841286837983 ], [ 95.068551854799367, 6.269904964433399 ], [ 95.074747780257141, 6.27120115803718 ], [ 95.080981657518151, 6.272300147628997 ], [ 95.087247219748662, 6.273200829675567 ], [ 95.093538168262526, 6.273902299776593 ], [ 95.099848178853037, 6.274403853569595 ], [ 95.106170908150688, 6.27470498743457 ], [ 95.1125, 6.274805398997844 ], [ 95.1197, 6.274805398997844 ], [ 95.12597443750515, 6.274706714565048 ], [ 95.132242675896038, 6.274410758652862 ], [ 95.138498522183042, 6.273917823324126 ], [ 95.144735795619923, 6.273228395031162 ], [ 95.150948333810334, 6.272343154137486 ], [ 95.157129998796208, 6.271262974248847 ], [ 95.163274683122054, 6.269988921354236 ], [ 95.169376315869158, 6.268522252777722 ], [ 95.175428868653469, 6.266864415942106 ], [ 95.181426361581771, 6.265017046945572 ], [ 95.187362869159671, 6.262981968952774 ], [ 95.193232526146048, 6.260761190401843 ], [ 95.199029533347868, 6.258356903029115 ], [ 95.204748163349663, 6.255771479713423 ], [ 95.210382766172373, 6.253007472142134 ], [ 95.21592777485526, 6.250067608301089 ], [ 95.221377710956261, 6.246954789790969 ], [ 95.226727189964535, 6.243672088972618 ], [ 95.231970926620392, 6.24022274594416 ], [ 95.237103740137044, 6.236610165352777 ], [ 95.242120559319275, 6.232837913044296 ], [ 95.247016427573669, 6.228909712553802 ], [ 95.455830157081294, 6.055873900292759 ], [ 95.971999295357818, 5.68871999834295 ], [ 96.859779541957536, 5.474527335299391 ], [ 97.501676585402379, 5.451066447200969 ], [ 97.507866584901947, 5.450743711815241 ], [ 97.514043603326598, 5.450228562165152 ], [ 97.520201686357623, 5.449521494326765 ], [ 97.526334897928976, 5.448623189190731 ], [ 97.532437325949431, 5.447534511808709 ], [ 97.538503088001406, 5.446256510562986 ], [ 97.544526337011447, 5.444790416160103 ], [ 97.5505012668864, 5.443137640449428 ], [ 97.556422118110135, 5.441299775067783 ], [ 97.562283183295577, 5.439278589911424 ], [ 97.568078812686167, 5.437076031436824 ], [ 97.573803419602015, 5.43469422079185 ], [ 97.579451485825103, 5.43213545177912 ], [ 97.585017566918623, 5.42940218865346 ], [ 97.590496297475084, 5.426497063755555 ], [ 97.59588239628826, 5.423422874984031 ], [ 97.601170671444081, 5.420182583108375 ], [ 97.655070671444079, 5.385992102332565 ], [ 97.66035910145051, 5.382518615781048 ], [ 97.665535129338849, 5.378879005245752 ], [ 97.670593563237219, 5.375076918506126 ], [ 97.675529329227658, 5.371116166256894 ], [ 97.680337476435653, 5.367000718298206 ], [ 98.045637476435658, 5.04407771134513 ], [ 98.050697490622383, 5.039446368861076 ], [ 98.055596064108741, 5.034643621155173 ], [ 98.060327428524161, 5.029675120007359 ], [ 98.06488601239694, 5.024546712392719 ], [ 98.069266447715066, 5.019264433614316 ], [ 98.417538727387779, 4.584176993525124 ], [ 99.594719733381282, 3.954148265621831 ], [ 99.60037577663347, 3.951000726294157 ], [ 99.60592735696072, 3.947670862400245 ], [ 99.611368650312855, 3.944162165042409 ], [ 99.616693948339531, 3.940478312865261 ], [ 99.621897664378722, 3.936623168206414 ], [ 100.805255077116783, 3.029391611080571 ], [ 101.003333333333003, 2.86 ] ] ] } },
{ "type": "Feature", "properties": { "fid": 3, "ID": "17", "Jenis": "Unilateral", "TipeZona": "Batas Laut Teritorial", "Datum": "WGS-84", "Panjang": "533.344 mil laut", "Batas_Ngr": "-", "StatusLaut": "Unilateral", "Jenis_Janj": "-", "Janji_Tgl": "-", "Janji_Thn": null, "Ratif_Jns": "-", "Ratif_No": null, "Ratif_Thn": null }, "geometry": { "type": "MultiLineString", "coordinates": [ [ [ 104.487024129757074, 1.42187281990349 ], [ 104.506292169640403, 1.43782445350076 ], [ 104.568727647335677, 1.44360665948461 ], [ 104.573034794332798, 1.443306802762421 ], [ 104.579336396954815, 1.442665406235003 ], [ 104.598836396954809, 1.440365596372986 ], [ 104.604983758411038, 1.439542983006365 ], [ 104.611102767219379, 1.438528608481703 ], [ 104.617187519094202, 1.437323451319737 ], [ 104.623232142804696, 1.435928674082607 ], [ 104.629230805840095, 1.434345622253461 ], [ 104.635177720037476, 1.432575822939766 ], [ 104.641067147166822, 1.430620983401551 ], [ 104.646893404467903, 1.428482989406014 ], [ 104.652650870133627, 1.426163903410057 ], [ 104.658333988734555, 1.423665962572488 ], [ 104.663937276579347, 1.420991576597811 ], [ 104.669455327006091, 1.418143325413664 ], [ 104.674882815599233, 1.415123956684131 ], [ 104.680214505327129, 1.411936383161319 ], [ 104.685445251595269, 1.408583679877735 ], [ 104.690570007210397, 1.40506908118217 ], [ 104.695583827250601, 1.401395977621924 ], [ 104.775431639040718, 1.340967441614364 ], [ 105.368473027239219, 2.310608975440007 ], [ 105.200439204601139, 2.652417498364581 ], [ 105.197710275208294, 2.658197895824721 ], [ 105.195165904161982, 2.664062784107784 ], [ 105.192808676005242, 2.670006204486218 ], [ 105.190640985183506, 2.676022118527576 ], [ 105.188665033612324, 2.682104414233234 ], [ 105.186882828440773, 2.68824691225156 ], [ 105.1852961800125, 2.694443372159238 ], [ 105.183906700026796, 2.700687498804329 ], [ 105.182715799901601, 2.706972948704588 ], [ 105.181724689339632, 2.713293336494561 ], [ 105.180934375099667, 2.719642241414858 ], [ 105.180345659973938, 2.726013213837015 ], [ 105.179959141972461, 2.732399781817299 ], [ 105.179775213715885, 2.73879545767278 ], [ 105.179794062036379, 2.745193744572988 ], [ 105.180015667788041, 2.75158814314044 ], [ 105.1804398058663, 2.757972158053328 ], [ 105.181066045436509, 2.76433930464366 ], [ 105.181893750371714, 2.770683115484134 ], [ 105.182922079898674, 2.776997146957065 ], [ 105.18414998945201, 2.783274985798683 ], [ 105.185576231735197, 2.789510255612154 ], [ 105.187199357987666, 2.795696623342717 ], [ 105.189017719456274, 2.801827805708366 ], [ 105.191029469070244, 2.807897575579539 ], [ 105.193232563317324, 2.81389976830135 ], [ 105.195624764319476, 2.819828287951966 ], [ 105.198203642106321, 2.825677113530752 ], [ 105.20096657708325, 2.83144030506995 ], [ 105.203910762692473, 2.837112009663667 ], [ 105.207033208263894, 2.842686467408095 ], [ 105.410933208263884, 3.19345389815827 ], [ 105.414160910759378, 3.198811801911038 ], [ 105.417553402021824, 3.20406581354001 ], [ 105.421107376816124, 3.209210815783046 ], [ 105.424819372577105, 3.21424179763201 ], [ 105.428685772782927, 3.219153859208328 ], [ 105.432702810478716, 3.223942216530075 ], [ 105.43686657194651, 3.22860220616597 ], [ 105.441173000518376, 3.233129289771802 ], [ 105.445617900528745, 3.237519058504847 ], [ 105.450196941402169, 3.241767237312063 ], [ 105.454905661872431, 3.245869689087857 ], [ 105.459739474329155, 3.249822418697461 ], [ 105.464693669287399, 3.253621576861975 ], [ 105.469763419976033, 3.257263463901371 ], [ 105.47494378704026, 3.260744533331801 ], [ 105.842743787040277, 3.499603530993818 ], [ 105.847927018672351, 3.502857310098006 ], [ 105.853206937715441, 3.505950132561347 ], [ 105.858578596152213, 3.508879101602033 ], [ 105.864036959992731, 3.511641473934806 ], [ 105.86957691399212, 3.514234662335586 ], [ 105.875193266444114, 3.516656238060106 ], [ 105.880880754046544, 3.518903933114285 ], [ 106.187051137605437, 3.634489537433969 ], [ 107.295736237190681, 4.219451730052905 ], [ 107.552781099960356, 4.626458369392025 ], [ 107.556106820005439, 4.631550050452726 ], [ 107.559585196183562, 4.636537942773489 ], [ 107.563213016048465, 4.641417442034153 ], [ 107.566986929135538, 4.646184044071774 ], [ 107.570903450056065, 4.650833349031864 ], [ 107.574958961716263, 4.655361065423138 ], [ 107.57914971865776, 4.659763014072009 ], [ 107.76334971865775, 4.847424797808238 ], [ 107.768275449211473, 4.85227190833527 ], [ 107.773365227754539, 4.856945342223192 ], [ 107.778612974034573, 4.861439520267901 ], [ 107.883812974034569, 4.948419441464426 ], [ 107.888587422296268, 4.952245138095065 ], [ 107.893476383770746, 4.955922461527474 ], [ 107.898475277499998, 4.959447968630752 ], [ 107.903579419519446, 4.962818358479479 ], [ 107.908784027246909, 4.966030475437112 ], [ 107.914084223963769, 4.969081312103405 ], [ 107.919475043384509, 4.971968012123217 ], [ 107.924951434310117, 4.97468787285402 ], [ 107.930508265361055, 4.977238347889751 ], [ 107.936140329785388, 4.979617049438554 ], [ 107.941842350337495, 4.981821750552338 ], [ 107.947608984222825, 4.983850387206012 ], [ 107.95343482810415, 4.985701060224512 ], [ 107.9593144231644, 4.987372037055827 ], [ 107.965242260221729, 4.988861753388427 ], [ 107.971212784891478, 4.99016881461154 ], [ 107.977220402790678, 4.991291997116989 ], [ 107.988320402790677, 4.993191429325551 ], [ 107.99458415565843, 4.994160930613466 ], [ 108.000875438475063, 4.994930545244255 ], [ 108.00718791064601, 4.995499498285232 ], [ 108.013515210221257, 4.995867216853784 ], [ 108.019850960307167, 4.996033330692478 ], [ 108.026188775493381, 4.99599767254079 ], [ 108.032522268288204, 4.995760278303011 ], [ 108.03884505555628, 4.995321387012199 ], [ 108.045150764951586, 4.994681440590214 ], [ 108.051433041339919, 4.993841083404074 ], [ 108.057685553203768, 4.99280116161903 ], [ 108.063901999023358, 4.991562722349088 ], [ 108.070076113627692, 4.990127012605726 ], [ 108.076201674508837, 4.988495478045892 ], [ 108.082272508093041, 4.986669761520551 ], [ 108.0882824959629, 4.984651701425148 ], [ 108.094225581023636, 4.982443329853688 ], [ 108.100095773607578, 4.980046870558237 ], [ 108.105887157510992, 4.977464736715842 ], [ 108.111593895956446, 4.974699528505142 ], [ 108.11721023747549, 4.971754030495031 ], [ 108.12273052170508, 4.968631208847963 ], [ 108.12814918509244, 4.965334208340696 ], [ 108.133460766502083, 4.961866349205442 ], [ 108.138659912719859, 4.958231123794506 ], [ 108.143741383848081, 4.954432193071796 ], [ 108.148700058586485, 4.950473382934653 ], [ 108.153530939393718, 4.946358680369651 ], [ 108.158229157524005, 4.942092229446234 ], [ 108.162789977934068, 4.937678327152105 ], [ 108.167208804055278, 4.933121419074601 ], [ 108.171481182426334, 4.928426094932283 ], [ 108.17560280718142, 4.923597083961228 ], [ 108.179569524390104, 4.918639250160616 ], [ 108.183377336243595, 4.913557587402338 ], [ 108.187022405083994, 4.908357214409551 ], [ 108.190501057272002, 4.90304336960912 ], [ 108.193809786889418, 4.897621405863158 ], [ 108.196945259272411, 4.892096785084888 ], [ 108.199904314372432, 4.886475072744214 ], [ 108.595802605766082, 4.104076154205383 ], [ 109.087237943666551, 3.131896867523673 ], [ 109.327428028817366, 2.766529485599154 ], [ 109.712857906727137, 2.315212033963187 ] ], [ [ 109.712857906727123, 2.315212033963187 ], [ 109.712093244254547, 2.3118525943516 ] ] ] } },
{ "type": "Feature", "properties": { "fid": 4, "ID": "10", "Jenis": "Bilateral", "TipeZona": "Batas Laut Teritorial", "Datum": "WGS-84", "Panjang": "5.173 mil laut", "Batas_Ngr": "Singapura", "StatusLaut": "Kesepakatan sudah ratifikasi", "Jenis_Janj": "Treaty", "Janji_Tgl": "3 September", "Janji_Thn": 2014, "Ratif_Jns": "UU", "Ratif_No": 1, "Ratif_Thn": 2017 }, "geometry": { "type": "MultiLineString", "coordinates": [ [ [ 104.033530239258724, 1.269674335841624 ], [ 104.037933333333001, 1.27300833333333 ], [ 104.1184, 1.2761 ], [ 104.118441855231893, 1.276113706639482 ] ] ] } },
{ "type": "Feature", "properties": { "fid": 5, "ID": "10", "Jenis": "Bilateral", "TipeZona": "Batas Laut Teritorial", "Datum": "WGS-84", "Panjang": "19.5 mil laut", "Batas_Ngr": "Singapura", "StatusLaut": "Kesepakatan sudah ratifikasi", "Jenis_Janj": "Treaty", "Janji_Tgl": "25 Mei", "Janji_Thn": 1973, "Ratif_Jns": "UU", "Ratif_No": 7, "Ratif_Thn": 1973 }, "geometry": { "type": "MultiLineString", "coordinates": [ [ [ 103.740694399999981, 1.131111111 ], [ 103.805, 1.171944444 ], [ 103.859833333332986, 1.19597222222222 ], [ 103.88075, 1.2075 ], [ 104.0333, 1.2695 ], [ 104.033530239258724, 1.269674335841624 ] ] ] } },
{ "type": "Feature", "properties": { "fid": 6, "ID": "16", "Jenis": "Bilateral", "TipeZona": "Batas Laut Teritorial", "Datum": "WGS-84", "Panjang": "174.27 mil laut", "Batas_Ngr": "Malaysia", "StatusLaut": "Kesepakatan sudah ratifikasi", "Jenis_Janj": "Treaty", "Janji_Tgl": "17 Maret", "Janji_Thn": 1970, "Ratif_Jns": "UU", "Ratif_No": 2, "Ratif_Thn": 1971 }, "geometry": { "type": "MultiLineString", "coordinates": [ [ [ 101.003333333333003, 2.86 ], [ 101.201666666667009, 2.691666666666669 ], [ 101.775, 2.25666666666667 ], [ 102.223333333333002, 1.92 ], [ 102.583333333332988, 1.686666666666669 ], [ 103.035, 1.31833333333333 ], [ 103.065, 1.325 ], [ 103.38, 1.25 ] ] ] } },
{ "type": "Feature", "properties": { "fid": 7, "ID": "12", "Jenis": "Unilateral", "TipeZona": "Batas Laut Teritorial", "Datum": "WGS-84", "Panjang": "2027.182 mil laut", "Batas_Ngr": "-", "StatusLaut": "Unilateral", "Jenis_Janj": "-", "Janji_Tgl": "-", "Janji_Thn": null, "Ratif_Jns": "-", "Ratif_No": null, "Ratif_Thn": null }, "geometry": { "type": "MultiLineString", "coordinates": [ [ [ 118.266627776685397, 4.090575878103368 ], [ 118.268516189653226, 4.084162081596012 ], [ 118.270789394497058, 4.078088981456137 ], [ 118.272865701094588, 4.071945149959704 ], [ 118.82269814758682, 2.352517913361837 ], [ 119.174727537763644, 1.932943804097241 ], [ 120.220664019477212, 1.235178991876748 ], [ 120.691343328962859, 1.511375629110636 ], [ 120.696651709985289, 1.514382164955482 ], [ 120.702048760485383, 1.517224317710291 ], [ 120.7075294561877, 1.519899442184123 ], [ 120.713088694948823, 1.522405048650773 ], [ 120.805588694948852, 1.562401742668817 ], [ 120.810877523743386, 1.564598784671071 ], [ 120.816226743055537, 1.566642396769684 ], [ 120.821631959097914, 1.568530900819576 ], [ 120.822531959097915, 1.568830874791482 ], [ 120.828445849354154, 1.570699982819971 ], [ 120.834414549504643, 1.57238342280214 ], [ 120.840432305460737, 1.573879572283377 ], [ 120.84649331584184, 1.575186989318686 ], [ 120.852591737568119, 1.57630441386098 ], [ 120.85872169149367, 1.577230768974212 ], [ 120.864877268074054, 1.577965161870211 ], [ 120.871052533063562, 1.578506884768216 ], [ 120.87724153323596, 1.578855415576285 ], [ 120.883438302123679, 1.579010418393938 ], [ 120.889636865769774, 1.578971743835534 ], [ 120.895831248487085, 1.578739429174091 ], [ 120.902015478619091, 1.578313698305406 ], [ 120.908183594296716, 1.577694961532499 ], [ 121.466183594296709, 1.51290073383525 ], [ 121.472101766725089, 1.512123133179898 ], [ 121.477994197720534, 1.511167842889533 ], [ 122.460065354787588, 1.336750857298828 ], [ 123.116705871598896, 1.249916846688114 ], [ 124.228894370305099, 1.349531465862827 ], [ 124.554441494950709, 1.858559418269571 ], [ 124.962571573377318, 2.789851238173434 ], [ 125.11787940304319, 4.256209918082516 ], [ 125.118578693281563, 4.262003729712512 ], [ 125.119445720810219, 4.267774600590176 ], [ 125.120479750456397, 4.273517637979364 ], [ 125.121679905442221, 4.279227972854462 ], [ 125.123045168128399, 4.284900764027049 ], [ 125.234745168128399, 4.720970632982947 ], [ 125.236363685180137, 4.726907425271377 ], [ 125.238163252536609, 4.732791471497192 ], [ 125.240142170925395, 4.738617216918842 ], [ 125.242298571718848, 4.744379161977217 ], [ 125.244630418698577, 4.750071867483227 ], [ 125.247135509978065, 4.755689959747868 ], [ 125.24981148008186, 4.761228135649951 ], [ 125.252655802179277, 4.766681167636758 ], [ 125.255665790470402, 4.772043908652889 ], [ 125.258838602722165, 4.777311296992712 ], [ 125.262171242952121, 4.782478361071854 ], [ 125.265660564257587, 4.787540224113203 ], [ 125.269303271787066, 4.792492108743141 ], [ 125.319503271787056, 4.858580281732061 ], [ 125.323355959920377, 4.863491187055768 ], [ 125.327359533617283, 4.868279085350048 ], [ 125.331510094170326, 4.872939316802078 ], [ 125.335803599735371, 4.877467345951715 ], [ 125.340235869267374, 4.881858766097406 ], [ 125.344802586592039, 4.886109303576621 ], [ 125.349499304608813, 4.890214821916667 ], [ 125.354321449621708, 4.894171325851911 ], [ 125.358221449621709, 4.897270600674962 ], [ 125.363321925483135, 4.901191504479076 ], [ 125.370658400601855, 4.906645523791207 ], [ 126.461896869204253, 5.727185210469029 ], [ 126.466980667206855, 5.730881477806447 ], [ 126.472178049965095, 5.734415682584211 ], [ 126.477483871498535, 5.73778432861943 ], [ 126.482892878460277, 5.740984083571083 ], [ 126.48839971533863, 5.744011782227219 ], [ 126.493998929759442, 5.746864429626997 ], [ 126.499684977884655, 5.749539204014598 ], [ 126.505452229901337, 5.7520334596221 ], [ 126.511294975595732, 5.754344729278602 ], [ 126.517207430007048, 5.756470726843066 ], [ 126.523183739155186, 5.758409349458543 ], [ 126.529217985836866, 5.760158679625507 ], [ 126.535304195484244, 5.761716987092392 ], [ 126.541436342080459, 5.7630827305614 ], [ 126.547608354125984, 5.764254559207969 ], [ 126.553814120650131, 5.76523131401242 ], [ 126.560047497261579, 5.766012028902502 ], [ 126.56630231223194, 5.766595931705661 ], [ 126.572572372606572, 5.766982444910215 ], [ 126.578851470336133, 5.7671711862346 ], [ 126.585133388423316, 5.767161969004181 ], [ 126.591411907078367, 5.766954802335254 ], [ 126.59768080987736, 5.766549891126068 ], [ 126.603933889917087, 5.765947635854849 ], [ 126.610164955960613, 5.765148632185061 ], [ 126.619864955960622, 5.763749118297024 ], [ 126.626082520512185, 5.762751560480639 ], [ 126.632265582389039, 5.761558104271153 ], [ 126.638407990591489, 5.760169935689225 ], [ 126.644503634562696, 5.758588434264855 ], [ 126.650546450267626, 5.756815171670962 ], [ 126.656530426225444, 5.754851910166613 ], [ 126.662449609490068, 5.752700600851365 ], [ 126.668298111572156, 5.750363381732487 ], [ 126.674070114296839, 5.747842575606913 ], [ 126.679759875592097, 5.745140687759974 ], [ 126.685361735200843, 5.742260403483225 ], [ 126.690870120311814, 5.739204585413733 ], [ 126.696279551103586, 5.735976270697437 ], [ 126.701584646195897, 5.732578667979378 ], [ 126.706780128003146, 5.729015154223736 ], [ 126.711860827984651, 5.72528927136675 ], [ 126.716821691786322, 5.721404722805875 ], [ 126.721657784268871, 5.717365369728509 ], [ 126.726364294417337, 5.713175227284002 ], [ 126.730936540127075, 5.708838460602601 ], [ 126.735369972861719, 5.704359380665313 ], [ 126.739660182178056, 5.699742440028667 ], [ 126.743802900113565, 5.694992228408649 ], [ 126.747794005432368, 5.690113468128069 ], [ 126.751629527724972, 5.68511100943191 ], [ 126.7553056513581, 5.679989825675195 ], [ 127.306105651358095, 4.886036582403899 ], [ 127.309498352588548, 4.8809805990967 ], [ 127.312736087270736, 4.87582335932504 ], [ 127.315815856328101, 4.87056963791574 ], [ 127.318734807005811, 4.865224299141752 ], [ 127.321490235513309, 4.859792292224553 ], [ 127.324079589528708, 4.854278646757505 ], [ 127.326500470563033, 4.848688468054417 ], [ 127.328750636181894, 4.843026932427543 ], [ 127.330828002082669, 4.837299282399423 ], [ 127.332730644025077, 4.831510821852919 ], [ 127.336130644025062, 4.820611789218958 ], [ 127.337833318391404, 4.81485189257632 ], [ 127.339362995481494, 4.809043304913141 ], [ 127.340718298687094, 4.803191252440498 ], [ 127.341898008324932, 4.797301000615727 ], [ 127.342901062734313, 4.791377849407242 ], [ 127.3609010627343, 4.674483066746107 ], [ 127.361719938037524, 4.668584886444313 ], [ 127.362363706358366, 4.662664838529246 ], [ 127.36283179870648, 4.656728154967157 ], [ 127.363931798706474, 4.639528471790713 ], [ 127.364235658997615, 4.633224849677772 ], [ 127.364341474085961, 4.626914694473041 ], [ 127.364249138946832, 4.620604269183526 ], [ 127.363958745225659, 4.614299837253964 ], [ 127.363470581147027, 4.608007656349172 ], [ 127.362785131228605, 4.601733972141457 ], [ 127.361903075800285, 4.595485012109259 ], [ 127.360825290328819, 4.589266979353248 ], [ 127.3595528445491, 4.58308604643594 ], [ 127.358087001402183, 4.57694834925105 ], [ 127.356429215781873, 4.570859980928625 ], [ 127.354581133090832, 4.564826985782062 ], [ 127.352544587607255, 4.558855353303026 ], [ 127.093493165601075, 3.836247265174869 ], [ 128.681820367819938, 2.814589077242577 ], [ 128.68713104217548, 2.811050025975328 ], [ 128.692326704392201, 2.80734237439495 ], [ 128.697402063061986, 2.803469896884823 ], [ 128.702351949297366, 2.799436535663464 ], [ 128.707171321995418, 2.79524639677664 ], [ 128.711855272971974, 2.790903745922714 ], [ 128.716399031959924, 2.786413004115436 ], [ 128.720797971467874, 2.781778743188553 ], [ 128.725047611492471, 2.777005681146803 ], [ 128.729143624081189, 2.772098677367974 ], [ 128.733081837740002, 2.767062727660918 ], [ 128.736858241681773, 2.761902959184484 ], [ 128.740468989910823, 2.756624625232532 ], [ 128.743910405139957, 2.75123309989032 ], [ 128.747178982535473, 2.745733872567663 ], [ 128.872078982535498, 2.527751332368537 ], [ 128.875164492600589, 2.522161993130835 ], [ 128.878071516585976, 2.516476668655629 ], [ 128.880797107484597, 2.510701121284798 ], [ 128.883338502217782, 2.504841204888149 ], [ 128.885693124436585, 2.498902858933456 ], [ 128.887858587133309, 2.492892102469406 ], [ 128.8898326950615, 2.486815028027536 ], [ 128.891613446961458, 2.480677795449337 ], [ 128.893199037588829, 2.474486625644767 ], [ 128.894587859544828, 2.468247794288481 ], [ 128.895778504905678, 2.461967625460177 ], [ 128.89676976664984, 2.455652485235485 ], [ 128.897560639881902, 2.449308775233895 ], [ 128.898150322850853, 2.442942926130265 ], [ 128.898538217763303, 2.436561391136479 ], [ 128.934808175459409, 1.628735982952958 ], [ 129.274370704464474, 0.913870617378567 ], [ 130.656129209660065, 0.746971746442301 ], [ 131.115790550771777, 1.228175751880228 ], [ 131.120202549847136, 1.232651443168042 ], [ 131.124751885913639, 1.236985605690002 ], [ 131.129434080092778, 1.241173973095429 ], [ 131.134244522705643, 1.245212422571796 ], [ 131.139178477811043, 1.249096978900675 ], [ 131.144231087868206, 1.252823818368358 ], [ 131.149397378519183, 1.256389272527323 ], [ 131.15467226348585, 1.259789831804858 ], [ 131.160050549577846, 1.263022148955308 ], [ 131.165526941804899, 1.266083042352549 ], [ 131.17109604859013, 1.26896949911948 ], [ 131.176752387078011, 1.271678678091454 ], [ 131.182490388532244, 1.274207912610744 ], [ 131.188304403818364, 1.276554713149323 ], [ 131.194188708965299, 1.27871676975736 ], [ 131.200137510800829, 1.280691954335072 ], [ 131.206144952654796, 1.282478322725666 ], [ 131.212205120125304, 1.284074116627364 ], [ 131.21831204690136, 1.285477765322601 ], [ 131.224459720636844, 1.286687887222735 ], [ 131.230642088869899, 1.287703291226731 ], [ 131.236853064981233, 1.288522977892513 ], [ 131.243086534186943, 1.28914614041982 ], [ 131.249336359558384, 1.28957216544361 ], [ 131.255596388063935, 1.289800633637241 ], [ 131.261860456626948, 1.289831320124828 ], [ 131.268122398193299, 1.289664194702389 ], [ 131.274376047802861, 1.28929942186754 ], [ 131.280615248659103, 1.288737360657736 ], [ 131.286833858190477, 1.287978564297196 ], [ 131.293025754097755, 1.287023779652866 ], [ 131.299184840381713, 1.285873946499955 ], [ 131.30530505334454, 1.284530196597757 ], [ 131.311380367559792, 1.282993852576665 ], [ 131.317404801804287, 1.281266426637463 ], [ 131.323372424946911, 1.279349619064182 ], [ 131.329277361787717, 1.277245316551955 ], [ 131.335113798842286, 1.274955590351526 ], [ 131.34087599006503, 1.272482694232211 ], [ 131.346558262506335, 1.269829062265337 ], [ 131.352155021897715, 1.26699730643028 ], [ 131.35766075815917, 1.263990214045497 ], [ 131.363070050824263, 1.260810745027035 ], [ 131.368377574376495, 1.257462028977211 ], [ 131.373578103492235, 1.253947362106322 ], [ 131.394178103492237, 1.239548216355094 ], [ 131.399218066817014, 1.23590721303471 ], [ 131.404143197687546, 1.232110347204862 ], [ 131.40894874018332, 1.22816128463294 ], [ 131.41363005386367, 1.224063838048452 ], [ 131.418182618248665, 1.219821963464147 ], [ 131.422602037184163, 1.215439756358764 ], [ 131.426884043087227, 1.210921447725096 ], [ 131.43102450106673, 1.206271399987154 ], [ 131.435019412916603, 1.201494102790373 ], [ 131.438864920976215, 1.196594168668912 ], [ 131.442557311855893, 1.191576328594207 ], [ 131.446093020022488, 1.186445427409082 ], [ 131.449468631242524, 1.181206419151801 ], [ 132.271196043598025, -0.138805937104711 ], [ 132.425972322099284, -0.1417507349231 ], [ 132.434959301843548, -0.142125748505132 ], [ 132.651238411085984, -0.156069988961859 ], [ 134.169134210388961, 1.094893295226171 ], [ 134.17396325371385, 1.098748819369073 ], [ 134.178908242246933, 1.102452449885768 ], [ 134.183964462382022, 1.106000657007534 ], [ 134.189127094485912, 1.109390059108516 ], [ 134.194391217492637, 1.11261742592665 ], [ 134.199751813594219, 1.115679681640354 ], [ 134.205203773023612, 1.118573907798051 ], [ 134.21074189892559, 1.121297346097737 ], [ 134.216360912310137, 1.12384740101397 ], [ 134.222055457084679, 1.126221642269768 ], [ 134.227820105159395, 1.128417807151099 ], [ 134.233649361621474, 1.13043380266174 ], [ 134.239537669972776, 1.132267707516477 ], [ 134.245479417426367, 1.133917773970751 ], [ 134.251468940256729, 1.135382429485017 ], [ 134.25750052919841, 1.136660278222234 ], [ 134.263568434888185, 1.137750102377078 ], [ 134.269666873345415, 1.138650863335594 ], [ 134.275790031485286, 1.139361702664214 ], [ 134.281932072660112, 1.139881942927198 ], [ 134.28808714222248, 1.140211088331698 ], [ 134.29424937310651, 1.140348825199873 ], [ 134.30041289141991, 1.140295022267581 ], [ 134.306571822043139, 1.140049730809368 ], [ 134.312720294229905, 1.139613184589645 ], [ 134.318852447202715, 1.138985799640092 ], [ 134.324962435739934, 1.138168173863501 ], [ 134.37106243573993, 1.131268612232496 ], [ 134.377178607343723, 1.130255314214483 ], [ 134.383260578365594, 1.129051390269506 ], [ 134.38930248592186, 1.127658000714495 ], [ 134.395298505749111, 1.12607648847176 ], [ 134.401242857818687, 1.124308377775722 ], [ 134.407129811908447, 1.122355372705023 ], [ 134.412953693126724, 1.120219355541421 ], [ 134.418708887382564, 1.117902384957036 ], [ 134.424389846797766, 1.115406694031695 ], [ 134.429991095054845, 1.112734688102266 ], [ 134.435507232676088, 1.109888942446061 ], [ 134.4409329422285, 1.106872199800506 ], [ 134.446262993449722, 1.103687367721486 ], [ 134.451492248289952, 1.100337515782867 ], [ 134.456615665864746, 1.096825872619923 ], [ 134.461628307314442, 1.093155822819456 ], [ 134.466525340565113, 1.089330903659643 ], [ 134.47130204498643, 1.085354801702712 ], [ 134.475953815942574, 1.081231349243713 ], [ 134.480476169230542, 1.076964520618823 ], [ 134.4848647454032, 1.072558428376707 ], [ 134.489115313971553, 1.068017319316619 ], [ 134.493223777482768, 1.063345570397059 ], [ 134.497186175470205, 1.058547684518903 ], [ 134.500998688271011, 1.053628286187075 ], [ 134.504657640708302, 1.048592117054918 ], [ 135.409261208564914, -0.2381111428602 ], [ 135.948034700570844, -0.52065905341388 ], [ 135.953593617236777, -0.523687831466076 ], [ 135.959054503171188, -0.526892247706315 ], [ 135.964411884247539, -0.530269089667402 ], [ 135.969660390094987, -0.533814972025694 ], [ 136.470938133086435, -0.88417747161834 ], [ 137.969649189191074, -1.25907536770633 ], [ 138.745170063481652, -1.375166569666954 ], [ 138.75164973827421, -1.376246447448805 ], [ 138.758090612483585, -1.377540256749362 ], [ 138.764485715077768, -1.379046596911555 ], [ 138.770828124563735, -1.380763837198054 ], [ 138.777110976479008, -1.382690118557694 ], [ 138.78332747082078, -1.384823355639208 ], [ 138.789470879405911, -1.387161239050082 ], [ 138.795534553152777, -1.389701237858083 ], [ 138.801511929277723, -1.392440602332749 ], [ 138.80739653839791, -1.395376366923872 ], [ 140.223479404465735, -2.131154389320752 ], [ 140.66286226621051, -2.244921535224059 ], [ 140.668605970301769, -2.246500901501825 ], [ 140.67430029836018, -2.248251873478516 ], [ 140.679940184924675, -2.250172892930685 ], [ 140.68552061296333, -2.252262250311993 ], [ 140.691036618336369, -2.254518086276127 ], [ 141.011143768381146, -2.391053508344866 ], [ 141.0, -2.6044 ] ] ] } },
{ "type": "Feature", "properties": { "fid": 8, "ID": "11", "Jenis": "Unilateral", "TipeZona": "Batas Laut Teritorial", "Datum": "WGS-84", "Panjang": "1222.298 mil laut", "Batas_Ngr": "-", "StatusLaut": "Unilateral", "Jenis_Janj": "-", "Janji_Tgl": "-", "Janji_Thn": null, "Ratif_Jns": "-", "Ratif_No": null, "Ratif_Thn": null }, "geometry": { "type": "MultiLineString", "coordinates": [ [ [ 127.546352906433484, -8.419908362370291 ], [ 127.580444107379606, -8.429437270947519 ], [ 127.58687461672946, -8.431120145406922 ], [ 127.593357839806728, -8.432588864044572 ], [ 127.599886585615138, -8.433841800282574 ], [ 127.606453612665973, -8.434877566533366 ], [ 127.613051637010102, -8.43569501572904 ], [ 127.619171581935632, -8.436350388499624 ], [ 128.488497761203632, -8.549595723349832 ], [ 128.494945951487978, -8.550329682723191 ], [ 128.50141470189061, -8.550854618164129 ], [ 128.507897175877105, -8.551169975767646 ], [ 128.514386522409012, -8.551275422773687 ], [ 128.520875883184829, -8.551170847916531 ], [ 128.527358399887845, -8.550856361541623 ], [ 128.533827221434592, -8.55033229548971 ], [ 129.822078951766457, -8.424932341267461 ], [ 130.729423381526061, -8.545335533438994 ], [ 130.735884450248165, -8.546086347072929 ], [ 130.742366662514371, -8.546627232436599 ], [ 130.748863136418692, -8.546957616199613 ], [ 130.755366974914125, -8.547077148161389 ], [ 130.761871273135057, -8.546985701620526 ], [ 130.768369125727617, -8.546683373508452 ], [ 130.825669125727615, -8.543085248078933 ], [ 130.831800056078038, -8.542605782839345 ], [ 130.837913241837498, -8.541938571726817 ], [ 130.844002882168837, -8.541084246865838 ], [ 130.850063198577203, -8.540043617659979 ], [ 130.856088440393563, -8.538817670028832 ], [ 130.862072890231161, -8.537407565478436 ], [ 130.868010869411052, -8.535814640006159 ], [ 130.873896743350628, -8.534040402840983 ], [ 130.8797249269102, -8.532086535020385 ], [ 130.885489889692764, -8.529954887805083 ], [ 130.893489889692773, -8.526856393425023 ], [ 130.899440039650386, -8.524441354574465 ], [ 130.905309032639451, -8.521836928648353 ], [ 130.911090788631327, -8.51904580983569 ], [ 130.978890788631304, -8.484961631429005 ], [ 130.983879773720105, -8.482364937596897 ], [ 130.988793233955192, -8.47962920987665 ], [ 131.225193233955196, -8.343589825962059 ], [ 131.23125594924889, -8.339956081742478 ], [ 131.237185562138194, -8.336110606168219 ], [ 131.39378556213822, -8.230554927532163 ], [ 131.401254520555398, -8.22526684231606 ], [ 131.419954520555393, -8.211372446414044 ], [ 131.425256944509442, -8.207292863310787 ], [ 131.430418991450125, -8.203038281415489 ], [ 131.435434848362178, -8.198613486250766 ], [ 131.860634848362167, -7.810453868701607 ], [ 131.865286008860522, -7.806067026437053 ], [ 131.869793742867529, -7.801533669352745 ], [ 131.874153415305699, -7.79685845415246 ], [ 131.878360543341671, -7.792046183423348 ], [ 131.882410800996041, -7.787101800717256 ], [ 131.886300023591218, -7.782030385486941 ], [ 131.890024212034064, -7.776837147882254 ], [ 131.893579536927689, -7.771527423411601 ], [ 131.896962342509227, -7.766106667474071 ], [ 132.147832032868536, -7.349144501414647 ], [ 132.894026561683319, -6.285030452049388 ], [ 134.079497042297447, -7.113758711015109 ], [ 134.084281273434385, -7.116998301001504 ], [ 134.089157385176435, -7.120098170540047 ], [ 134.09412129044739, -7.123055724257123 ], [ 134.099168828583856, -7.125868485985106 ], [ 134.104295768822738, -7.128534100828161 ], [ 134.382095768822751, -7.267879323973379 ], [ 134.387774157398837, -7.270615909624651 ], [ 134.393536257327213, -7.273172062430701 ], [ 134.399376321234115, -7.275545235909286 ], [ 134.405288523981255, -7.277733065906355 ], [ 134.411266968475701, -7.279733372942034 ], [ 134.417305691552201, -7.281544164373194 ], [ 134.467505691552162, -7.295738086355304 ], [ 134.473548652106615, -7.297345046654415 ], [ 134.479639055136147, -7.298762234141384 ], [ 134.485770924720526, -7.299988260100324 ], [ 134.491938244252594, -7.301021923147673 ], [ 134.498134962341425, -7.301862210404522 ], [ 134.504354998750387, -7.302508298484991 ], [ 134.510592250362606, -7.302959554299613 ], [ 134.516840597169789, -7.303215535673105 ], [ 134.523093908276849, -7.303275991775786 ], [ 134.529346047917869, -7.303140863368317 ], [ 134.535590881476253, -7.302810282859493 ], [ 134.541822281504238, -7.302284574177066 ], [ 134.548034133735001, -7.301564252451675 ], [ 134.554220343082164, -7.300650023514216 ], [ 134.560374839620124, -7.299542783207153 ], [ 134.566491584540046, -7.298243616510362 ], [ 134.572564576075024, -7.296753796482412 ], [ 134.578587855389145, -7.295074783018287 ], [ 134.584555512424259, -7.293208221424679 ], [ 134.59046169169892, -7.291155940814327 ], [ 134.596300598053801, -7.288919952320816 ], [ 134.602066502338062, -7.286502447135647 ], [ 134.607753747030529, -7.283905794369407 ], [ 134.76305374703054, -7.210035328088879 ], [ 134.768592545136187, -7.207294643176855 ], [ 134.77404372778156, -7.204384006420573 ], [ 134.779402069071296, -7.201306204883821 ], [ 134.784662432114374, -7.198064185759668 ], [ 134.789819773948921, -7.194661053558479 ], [ 134.794869150376456, -7.191100067145547 ], [ 134.799805720701926, -7.18738463663113 ], [ 134.804624752374366, -7.183518320115816 ], [ 134.818024752374356, -7.172422073500814 ], [ 134.822720748512467, -7.168409247758521 ], [ 134.827290132139211, -7.164253132484851 ], [ 134.831728524372835, -7.159957706629796 ], [ 134.836031671861832, -7.155527082635262 ], [ 134.840195450860961, -7.150965502509312 ], [ 134.844215871183025, -7.14627733377617 ], [ 134.848089080022788, -7.141467065305871 ], [ 134.851811365649041, -7.13653930302743 ], [ 134.855379160961803, -7.131498765529657 ], [ 134.858789046910402, -7.12635027955368 ], [ 134.862037755770274, -7.121098775381559 ], [ 134.865122174274234, -7.115749282125226 ], [ 134.868039346596049, -7.110306922920316 ], [ 134.964639346596073, -6.92314392477194 ], [ 134.967353948142403, -6.917679763742998 ], [ 134.969900099313435, -6.912135150940352 ], [ 134.972275419366895, -6.906515268052396 ], [ 134.974477687293643, -6.900825367303004 ], [ 134.976504843894588, -6.895070766549978 ], [ 134.978354993705835, -6.889256844321503 ], [ 134.980026406771287, -6.883389034795199 ], [ 135.029526406771311, -6.698909043516739 ], [ 135.030770987627676, -6.694024001442248 ], [ 135.108770987627679, -6.370754553484161 ], [ 135.110190959220347, -6.364417461307494 ], [ 135.111404244725662, -6.358037453325098 ], [ 135.112409561377234, -6.351621273497573 ], [ 135.113205846287229, -6.345175704279568 ], [ 135.113792257570054, -6.33870755945343 ], [ 135.114168175232606, -6.332223676928619 ], [ 135.114333201829623, -6.325730911514526 ], [ 135.114287162883983, -6.319236127674287 ], [ 135.10678716288399, -5.997833265380923 ], [ 135.10653542412831, -5.991434945169795 ], [ 135.106079097597757, -5.985047905837142 ], [ 135.105418651642736, -5.978678703315778 ], [ 135.104554764111526, -5.972333875460747 ], [ 135.10348832165451, -5.966019935335432 ], [ 135.102220418814113, -5.959743364522166 ], [ 135.041018425616215, -5.679845534705721 ], [ 136.148087810601339, -4.872331472956079 ], [ 136.677196439503973, -5.089173282958601 ], [ 137.57523636920925, -5.539055002490588 ], [ 137.882736705867615, -6.078313362675292 ], [ 137.885895373352156, -6.083655490875207 ], [ 137.889218274519038, -6.088896785065517 ], [ 137.892702203037686, -6.094032190839932 ], [ 137.896343797199165, -6.099056756054716 ], [ 137.900139543160066, -6.10396563559503 ], [ 137.90408577833287, -6.108754096037685 ], [ 137.908178694920139, -6.113417520205843 ], [ 138.169907316894637, -6.402366605737559 ], [ 137.661161862663334, -7.752224627254042 ], [ 137.504810463601132, -8.139294522165805 ], [ 137.502610231855073, -8.144989398587811 ], [ 137.500586326488389, -8.150748757489595 ], [ 137.498740651916222, -8.156567176779191 ], [ 137.497074944845508, -8.16243917900047 ], [ 137.495590772640895, -8.168359236497047 ], [ 137.494289531849859, -8.174321776622582 ], [ 137.493172446888678, -8.180321186992572 ], [ 137.492240568890281, -8.186351820772684 ], [ 137.460040568890236, -8.418268147946241 ], [ 137.459283653901025, -8.424424301861897 ], [ 137.458719971816407, -8.430600871544302 ], [ 137.458350071316318, -8.436791843890346 ], [ 137.458174312456521, -8.442991192067453 ], [ 137.458192866318086, -8.449192881382832 ], [ 137.458405714840978, -8.455390875159228 ], [ 137.45881265084148, -8.461579140611445 ], [ 137.459413278214186, -8.467751654717924 ], [ 137.460207012317085, -8.473902410081724 ], [ 137.461193080541079, -8.480025420775068 ], [ 137.462370523061793, -8.486114728161915 ], [ 137.463738193773906, -8.492164406692813 ], [ 137.465294761406767, -8.498168569666431 ], [ 137.467038710820248, -8.504121374952232 ], [ 137.468968344479521, -8.510017030668653 ], [ 137.47108178410744, -8.515849800811381 ], [ 137.473376972512796, -8.521614010826218 ], [ 137.47585167559285, -8.527304053121199 ], [ 137.478503484507797, -8.532914392512607 ], [ 137.481329818025671, -8.538439571599646 ], [ 137.484327925034847, -8.543874216062582 ], [ 137.487494887221857, -8.549213039879255 ], [ 137.490827621912047, -8.554450850454945 ], [ 137.494322885070289, -8.559582553660642 ], [ 137.497977274458606, -8.564603158774894 ], [ 137.501787232947834, -8.569507783324504 ], [ 137.505749051980217, -8.574291657819375 ], [ 137.509858875179106, -8.578950130377024 ], [ 137.51411270210275, -8.58347867123231 ], [ 137.518506392138306, -8.587872877128069 ], [ 137.523035668532287, -8.592128475582411 ], [ 137.527696122553266, -8.596241329028695 ], [ 137.532483217783607, -8.600207438824111 ], [ 137.537392294534897, -8.604022949123141 ], [ 137.542418574383703, -8.607684150612167 ], [ 137.54755716482282, -8.611187484101627 ], [ 137.552803064023493, -8.61452954397236 ], [ 137.558151165704345, -8.617707081472847 ], [ 137.56359626410142, -8.620717007864164 ], [ 137.569133059035721, -8.623556397409708 ], [ 137.574756161072116, -8.626222490206821 ], [ 137.580460096765364, -8.628712694857661 ], [ 137.586239313988074, -8.631024590976725 ], [ 137.592088187334724, -8.633155931532713 ], [ 137.598001023597732, -8.635104645022428 ], [ 137.603972067308774, -8.636868837474774 ], [ 137.609995506341363, -8.63844679428278 ], [ 137.616065477568128, -8.639836981862103 ], [ 137.622176072567953, -8.641038049134284 ], [ 137.628321343377138, -8.642048828833438 ], [ 137.634495308279043, -8.642868338635138 ], [ 137.6406919576267, -8.643495782106342 ], [ 137.646905259692261, -8.643930549475609 ], [ 137.65312916653852, -8.644172218222732 ], [ 137.659357619905705, -8.644220553487301 ], [ 138.907957619905716, -8.634525670334403 ], [ 138.914541230946554, -8.634366452388909 ], [ 138.921115983230948, -8.633991224297704 ], [ 138.927674722542179, -8.63340039370755 ], [ 138.934210312088027, -8.63259460249774 ], [ 138.940715640266149, -8.63157472608626 ], [ 138.947183628402769, -8.630341872483411 ], [ 138.953607238455078, -8.628897381093992 ], [ 138.959979480669574, -8.62724282126926 ], [ 138.966293421187942, -8.625379990610194 ], [ 139.411765813765072, -8.485929025664898 ], [ 140.717395131578257, -9.24804092192289 ], [ 140.780908246104303, -9.325375196084352 ], [ 140.784948440686406, -9.330139233723195 ], [ 140.789137290520756, -9.334774816602994 ], [ 140.793470662264639, -9.339277375816479 ], [ 140.797944279968448, -9.343642473747803 ], [ 140.802553729295056, -9.347865808430299 ], [ 140.807294461875756, -9.351943217770314 ], [ 140.81216179979802, -9.355870683633043 ], [ 140.817150940221893, -9.35964433578642 ], [ 140.822256960118722, -9.363260455699271 ], [ 140.827474821129357, -9.366715480190051 ], [ 140.832799374535398, -9.370006004922661 ], [ 140.838225366339941, -9.373128787745957 ], [ 140.843747442451843, -9.376080751873761 ], [ 140.849360153968888, -9.37885898890231 ], [ 140.85505796255444, -9.381460761662233 ], [ 140.86083524590245, -9.383883506902304 ], [ 140.863834723380791, -9.385032501322732 ], [ 140.8666667, -9.383333333 ], [ 141.0194, -9.1556 ] ] ] } }
]
}
