{
"type": "FeatureCollection",
"name": "LautTeritorial_PerluKesepakatan",
"crs": { "type": "name", "properties": { "name": "urn:ogc:def:crs:OGC:1.3:CRS84" } },
"features": [
{ "type": "Feature", "properties": { "fid": 1, "ID": "0", "Jenis": "-", "TipeZona": "Batas Laut Teritorial", "Datum": "WGS-84", "Panjang": "11.874 mil laut", "Batas_Ngr": "Malaysia", "StatusLaut": "Perlu Kesepakatan", "Jenis_Janj": "-", "Janji_Tgl": "-", "Janji_Thn": null, "Ratif_Jns": "-", "Ratif_No": null, "Ratif_Thn": null }, "geometry": { "type": "MultiLineString", "coordinates": [ [ [ 103.38, 1.25 ], [ 103.437839408758038, 1.215472828358808 ], [ 103.566666666666649, 1.1955 ] ] ] } },
{ "type": "Feature", "properties": { "fid": 2, "ID": "6", "Jenis": "-", "TipeZona": "Batas Laut Teritorial", "Datum": "WGS-84", "Panjang": "12.72 mil laut", "Batas_Ngr": "Timor Leste", "StatusLaut": "Perlu Kesepakatan", "Jenis_Janj": "-", "Janji_Tgl": "-", "Janji_Thn": null, "Ratif_Jns": "-", "Ratif_No": null, "Ratif_Thn": null }, "geometry": { "type": "MultiLineString", "coordinates": [ [ [ 125.08785677100002, -9.462268506999919 ], [ 125.188192545967979, -9.545639189098514 ], [ 125.230702580724085, -9.617227015196084 ] ] ] } },
{ "type": "Feature", "properties": { "fid": 3, "ID": "8", "Jenis": "-", "TipeZona": "Batas Laut Teritorial", "Datum": "WGS-84", "Panjang": "53.638 mil laut", "Batas_Ngr": "Timor Leste", "StatusLaut": "Perlu Kesepakatan", "Jenis_Janj": "-", "Janji_Tgl": "-", "Janji_Thn": null, "Ratif_Jns": "-", "Ratif_No": null, "Ratif_Thn": null }, "geometry": { "type": "MultiLineString", "coordinates": [ [ [ 124.476170920690208, -9.17443588024291 ], [ 124.474381132977229, -9.162557483072405 ], [ 124.472821781561137, -9.120235281899081 ], [ 124.482381000694048, -9.04005680015784 ], [ 124.488565732685885, -9.003685017060462 ], [ 124.49241940675843, -8.969338994910968 ], [ 124.48103954363917, -8.967376870632812 ], [ 124.480461756844178, -8.96728057283365 ], [ 124.479883970049201, -8.967186002349269 ], [ 124.479306183254224, -8.967093159179671 ], [ 124.478727532801841, -8.967002043324857 ], [ 124.478148882349473, -8.966912654784826 ], [ 124.47757023189709, -8.966824993559579 ], [ 124.476991149616026, -8.966739059649115 ], [ 124.476411635506267, -8.966654421224737 ], [ 124.475832121396493, -8.966571941943839 ], [ 124.475252175458039, -8.966491189977724 ], [ 124.47467222951957, -8.966411733497695 ], [ 124.474091851752419, -8.966334436161148 ], [ 124.473511473985255, -8.966258434310687 ], [ 124.472930664389409, -8.966184159775009 ], [ 124.472349422964854, -8.966111612554114 ], [ 124.471768181540313, -8.966041224476699 ], [ 124.471186940115757, -8.965972131885371 ], [ 124.470605266862506, -8.965904766608825 ], [ 124.47002359360927, -8.965839128647064 ], [ 124.469441488527323, -8.965775218000084 ], [ 124.468859383445391, -8.965713034667889 ], [ 124.468277278363445, -8.965652146821782 ], [ 124.467694741452817, -8.965593418119152 ], [ 124.46711177271348, -8.965536416731307 ], [ 124.466529235802838, -8.965481142658245 ], [ 124.46594583523482, -8.965427164071269 ], [ 124.465362866495482, -8.965375344627773 ], [ 124.46477946592745, -8.965324820670364 ], [ 124.464196065359431, -8.965276455856435 ], [ 124.463612664791398, -8.965229386528591 ], [ 124.46302883239467, -8.965184476344229 ], [ 124.462444999997956, -8.965140861645953 ], [ 124.461860735772532, -8.96509897426246 ], [ 124.461276903375804, -8.965059246022445 ], [ 124.460692639150395, -8.96502081326852 ], [ 124.460108374924971, -8.964984107829377 ], [ 124.459523678870852, -8.964949129705017 ], [ 124.458939414645442, -8.96491587889544 ], [ 124.458354718591323, -8.964884787229343 ], [ 124.457770022537204, -8.964854991049332 ], [ 124.457184894654389, -8.964826922184105 ], [ 124.456600198600285, -8.964800580633661 ], [ 124.45601507071747, -8.964775966397999 ], [ 124.455430374663351, -8.964752647648426 ], [ 124.454845246780536, -8.964731488042332 ], [ 124.454260118897736, -8.964712055751022 ], [ 124.453674559186226, -8.964694350774494 ], [ 124.453089431303411, -8.964678373112749 ], [ 124.452504303420596, -8.964664122765788 ], [ 124.451918743709101, -8.964651167904913 ], [ 124.451333615826286, -8.964640372187519 ], [ 124.450748056114776, -8.964631303784907 ], [ 124.450162496403266, -8.964623530868382 ], [ 124.449577368520465, -8.964617917095337 ], [ 124.448991808808955, -8.964613598808379 ], [ 124.448406249097445, -8.9646114396649 ], [ 124.447820689385935, -8.964610576007509 ], [ 124.447235129674425, -8.964611871493595 ], [ 124.424745059368391, -8.964685714200577 ], [ 124.424162954286459, -8.964688305172752 ], [ 124.423580849204512, -8.964693055288405 ], [ 124.422998312293871, -8.964699100890147 ], [ 124.422416207211938, -8.964706873806671 ], [ 124.421834102129992, -8.96471637403798 ], [ 124.42125199704806, -8.96472760158407 ], [ 124.420669891966114, -8.964740556444944 ], [ 124.420087786884181, -8.964755238620601 ], [ 124.419505681802235, -8.964771648111043 ], [ 124.418924008548984, -8.96478935308757 ], [ 124.418341903467052, -8.964809217207577 ], [ 124.417760230213801, -8.964830808642366 ], [ 124.417178125131869, -8.964853695563244 ], [ 124.416596451878618, -8.964878309798905 ], [ 124.416014778625382, -8.964905083178046 ], [ 124.415433537200826, -8.964933152043272 ], [ 124.414851863947575, -8.964962948223283 ], [ 124.414270622523034, -8.964994471718075 ], [ 124.413689381098479, -8.965027722527653 ], [ 124.413108139673938, -8.965062700652012 ], [ 124.412526898249382, -8.965099406091156 ], [ 124.411946088653536, -8.965137838845083 ], [ 124.411365279057677, -8.965177567085096 ], [ 124.410784469461831, -8.965219454468588 ], [ 124.410203659865971, -8.965263069166864 ], [ 124.409623282098821, -8.965307979351227 ], [ 124.409042904331656, -8.965354616850375 ], [ 124.408462526564506, -8.965403413493 ], [ 124.407882580626037, -8.965453505621714 ], [ 124.407302634687582, -8.965505325065209 ], [ 124.406722688749113, -8.965558871823488 ], [ 124.406143174639354, -8.96561414589655 ], [ 124.40556366052958, -8.965670715455701 ], [ 124.404984578248516, -8.965729444158329 ], [ 124.404405495967453, -8.965789900175743 ], [ 124.403826413686375, -8.965851651679241 ], [ 124.403247763234006, -8.96591556232622 ], [ 124.402669112781624, -8.965980768459286 ], [ 124.402090894157951, -8.966047701907135 ], [ 124.401512675534278, -8.966116362669768 ], [ 124.400934456910591, -8.966186750747184 ], [ 124.400356670115613, -8.966258866139382 ], [ 124.399779315149331, -8.966332708846364 ], [ 124.399201960183035, -8.96640827886813 ], [ 124.398624605216753, -8.966485144375982 ], [ 124.398047682079167, -8.966564169027315 ], [ 124.397471190770261, -8.966644489164732 ], [ 124.39689469946137, -8.966726536616935 ], [ 124.396318639981175, -8.96681031138392 ], [ 124.395742580500979, -8.96689581346569 ], [ 124.395166952849465, -8.966983042862241 ], [ 124.39459175702666, -8.967071999573577 ], [ 124.394016561203856, -8.967162683599694 ], [ 124.393441365381051, -8.9672546631119 ], [ 124.392867033215637, -8.967348801767585 ], [ 124.392292701050209, -8.967444235909358 ], [ 124.391718368884796, -8.967541397365913 ], [ 124.391144900376773, -8.967640286137252 ], [ 124.390571000040055, -8.967740902223373 ], [ 124.389997963360727, -8.967843245624278 ], [ 124.3894249266814, -8.967946884511271 ], [ 124.388852321830768, -8.968052682541742 ], [ 124.388280148808832, -8.9681597760583 ], [ 124.387708407615591, -8.968268596889642 ], [ 124.38713666642235, -8.968379145035767 ], [ 124.386565357057805, -8.968491420496676 ], [ 124.385994479521955, -8.968605423272368 ], [ 124.385423601986105, -8.968721153362843 ], [ 124.38485315627895, -8.968838178939405 ], [ 124.384283142400491, -8.96895693183075 ], [ 124.383713560350728, -8.96907741203688 ], [ 124.38314441012966, -8.969199619557791 ], [ 124.382575259908592, -8.969323554393485 ], [ 124.382006973344915, -8.969449216543964 ], [ 124.381438686781252, -8.96957617418053 ], [ 124.38087083204627, -8.969705290960574 ], [ 124.380303409139984, -8.969835703226707 ], [ 124.379736418062393, -8.969967842807621 ], [ 124.379169858813498, -8.970101277874624 ], [ 124.378603299564617, -8.970236872085106 ], [ 124.378037603973112, -8.970373761781675 ], [ 124.377471908381608, -8.970512810621724 ], [ 124.376907076447509, -8.970653154947858 ], [ 124.376342244513395, -8.970795226588777 ], [ 124.375778276236673, -8.970938593715783 ], [ 124.259172005338101, -9.000804729974806 ], [ 124.258615378149202, -9.000948097101812 ], [ 124.258059614617707, -9.001093191543601 ], [ 124.257504282914908, -9.001239581471479 ], [ 124.256949383040805, -9.001387698714138 ], [ 124.256394483166702, -9.001537543271581 ], [ 124.255840446949989, -9.001688683315113 ], [ 124.255286842561972, -9.001841550673426 ], [ 124.254733670002651, -9.001996145346522 ], [ 124.254180497443329, -9.002152035505707 ], [ 124.253628188541398, -9.002309652979674 ], [ 124.253076311468163, -9.002468997768426 ], [ 124.252524866223624, -9.002630069871959 ], [ 124.25197385280778, -9.002792437461581 ], [ 124.251423271220631, -9.00295610053729 ], [ 124.250873121462178, -9.003121922756478 ], [ 124.250323835361129, -9.003289040461752 ], [ 124.249774549260067, -9.003457885481811 ], [ 124.249226126816396, -9.003628025987958 ], [ 124.248677704372724, -9.003799893808885 ], [ 124.248130145586458, -9.003973488944599 ], [ 124.247583018628873, -9.004148379566397 ], [ 124.247036323499984, -9.00432499750298 ], [ 124.246490492028499, -9.004503342754347 ], [ 124.245944660557001, -9.004682983491801 ], [ 124.245399692742893, -9.004864351544036 ], [ 124.244855156757495, -9.005047015082361 ], [ 124.244311052600779, -9.005231405935469 ], [ 124.243767380272772, -9.005417524103358 ], [ 124.243224571602141, -9.005604937757337 ], [ 124.242682194760221, -9.005794078726097 ], [ 124.242140249746996, -9.005984947009642 ], [ 124.241598736562452, -9.006177110779273 ], [ 124.241058087035313, -9.006371001863688 ], [ 124.240517869336855, -9.00656618843419 ], [ 124.239978515295803, -9.006763102319475 ], [ 124.239439161254751, -9.006961743519545 ], [ 124.238900670871089, -9.0071616802057 ], [ 124.238362612316124, -9.007362912377944 ], [ 124.237825417418534, -9.007566303693666 ], [ 124.237288654349655, -9.007770558666781 ], [ 124.236752323109471, -9.007976972783373 ], [ 124.236216855526678, -9.008184682386053 ], [ 124.23568181977258, -9.008393687474822 ], [ 124.234644999073964, -9.008800901934963 ], [ 124.23410348588942, -9.009014657139385 ], [ 124.233562404533586, -9.009229707829894 ], [ 124.233022186835143, -9.009446485835186 ], [ 124.232482400965381, -9.009664991155262 ], [ 124.231943046924329, -9.009884791961424 ], [ 124.231404988369363, -9.010106320082372 ], [ 124.230866929814397, -9.010329575518099 ], [ 124.230329734916822, -9.010554126439917 ], [ 124.229793403676638, -9.010780404676517 ], [ 124.229257504265149, -9.011007978399205 ], [ 124.228722468511037, -9.011237279436674 ], [ 124.228187864585635, -9.011468307788929 ], [ 124.227654124317638, -9.011700631627271 ], [ 124.227120815878322, -9.011934682780394 ], [ 124.226588371096398, -9.012170029419606 ], [ 124.226056358143168, -9.012407103373601 ], [ 124.22552520884733, -9.01264590464238 ], [ 124.224994923208882, -9.012886001397245 ], [ 124.22446550122784, -9.013127825466894 ], [ 124.223936511075479, -9.013370945022631 ], [ 124.223407952751813, -9.01361579189315 ], [ 124.222880689914248, -9.013862366078452 ], [ 124.222353858905365, -9.014110235749843 ], [ 124.221827459725176, -9.01435940090732 ], [ 124.221301924202393, -9.014610293379581 ], [ 124.220777684165682, -9.014862913166624 ], [ 124.220253444128986, -9.015116828439755 ], [ 124.219730499578375, -9.015372471027669 ], [ 124.219207986856446, -9.015629409101672 ], [ 124.218686337791922, -9.015888074490457 ], [ 124.218165120556094, -9.01614803536533 ], [ 124.217645198806338, -9.016409723554986 ], [ 124.217125708885291, -9.016672707230729 ], [ 124.216607082621636, -9.016937418221255 ], [ 124.216089320015371, -9.017203424697868 ], [ 124.215571989237802, -9.017471158489265 ], [ 124.215055953946319, -9.01774018776675 ], [ 124.214540350483531, -9.018010512530321 ], [ 124.214025610678135, -9.018282996437373 ], [ 124.21351173453013, -9.018556344001814 ], [ 124.212998722039515, -9.018831418881041 ], [ 124.21248614137761, -9.019108221075049 ], [ 124.211974856201778, -9.019386318755146 ], [ 124.21146400285464, -9.019665711921329 ], [ 124.210954013164894, -9.019946832402296 ], [ 124.210444887132553, -9.020229680198046 ], [ 124.179359698465277, -9.037542124441423 ], [ 124.117879383386622, -9.058210741308571 ], [ 124.117325778998605, -9.058397723133853 ], [ 124.116772606439284, -9.058586432273918 ], [ 124.116219865708658, -9.058776868728767 ], [ 124.115667988635423, -9.058968600669703 ], [ 124.115116543390897, -9.059162059925422 ], [ 124.114565961803748, -9.059357246495924 ], [ 124.1140153802166, -9.059553728552514 ], [ 124.113465662286842, -9.059752369752582 ], [ 124.112916808014475, -9.059952306438738 ], [ 124.112367953742108, -9.060153538610981 ], [ 124.111820394955842, -9.060356929926703 ], [ 124.111272836169562, -9.060561616728513 ], [ 124.110726141040672, -9.060768030845107 ], [ 124.110179877740492, -9.060975740447788 ], [ 124.109634478097689, -9.061185177365251 ], [ 124.109089510283582, -9.061396341597499 ], [ 124.108545406126879, -9.061609233144528 ], [ 124.108001733798858, -9.061823420177646 ], [ 124.107458493299546, -9.062039334525547 ], [ 124.106916116457626, -9.062256544359535 ], [ 124.106374171444386, -9.062475913337002 ], [ 124.105833090088552, -9.062696145971861 ], [ 124.105292872390095, -9.062918537750198 ], [ 124.104753086520347, -9.063142225014623 ], [ 124.104213732479295, -9.063367639593832 ], [ 124.103675242095633, -9.063594781487824 ], [ 124.103137183540667, -9.063823218867903 ], [ 124.102599988643078, -9.064053383562765 ], [ 124.102063657402894, -9.064284843743714 ], [ 124.101527757991406, -9.064518031239448 ], [ 124.100992722237308, -9.064752946049964 ], [ 124.100458118311906, -9.064989156346567 ], [ 124.099924378043895, -9.065227093957953 ], [ 124.099391501433274, -9.065466327055427 ], [ 124.098859056651349, -9.06570771929638 ], [ 124.09832747552683, -9.065949975194725 ], [ 124.097796326230991, -9.066194390236548 ], [ 124.097266040592544, -9.06644010076446 ], [ 124.096736618611487, -9.066687106778458 ], [ 124.096208060287836, -9.06693584010724 ], [ 124.095679933792866, -9.067186300750805 ], [ 124.095152670955287, -9.067438056880457 ], [ 124.094625839946417, -9.067691540324892 ], [ 124.09410030442362, -9.067946319255416 ], [ 124.093575200729532, -9.068202825500721 ], [ 124.093050528864126, -9.068460627232115 ], [ 124.09252715248482, -9.068720156278292 ], [ 124.092004207934195, -9.068981412639252 ], [ 124.091482127040976, -9.069243964486299 ], [ 124.090960909805148, -9.06950824364813 ], [ 124.09044055622671, -9.069773818296047 ], [ 124.089920634476954, -9.070040688430053 ], [ 124.089401576384603, -9.070309717707538 ], [ 124.088883381949643, -9.070579610642413 ], [ 124.088366051172073, -9.070851230892073 ], [ 124.087849584051895, -9.071124578456514 ], [ 124.087333980589108, -9.071399221507043 ], [ 124.086818808955016, -9.071675591872356 ], [ 124.086304500978315, -9.071953257723758 ], [ 124.0857914884877, -9.072232650889941 ], [ 124.085278907825796, -9.072513339542212 ], [ 124.084767190821267, -9.07279532368057 ], [ 124.08425633747413, -9.073079035133713 ], [ 124.083745915955689, -9.073364473901638 ], [ 124.083355772988881, -9.073563375897429 ], [ 124.086483004299822, -9.206410565796858 ], [ 124.066588753808105, -9.249790656135088 ], [ 124.055064806960885, -9.290042108709125 ], [ 124.07905805769694, -9.325516927539702 ] ] ] } },
{ "type": "Feature", "properties": { "fid": 4, "ID": "4", "Jenis": "-", "TipeZona": "Batas Laut Teritorial", "Datum": "WGS-84", "Panjang": "24.424 mil laut", "Batas_Ngr": "Malaysia", "StatusLaut": "Perlu Kesepakatan", "Jenis_Janj": "-", "Janji_Tgl": "-", "Janji_Thn": null, "Ratif_Jns": "-", "Ratif_No": null, "Ratif_Thn": null }, "geometry": { "type": "MultiLineString", "coordinates": [ [ [ 109.712093244254547, 2.3118525943516 ], [ 109.797620913379205, 2.210794487001734 ], [ 109.838827057811329, 2.162105974732953 ], [ 109.644964, 2.081582 ], [ 109.644457794000061, 2.080278003000046 ] ] ] } },
{ "type": "Feature", "properties": { "fid": 5, "ID": "9", "Jenis": "-", "TipeZona": "Batas Laut Teritorial", "Datum": "WGS-84", "Panjang": "192.743 mil laut", "Batas_Ngr": "Timor Leste", "StatusLaut": "Perlu Kesepakatan", "Jenis_Janj": "-", "Janji_Tgl": "-", "Janji_Thn": null, "Ratif_Jns": "-", "Ratif_No": null, "Ratif_Thn": null }, "geometry": { "type": "MultiLineString", "coordinates": [ [ [ 124.949617002000082, -8.95853016399991 ], [ 124.949661, -8.95818 ], [ 124.963783755225464, -8.876261880635466 ], [ 124.958623313244445, -8.863641166507861 ], [ 124.967941056238345, -8.800372912510664 ], [ 124.984870708231824, -8.734879464000148 ], [ 124.981574296187333, -8.675298714488854 ], [ 124.983488701809762, -8.61419468311956 ], [ 124.994219657668339, -8.550513303648517 ], [ 125.002427574204873, -8.528327040687774 ], [ 125.055085471482997, -8.505756573963465 ], [ 125.116992628694177, -8.492095322726966 ], [ 125.16279286291639, -8.464291158590534 ], [ 125.268141135290733, -8.43850974280835 ], [ 125.332937518976934, -8.371926410673797 ], [ 125.444274401116246, -8.246431430870322 ], [ 125.469663395548068, -8.223537156559594 ], [ 125.495277088558041, -8.201165794918253 ], [ 125.523814394672499, -8.185598189425454 ], [ 125.55045180237525, -8.165609189911605 ], [ 125.568251886969506, -8.154574044018863 ], [ 125.587772950450017, -8.141284942122233 ], [ 125.622754953377665, -8.120279100392425 ], [ 125.642839541083688, -8.113533992465435 ], [ 125.672769800140557, -8.122348924083123 ], [ 125.720139597208615, -8.150607800255166 ], [ 125.771616643685647, -8.188424960106088 ], [ 125.788975717199406, -8.204299013302629 ], [ 125.854293713404616, -8.248366296504209 ] ], [ [ 126.659819017756021, -8.213616270148295 ], [ 126.459771862264873, -8.176463371414929 ], [ 125.854293656017276, -8.248367077240397 ] ], [ [ 126.659818585359361, -8.213612521010939 ], [ 126.669021143355181, -8.212482844335044 ], [ 126.739270755254225, -8.213795117265184 ], [ 126.810433224145527, -8.210196780103216 ], [ 126.883143956384799, -8.198269736817013 ], [ 126.954426681384092, -8.194024495635439 ], [ 126.96539793092623, -8.196126956795997 ], [ 127.024015856692856, -8.198889511889778 ], [ 127.090906355327249, -8.218271751570574 ], [ 127.147602189416318, -8.219834308908341 ], [ 127.211271674396514, -8.226707508643299 ], [ 127.270691622549379, -8.248774970666762 ], [ 127.329647919662293, -8.2725002217149 ], [ 127.388359556869219, -8.297100256753469 ], [ 127.445716810000576, -8.326542905874692 ], [ 127.499604422635315, -8.368391289995444 ], [ 127.539982598834982, -8.410449814469517 ], [ 127.546353578409878, -8.419907009710899 ] ] ] } },
{ "type": "Feature", "properties": { "fid": 6, "ID": "2", "Jenis": "-", "TipeZona": "Batas Laut Teritorial", "Datum": "WGS-84", "Panjang": "27.889 mil laut", "Batas_Ngr": "-", "StatusLaut": "Perlu Kesepakatan", "Jenis_Janj": "-", "Janji_Tgl": "-", "Janji_Thn": null, "Ratif_Jns": "-", "Ratif_No": null, "Ratif_Thn": null }, "geometry": { "type": "MultiLineString", "coordinates": [ [ [ 104.118416666667002, 1.27615 ], [ 104.123628617635987, 1.273498605278396 ], [ 104.125810508093679, 1.273130277426866 ], [ 104.13350092288205, 1.271933881107389 ], [ 104.141087226714561, 1.271214397696948 ], [ 104.148624861082553, 1.27095211947404 ], [ 104.156167861897941, 1.271140682430423 ], [ 104.163770419390559, 1.271786687062496 ], [ 104.165304869671559, 1.271963226532173 ], [ 104.17025288694866, 1.272629010159324 ], [ 104.175263948083739, 1.273499891884993 ], [ 104.183199670588039, 1.273589484922346 ], [ 104.194108139175398, 1.27264020058507 ], [ 104.195470071379489, 1.272578927157427 ], [ 104.203145148194935, 1.272460549679052 ], [ 104.210842943758138, 1.272797298421579 ], [ 104.218617866623489, 1.273599853244686 ], [ 104.22652651933646, 1.274892388871899 ], [ 104.234629386658227, 1.27671407955543 ], [ 104.243097735362625, 1.278671426823021 ], [ 104.254004877954983, 1.280473984335076 ], [ 104.270095766382042, 1.283481849255065 ], [ 104.27759983295536, 1.284219523541845 ], [ 104.294896026323812, 1.28569506973588 ], [ 104.303229280397176, 1.285647869852853 ], [ 104.31235200717785, 1.285791651691242 ], [ 104.321533536808516, 1.286468550578737 ], [ 104.330836692675376, 1.287698283675529 ], [ 104.34032763457455, 1.289516250461463 ], [ 104.350077803066554, 1.291975665030035 ], [ 104.360166186807405, 1.295150881416178 ], [ 104.361046626681514, 1.295455946870348 ], [ 104.371472301145715, 1.299408952845448 ], [ 104.382407760303735, 1.30429771784306 ], [ 104.392589919020082, 1.311141266400649 ], [ 104.4024464355399, 1.318617455323023 ], [ 104.403474739371546, 1.31782062264075 ], [ 104.404283468012224, 1.317317511279776 ], [ 104.405163928537164, 1.316999826473457 ], [ 104.406284051192799, 1.316868815296521 ], [ 104.409271103827749, 1.316649287894188 ], [ 104.410342543231621, 1.316766952989026 ], [ 104.411297032043564, 1.317107038210528 ], [ 104.412088951698763, 1.317602541607389 ], [ 104.412744280089342, 1.318230565892136 ], [ 104.413273742173672, 1.319002029596599 ], [ 104.413611938979088, 1.319800026825371 ], [ 104.413786681398136, 1.320611971102707 ], [ 104.413813302473301, 1.32137110805667 ], [ 104.413698480498624, 1.322182279399706 ], [ 104.413415085701345, 1.323011514327887 ], [ 104.412999260989054, 1.323737811112824 ], [ 104.412435689137681, 1.324394288349949 ], [ 104.411927436409584, 1.324815232925815 ], [ 104.410801370391709, 1.325681043862716 ], [ 104.414000961900328, 1.328409453028048 ], [ 104.425405824833561, 1.33931987431319 ], [ 104.426192944034696, 1.340116351609961 ], [ 104.438451352415683, 1.353276727918502 ], [ 104.451467410025728, 1.368987154540404 ], [ 104.465396166756065, 1.387938310123163 ], [ 104.480422366105898, 1.411087016114363 ], [ 104.487024129757074, 1.42187281990349 ] ], [ [ 104.390025939301111, 1.300708381996151 ], [ 104.390943670401299, 1.301175661688734 ], [ 104.392010435987217, 1.301436303765785 ], [ 104.393178574886576, 1.301421259528906 ], [ 104.39393540466763, 1.301244426785826 ], [ 104.394527976082884, 1.301002803072405 ], [ 104.395114501229813, 1.300655879537989 ], [ 104.395706389799102, 1.300161650785135 ], [ 104.396164262082038, 1.299630309702954 ], [ 104.39661243082513, 1.298874949748572 ], [ 104.396918849841114, 1.297990618569902 ], [ 104.397019974571563, 1.297355081478911 ], [ 104.397023195214373, 1.29661935271719 ], [ 104.396884077971862, 1.295805642462708 ], [ 104.396672143275765, 1.295193390913746 ], [ 104.396409997691435, 1.294676944085765 ], [ 104.396104155732374, 1.294224864640503 ], [ 104.39572532430364, 1.293792421403988 ], [ 104.395252275119972, 1.293379506405042 ], [ 104.394756122719983, 1.293122066475313 ], [ 104.394244965693844, 1.292860670274161 ], [ 104.393408119472468, 1.292641653483795 ], [ 104.392561475584344, 1.292586302144062 ], [ 104.391885232816804, 1.292657409846045 ], [ 104.391262351752616, 1.292817737481593 ], [ 104.390618369486376, 1.293090975256124 ], [ 104.390012654754315, 1.293469494671447 ], [ 104.38949900471863, 1.293914177080754 ], [ 104.389122801675398, 1.294400167557491 ], [ 104.388716346057407, 1.294977731062111 ], [ 104.388370763709418, 1.29583149037323 ], [ 104.388248432570791, 1.296379392875137 ], [ 104.388199249023401, 1.297322658322619 ], [ 104.388287930773373, 1.298003829563768 ], [ 104.388502591059364, 1.298724442287234 ], [ 104.388733638666963, 1.299222659285385 ], [ 104.389173870274917, 1.299888600688707 ], [ 104.389586194021945, 1.300339377051536 ], [ 104.390025939301111, 1.300708381996151 ] ] ] } }
]
}
