{
"type": "FeatureCollection",
"name": "TitikPerjanjian_LautTeritorial",
"crs": { "type": "name", "properties": { "name": "urn:ogc:def:crs:OGC:1.3:CRS84" } },
"features": [
{ "type": "Feature", "properties": { "fid": 1, "Titik": "6", "Lintang": 1.2695, "Bujur": 104.0333, "Jenis": "Bilateral", "TipeZona": "Batas Laut Teritorial", "Datum": "WGS-84", "Batas_Ngr": "Singapura", "StatusLaut": "Kesepakatan sudah ratifikasi", "Jenis_Janj": "Treaty", "Janji_Tgl": "3 September", "Janji_Thn": 2014, "Ratif_Jns": "UU", "Ratif_No": 1, "Ratif_Thn": 2017 }, "geometry": { "type": "Point", "coordinates": [ 104.0333, 1.2695 ] } },
{ "type": "Feature", "properties": { "fid": 2, "Titik": "7", "Lintang": 1.273, "Bujur": 104.0379, "Jenis": "Bilateral", "TipeZona": "Batas Laut Teritorial", "Datum": "WGS-84", "Batas_Ngr": "Singapura", "StatusLaut": "Kesepakatan sudah ratifikasi", "Jenis_Janj": "Treaty", "Janji_Tgl": "3 September", "Janji_Thn": 2014, "Ratif_Jns": "UU", "Ratif_No": 1, "Ratif_Thn": 2017 }, "geometry": { "type": "Point", "coordinates": [ 104.0379, 1.273 ] } },
{ "type": "Feature", "properties": { "fid": 3, "Titik": "8", "Lintang": 1.2761, "Bujur": 104.1184, "Jenis": "Bilateral", "TipeZona": "Batas Laut Teritorial", "Datum": "WGS-84", "Batas_Ngr": "Singapura", "StatusLaut": "Kesepakatan sudah ratifikasi", "Jenis_Janj": "Treaty", "Janji_Tgl": "3 September", "Janji_Thn": 2014, "Ratif_Jns": "UU", "Ratif_No": 1, "Ratif_Thn": 2017 }, "geometry": { "type": "Point", "coordinates": [ 104.1184, 1.2761 ] } },
{ "type": "Feature", "properties": { "fid": 4, "Titik": "Point 1", "Lintang": 2.86, "Bujur": 101.0033333, "Jenis": "Bilateral", "TipeZona": "Batas Laut Teritorial", "Datum": "WGS-84", "Batas_Ngr": "Malaysia", "StatusLaut": "Kesepakatan sudah ratifikasi", "Jenis_Janj": "Treaty", "Janji_Tgl": "17 Maret", "Janji_Thn": 1970, "Ratif_Jns": "UU", "Ratif_No": 2, "Ratif_Thn": 1971 }, "geometry": { "type": "Point", "coordinates": [ 101.0033333, 2.86 ] } },
{ "type": "Feature", "properties": { "fid": 5, "Titik": "Point 2", "Lintang": 2.691666667, "Bujur": 101.2016667, "Jenis": "Bilateral", "TipeZona": "Batas Laut Teritorial", "Datum": "WGS-84", "Batas_Ngr": "Malaysia", "StatusLaut": "Kesepakatan sudah ratifikasi", "Jenis_Janj": "Treaty", "Janji_Tgl": "17 Maret", "Janji_Thn": 1970, "Ratif_Jns": "UU", "Ratif_No": 2, "Ratif_Thn": 1971 }, "geometry": { "type": "Point", "coordinates": [ 101.2016667, 2.691666667 ] } },
{ "type": "Feature", "properties": { "fid": 6, "Titik": "Point 3", "Lintang": 2.256666667, "Bujur": 101.775, "Jenis": "Bilateral", "TipeZona": "Batas Laut Teritorial", "Datum": "WGS-84", "Batas_Ngr": "Malaysia", "StatusLaut": "Kesepakatan sudah ratifikasi", "Jenis_Janj": "Treaty", "Janji_Tgl": "17 Maret", "Janji_Thn": 1970, "Ratif_Jns": "UU", "Ratif_No": 2, "Ratif_Thn": 1971 }, "geometry": { "type": "Point", "coordinates": [ 101.775, 2.256666667 ] } },
{ "type": "Feature", "properties": { "fid": 7, "Titik": "Point 4", "Lintang": 1.92, "Bujur": 102.2233333, "Jenis": "Bilateral", "TipeZona": "Batas Laut Teritorial", "Datum": "WGS-84", "Batas_Ngr": "Malaysia", "StatusLaut": "Kesepakatan sudah ratifikasi", "Jenis_Janj": "Treaty", "Janji_Tgl": "17 Maret", "Janji_Thn": 1970, "Ratif_Jns": "UU", "Ratif_No": 2, "Ratif_Thn": 1971 }, "geometry": { "type": "Point", "coordinates": [ 102.2233333, 1.92 ] } },
{ "type": "Feature", "properties": { "fid": 8, "Titik": "Point 5", "Lintang": 1.686666667, "Bujur": 102.5833333, "Jenis": "Bilateral", "TipeZona": "Batas Laut Teritorial", "Datum": "WGS-84", "Batas_Ngr": "Malaysia", "StatusLaut": "Kesepakatan sudah ratifikasi", "Jenis_Janj": "Treaty", "Janji_Tgl": "17 Maret", "Janji_Thn": 1970, "Ratif_Jns": "UU", "Ratif_No": 2, "Ratif_Thn": 1971 }, "geometry": { "type": "Point", "coordinates": [ 102.5833333, 1.686666667 ] } },
{ "type": "Feature", "properties": { "fid": 9, "Titik": "Point 6", "Lintang": 1.318333333, "Bujur": 103.035, "Jenis": "Bilateral", "TipeZona": "Batas Laut Teritorial", "Datum": "WGS-84", "Batas_Ngr": "Malaysia", "StatusLaut": "Kesepakatan sudah ratifikasi", "Jenis_Janj": "Treaty", "Janji_Tgl": "17 Maret", "Janji_Thn": 1970, "Ratif_Jns": "UU", "Ratif_No": 2, "Ratif_Thn": 1971 }, "geometry": { "type": "Point", "coordinates": [ 103.035, 1.318333333 ] } },
{ "type": "Feature", "properties": { "fid": 10, "Titik": "Point 7", "Lintang": 1.325, "Bujur": 103.065, "Jenis": "Bilateral", "TipeZona": "Batas Laut Teritorial", "Datum": "WGS-84", "Batas_Ngr": "Malaysia", "StatusLaut": "Kesepakatan sudah ratifikasi", "Jenis_Janj": "Treaty", "Janji_Tgl": "17 Maret", "Janji_Thn": 1970, "Ratif_Jns": "UU", "Ratif_No": 2, "Ratif_Thn": 1971 }, "geometry": { "type": "Point", "coordinates": [ 103.065, 1.325 ] } },
{ "type": "Feature", "properties": { "fid": 11, "Titik": "Point 8", "Lintang": 1.25, "Bujur": 103.38, "Jenis": "Bilateral", "TipeZona": "Batas Laut Teritorial", "Datum": "WGS-84", "Batas_Ngr": "Malaysia", "StatusLaut": "Kesepakatan sudah ratifikasi", "Jenis_Janj": "Treaty", "Janji_Tgl": "17 Maret", "Janji_Thn": 1970, "Ratif_Jns": "UU", "Ratif_No": 2, "Ratif_Thn": 1971 }, "geometry": { "type": "Point", "coordinates": [ 103.38, 1.25 ] } },
{ "type": "Feature", "properties": { "fid": 12, "Titik": "1", "Lintang": 1.179444444, "Bujur": 103.6707222, "Jenis": "Bilateral", "TipeZona": "Batas Laut Teritorial", "Datum": "WGS-84", "Batas_Ngr": "Singapura", "StatusLaut": "Kesepakatan sudah ratifikasi", "Jenis_Janj": "Treaty", "Janji_Tgl": "25 Mei", "Janji_Thn": 1973, "Ratif_Jns": "UU", "Ratif_No": 7, "Ratif_Thn": 1973 }, "geometry": { "type": "Point", "coordinates": [ 103.6707222, 1.179444444 ] } },
{ "type": "Feature", "properties": { "fid": 13, "Titik": "2", "Lintang": 1.131111111, "Bujur": 103.7406944, "Jenis": "Bilateral", "TipeZona": "Batas Laut Teritorial", "Datum": "WGS-84", "Batas_Ngr": "Singapura", "StatusLaut": "Kesepakatan sudah ratifikasi", "Jenis_Janj": "Treaty", "Janji_Tgl": "25 Mei", "Janji_Thn": 1973, "Ratif_Jns": "UU", "Ratif_No": 7, "Ratif_Thn": 1973 }, "geometry": { "type": "Point", "coordinates": [ 103.7406944, 1.131111111 ] } },
{ "type": "Feature", "properties": { "fid": 14, "Titik": "3", "Lintang": 1.171944444, "Bujur": 103.805, "Jenis": "Bilateral", "TipeZona": "Batas Laut Teritorial", "Datum": "WGS-84", "Batas_Ngr": "Singapura", "StatusLaut": "Kesepakatan sudah ratifikasi", "Jenis_Janj": "Treaty", "Janji_Tgl": "25 Mei", "Janji_Thn": 1973, "Ratif_Jns": "UU", "Ratif_No": 7, "Ratif_Thn": 1973 }, "geometry": { "type": "Point", "coordinates": [ 103.805, 1.171944444 ] } },
{ "type": "Feature", "properties": { "fid": 15, "Titik": "4", "Lintang": 1.197222222, "Bujur": 103.8598333, "Jenis": "Bilateral", "TipeZona": "Batas Laut Teritorial", "Datum": "WGS-84", "Batas_Ngr": "Singapura", "StatusLaut": "Kesepakatan sudah ratifikasi", "Jenis_Janj": "Treaty", "Janji_Tgl": "25 Mei", "Janji_Thn": 1973, "Ratif_Jns": "UU", "Ratif_No": 7, "Ratif_Thn": 1973 }, "geometry": { "type": "Point", "coordinates": [ 103.8598333, 1.197222222 ] } },
{ "type": "Feature", "properties": { "fid": 16, "Titik": "5", "Lintang": 1.2075, "Bujur": 103.88075, "Jenis": "Bilateral", "TipeZona": "Batas Laut Teritorial", "Datum": "WGS-84", "Batas_Ngr": "Singapura", "StatusLaut": "Kesepakatan sudah ratifikasi", "Jenis_Janj": "Treaty", "Janji_Tgl": "25 Mei", "Janji_Thn": 1973, "Ratif_Jns": "UU", "Ratif_No": 7, "Ratif_Thn": 1973 }, "geometry": { "type": "Point", "coordinates": [ 103.88075, 1.2075 ] } },
{ "type": "Feature", "properties": { "fid": 17, "Titik": "6", "Lintang": 1.27, "Bujur": 104.0333333, "Jenis": "Bilateral", "TipeZona": "Batas Laut Teritorial", "Datum": "WGS-84", "Batas_Ngr": "Singapura", "StatusLaut": "Kesepakatan sudah ratifikasi", "Jenis_Janj": "Treaty", "Janji_Tgl": "25 Mei", "Janji_Thn": 1973, "Ratif_Jns": "UU", "Ratif_No": 7, "Ratif_Thn": 1973 }, "geometry": { "type": "Point", "coordinates": [ 104.0333333, 1.27 ] } },
{ "type": "Feature", "properties": { "fid": 18, "Titik": "1", "Lintang": 1.179444444, "Bujur": 103.6707222, "Jenis": "Bilateral", "TipeZona": "Batas Laut Teritorial", "Datum": "WGS-84", "Batas_Ngr": "Singapura", "StatusLaut": "Kesepakatan sudah ratifikasi", "Jenis_Janj": "Treaty", "Janji_Tgl": "10 Maret", "Janji_Thn": 2009, "Ratif_Jns": "UU", "Ratif_No": 4, "Ratif_Thn": 2010 }, "geometry": { "type": "Point", "coordinates": [ 103.6707222, 1.179444444 ] } },
{ "type": "Feature", "properties": { "fid": 19, "Titik": "1A", "Lintang": 1.188166667, "Bujur": 103.6606944, "Jenis": "Bilateral", "TipeZona": "Batas Laut Teritorial", "Datum": "WGS-84", "Batas_Ngr": "Singapura", "StatusLaut": "Kesepakatan sudah ratifikasi", "Jenis_Janj": "Treaty", "Janji_Tgl": "10 Maret", "Janji_Thn": 2009, "Ratif_Jns": "UU", "Ratif_No": 4, "Ratif_Thn": 2010 }, "geometry": { "type": "Point", "coordinates": [ 103.6606944, 1.188166667 ] } },
{ "type": "Feature", "properties": { "fid": 20, "Titik": "1B", "Lintang": 1.19875, "Bujur": 103.5723333, "Jenis": "Bilateral", "TipeZona": "Batas Laut Teritorial", "Datum": "WGS-84", "Batas_Ngr": "Singapura", "StatusLaut": "Kesepakatan sudah ratifikasi", "Jenis_Janj": "Treaty", "Janji_Tgl": "10 Maret", "Janji_Thn": 2009, "Ratif_Jns": "UU", "Ratif_No": 4, "Ratif_Thn": 2010 }, "geometry": { "type": "Point", "coordinates": [ 103.5723333, 1.19875 ] } },
{ "type": "Feature", "properties": { "fid": 21, "Titik": "1C", "Lintang": 1.1955, "Bujur": 103.5666667, "Jenis": "Bilateral", "TipeZona": "Batas Laut Teritorial", "Datum": "WGS-84", "Batas_Ngr": "Singapura", "StatusLaut": "Kesepakatan sudah ratifikasi", "Jenis_Janj": "Treaty", "Janji_Tgl": "10 Maret", "Janji_Thn": 2009, "Ratif_Jns": "UU", "Ratif_No": 4, "Ratif_Thn": 2010 }, "geometry": { "type": "Point", "coordinates": [ 103.5666667, 1.1955 ] } }
]
}
