{
"type": "FeatureCollection",
"name": "TitikPerjanjian_BZEE",
"crs": { "type": "name", "properties": { "name": "urn:ogc:def:crs:OGC:1.3:CRS84" } },
"features": [
{ "type": "Feature", "properties": { "fid": 1, "Titik": "1", "Lintang": 3.111388889, "Bujur": 119.9261111, "Jenis": "Bilateral", "TipeZona": "Batas ZEE", "Datum": "WGS-84", "Batas_Ngr": "Filipina", "StatusLaut": "Kesepakatan sudah ratifikasi", "Jenis_Janj": "Agreement", "Janji_Tgl": "23 Mei", "Janji_Thn": 2014, "Ratif_Jns": "UU", "Ratif_No": 4, "Ratif_Thn": 2017 }, "geometry": { "type": "Point", "coordinates": [ 119.9261111, 3.111388889 ] } },
{ "type": "Feature", "properties": { "fid": 2, "Titik": "2", "Lintang": 3.443333333, "Bujur": 121.3586111, "Jenis": "Bilateral", "TipeZona": "Batas ZEE", "Datum": "WGS-84", "Batas_Ngr": "Filipina", "StatusLaut": "Kesepakatan sudah ratifikasi", "Jenis_Janj": "Agreement", "Janji_Tgl": "23 Mei", "Janji_Thn": 2014, "Ratif_Jns": "UU", "Ratif_No": 4, "Ratif_Thn": 2017 }, "geometry": { "type": "Point", "coordinates": [ 121.3586111, 3.443333333 ] } },
{ "type": "Feature", "properties": { "fid": 3, "Titik": "3", "Lintang": 3.816111111, "Bujur": 122.9341667, "Jenis": "Bilateral", "TipeZona": "Batas ZEE", "Datum": "WGS-84", "Batas_Ngr": "Filipina", "StatusLaut": "Kesepakatan sudah ratifikasi", "Jenis_Janj": "Agreement", "Janji_Tgl": "23 Mei", "Janji_Thn": 2014, "Ratif_Jns": "UU", "Ratif_No": 4, "Ratif_Thn": 2017 }, "geometry": { "type": "Point", "coordinates": [ 122.9341667, 3.816111111 ] } },
{ "type": "Feature", "properties": { "fid": 4, "Titik": "4", "Lintang": 4.961666667, "Bujur": 124.8547222, "Jenis": "Bilateral", "TipeZona": "Batas ZEE", "Datum": "WGS-84", "Batas_Ngr": "Filipina", "StatusLaut": "Kesepakatan sudah ratifikasi", "Jenis_Janj": "Agreement", "Janji_Tgl": "23 Mei", "Janji_Thn": 2014, "Ratif_Jns": "UU", "Ratif_No": 4, "Ratif_Thn": 2017 }, "geometry": { "type": "Point", "coordinates": [ 124.8547222, 4.961666667 ] } },
{ "type": "Feature", "properties": { "fid": 5, "Titik": "5", "Lintang": 5.046666667, "Bujur": 125.4722222, "Jenis": "Bilateral", "TipeZona": "Batas ZEE", "Datum": "WGS-84", "Batas_Ngr": "Filipina", "StatusLaut": "Kesepakatan sudah ratifikasi", "Jenis_Janj": "Agreement", "Janji_Tgl": "23 Mei", "Janji_Thn": 2014, "Ratif_Jns": "UU", "Ratif_No": 4, "Ratif_Thn": 2017 }, "geometry": { "type": "Point", "coordinates": [ 125.4722222, 5.046666667 ] } },
{ "type": "Feature", "properties": { "fid": 6, "Titik": "6", "Lintang": 6.4225, "Bujur": 127.195, "Jenis": "Bilateral", "TipeZona": "Batas ZEE", "Datum": "WGS-84", "Batas_Ngr": "Filipina", "StatusLaut": "Kesepakatan sudah ratifikasi", "Jenis_Janj": "Agreement", "Janji_Tgl": "23 Mei", "Janji_Thn": 2014, "Ratif_Jns": "UU", "Ratif_No": 4, "Ratif_Thn": 2017 }, "geometry": { "type": "Point", "coordinates": [ 127.195, 6.4225 ] } },
{ "type": "Feature", "properties": { "fid": 7, "Titik": "7", "Lintang": 6.406944444, "Bujur": 128.6505556, "Jenis": "Bilateral", "TipeZona": "Batas ZEE", "Datum": "WGS-84", "Batas_Ngr": "Filipina", "StatusLaut": "Kesepakatan sudah ratifikasi", "Jenis_Janj": "Agreement", "Janji_Tgl": "23 Mei", "Janji_Thn": 2014, "Ratif_Jns": "UU", "Ratif_No": 4, "Ratif_Thn": 2017 }, "geometry": { "type": "Point", "coordinates": [ 128.6505556, 6.406944444 ] } },
{ "type": "Feature", "properties": { "fid": 8, "Titik": "8", "Lintang": 6.405555556, "Bujur": 129.5252778, "Jenis": "Bilateral", "TipeZona": "Batas ZEE", "Datum": "WGS-84", "Batas_Ngr": "Filipina", "StatusLaut": "Kesepakatan sudah ratifikasi", "Jenis_Janj": "Agreement", "Janji_Tgl": "23 Mei", "Janji_Thn": 2014, "Ratif_Jns": "UU", "Ratif_No": 4, "Ratif_Thn": 2017 }, "geometry": { "type": "Point", "coordinates": [ 129.5252778, 6.405555556 ] } },
{ "type": "Feature", "properties": { "fid": 9, "Titik": "Z46", "Lintang": -13.125674591658733, "Bujur": 118.35168436055864, "Jenis": "Bilateral", "TipeZona": "Batas ZEE", "Datum": "WGS-84", "Batas_Ngr": "Australia", "StatusLaut": "Kesepakatan belum ratifikasi", "Jenis_Janj": "Treaty", "Janji_Tgl": "14 Maret", "Janji_Thn": 1997, "Ratif_Jns": "-", "Ratif_No": null, "Ratif_Thn": null }, "geometry": { "type": "Point", "coordinates": [ 118.351684360558636, -13.125674591658733 ] } },
{ "type": "Feature", "properties": { "fid": 10, "Titik": "Z47", "Lintang": -13.177390135472731, "Bujur": 118.44025226199558, "Jenis": "Bilateral", "TipeZona": "Batas ZEE", "Datum": "WGS-84", "Batas_Ngr": "Australia", "StatusLaut": "Kesepakatan belum ratifikasi", "Jenis_Janj": "Treaty", "Janji_Tgl": "14 Maret", "Janji_Thn": 1997, "Ratif_Jns": "-", "Ratif_No": null, "Ratif_Thn": null }, "geometry": { "type": "Point", "coordinates": [ 118.440252261995582, -13.177390135472731 ] } },
{ "type": "Feature", "properties": { "fid": 11, "Titik": "Z48", "Lintang": -13.226381613427858, "Bujur": 118.53041255628915, "Jenis": "Bilateral", "TipeZona": "Batas ZEE", "Datum": "WGS-84", "Batas_Ngr": "Australia", "StatusLaut": "Kesepakatan belum ratifikasi", "Jenis_Janj": "Treaty", "Janji_Tgl": "14 Maret", "Janji_Thn": 1997, "Ratif_Jns": "-", "Ratif_No": null, "Ratif_Thn": null }, "geometry": { "type": "Point", "coordinates": [ 118.53041255628915, -13.226381613427858 ] } },
{ "type": "Feature", "properties": { "fid": 12, "Titik": "Z49", "Lintang": -13.272603623956144, "Bujur": 118.62207868460874, "Jenis": "Bilateral", "TipeZona": "Batas ZEE", "Datum": "WGS-84", "Batas_Ngr": "Australia", "StatusLaut": "Kesepakatan belum ratifikasi", "Jenis_Janj": "Treaty", "Janji_Tgl": "14 Maret", "Janji_Thn": 1997, "Ratif_Jns": "-", "Ratif_No": null, "Ratif_Thn": null }, "geometry": { "type": "Point", "coordinates": [ 118.622078684608738, -13.272603623956144 ] } },
{ "type": "Feature", "properties": { "fid": 13, "Titik": "Z50", "Lintang": -13.316013367492438, "Bujur": 118.71516264244042, "Jenis": "Bilateral", "TipeZona": "Batas ZEE", "Datum": "WGS-84", "Batas_Ngr": "Australia", "StatusLaut": "Kesepakatan belum ratifikasi", "Jenis_Janj": "Treaty", "Janji_Tgl": "14 Maret", "Janji_Thn": 1997, "Ratif_Jns": "-", "Ratif_No": null, "Ratif_Thn": null }, "geometry": { "type": "Point", "coordinates": [ 118.715162642440418, -13.316013367492438 ] } },
{ "type": "Feature", "properties": { "fid": 14, "Titik": "Z51", "Lintang": -13.356570680076743, "Bujur": 118.80957506407613, "Jenis": "Bilateral", "TipeZona": "Batas ZEE", "Datum": "WGS-84", "Batas_Ngr": "Australia", "StatusLaut": "Kesepakatan belum ratifikasi", "Jenis_Janj": "Treaty", "Janji_Tgl": "14 Maret", "Janji_Thn": 1997, "Ratif_Jns": "-", "Ratif_No": null, "Ratif_Thn": null }, "geometry": { "type": "Point", "coordinates": [ 118.809575064076128, -13.356570680076743 ] } },
{ "type": "Feature", "properties": { "fid": 15, "Titik": "Z52", "Lintang": -13.394238064702684, "Bujur": 118.9052253084097, "Jenis": "Bilateral", "TipeZona": "Batas ZEE", "Datum": "WGS-84", "Batas_Ngr": "Australia", "StatusLaut": "Kesepakatan belum ratifikasi", "Jenis_Janj": "Treaty", "Janji_Tgl": "14 Maret", "Janji_Thn": 1997, "Ratif_Jns": "-", "Ratif_No": null, "Ratif_Thn": null }, "geometry": { "type": "Point", "coordinates": [ 118.905225308409698, -13.394238064702684 ] } },
{ "type": "Feature", "properties": { "fid": 16, "Titik": "Z53", "Lintang": -13.428980720421253, "Bujur": 119.00202154595718, "Jenis": "Bilateral", "TipeZona": "Batas ZEE", "Datum": "WGS-84", "Batas_Ngr": "Australia", "StatusLaut": "Kesepakatan belum ratifikasi", "Jenis_Janj": "Treaty", "Janji_Tgl": "14 Maret", "Janji_Thn": 1997, "Ratif_Jns": "-", "Ratif_No": null, "Ratif_Thn": null }, "geometry": { "type": "Point", "coordinates": [ 119.002021545957177, -13.428980720421253 ] } },
{ "type": "Feature", "properties": { "fid": 17, "Titik": "Z54", "Lintang": -13.460766569209765, "Bujur": 119.09987084701824, "Jenis": "Bilateral", "TipeZona": "Batas ZEE", "Datum": "WGS-84", "Batas_Ngr": "Australia", "StatusLaut": "Kesepakatan belum ratifikasi", "Jenis_Janj": "Treaty", "Janji_Tgl": "14 Maret", "Janji_Thn": 1997, "Ratif_Jns": "-", "Ratif_No": null, "Ratif_Thn": null }, "geometry": { "type": "Point", "coordinates": [ 119.099870847018238, -13.460766569209765 ] } },
{ "type": "Feature", "properties": { "fid": 18, "Titik": "Z55", "Lintang": -13.489566280616112, "Bujur": 119.19867927089383, "Jenis": "Bilateral", "TipeZona": "Batas ZEE", "Datum": "WGS-84", "Batas_Ngr": "Australia", "StatusLaut": "Kesepakatan belum ratifikasi", "Jenis_Janj": "Treaty", "Janji_Tgl": "14 Maret", "Janji_Thn": 1997, "Ratif_Jns": "-", "Ratif_No": null, "Ratif_Thn": null }, "geometry": { "type": "Point", "coordinates": [ 119.198679270893834, -13.489566280616112 ] } },
{ "type": "Feature", "properties": { "fid": 19, "Titik": "Z56", "Lintang": -13.515353294188545, "Bujur": 119.29835195607428, "Jenis": "Bilateral", "TipeZona": "Batas ZEE", "Datum": "WGS-84", "Batas_Ngr": "Australia", "StatusLaut": "Kesepakatan belum ratifikasi", "Jenis_Janj": "Treaty", "Janji_Tgl": "14 Maret", "Janji_Thn": 1997, "Ratif_Jns": "-", "Ratif_No": null, "Ratif_Thn": null }, "geometry": { "type": "Point", "coordinates": [ 119.298351956074285, -13.515353294188545 ] } },
{ "type": "Feature", "properties": { "fid": 20, "Titik": "Z57", "Lintang": -13.539243124666127, "Bujur": 119.40420344744912, "Jenis": "Bilateral", "TipeZona": "Batas ZEE", "Datum": "WGS-84", "Batas_Ngr": "Australia", "StatusLaut": "Kesepakatan belum ratifikasi", "Jenis_Janj": "Treaty", "Janji_Tgl": "14 Maret", "Janji_Thn": 1997, "Ratif_Jns": "-", "Ratif_No": null, "Ratif_Thn": null }, "geometry": { "type": "Point", "coordinates": [ 119.40420344744912, -13.539243124666127 ] } },
{ "type": "Feature", "properties": { "fid": 21, "Titik": "Z58", "Lintang": -13.599057331508339, "Bujur": 119.50106157091979, "Jenis": "Bilateral", "TipeZona": "Batas ZEE", "Datum": "WGS-84", "Batas_Ngr": "Australia", "StatusLaut": "Kesepakatan belum ratifikasi", "Jenis_Janj": "Treaty", "Janji_Tgl": "14 Maret", "Janji_Thn": 1997, "Ratif_Jns": "-", "Ratif_No": null, "Ratif_Thn": null }, "geometry": { "type": "Point", "coordinates": [ 119.501061570919788, -13.599057331508339 ] } },
{ "type": "Feature", "properties": { "fid": 22, "Titik": "Z59", "Lintang": -13.655429417206566, "Bujur": 119.59583206550138, "Jenis": "Bilateral", "TipeZona": "Batas ZEE", "Datum": "WGS-84", "Batas_Ngr": "Australia", "StatusLaut": "Kesepakatan belum ratifikasi", "Jenis_Janj": "Treaty", "Janji_Tgl": "14 Maret", "Janji_Thn": 1997, "Ratif_Jns": "-", "Ratif_No": null, "Ratif_Thn": null }, "geometry": { "type": "Point", "coordinates": [ 119.595832065501384, -13.655429417206566 ] } },
{ "type": "Feature", "properties": { "fid": 23, "Titik": "Z60", "Lintang": -13.708668183408991, "Bujur": 119.69247106954704, "Jenis": "Bilateral", "TipeZona": "Batas ZEE", "Datum": "WGS-84", "Batas_Ngr": "Australia", "StatusLaut": "Kesepakatan belum ratifikasi", "Jenis_Janj": "Treaty", "Janji_Tgl": "14 Maret", "Janji_Thn": 1997, "Ratif_Jns": "-", "Ratif_No": null, "Ratif_Thn": null }, "geometry": { "type": "Point", "coordinates": [ 119.69247106954704, -13.708668183408991 ] } },
{ "type": "Feature", "properties": { "fid": 24, "Titik": "Z61", "Lintang": -13.758716585485121, "Bujur": 119.79087118782817, "Jenis": "Bilateral", "TipeZona": "Batas ZEE", "Datum": "WGS-84", "Batas_Ngr": "Australia", "StatusLaut": "Kesepakatan belum ratifikasi", "Jenis_Janj": "Treaty", "Janji_Tgl": "14 Maret", "Janji_Thn": 1997, "Ratif_Jns": "-", "Ratif_No": null, "Ratif_Thn": null }, "geometry": { "type": "Point", "coordinates": [ 119.790871187828174, -13.758716585485121 ] } },
{ "type": "Feature", "properties": { "fid": 25, "Titik": "Z62", "Lintang": -13.80552104672989, "Bujur": 119.89092306798447, "Jenis": "Bilateral", "TipeZona": "Batas ZEE", "Datum": "WGS-84", "Batas_Ngr": "Australia", "StatusLaut": "Kesepakatan belum ratifikasi", "Jenis_Janj": "Treaty", "Janji_Tgl": "14 Maret", "Janji_Thn": 1997, "Ratif_Jns": "-", "Ratif_No": null, "Ratif_Thn": null }, "geometry": { "type": "Point", "coordinates": [ 119.890923067984474, -13.80552104672989 ] } },
{ "type": "Feature", "properties": { "fid": 26, "Titik": "Z63", "Lintang": -13.845655888438269, "Bujur": 119.98463380003231, "Jenis": "Bilateral", "TipeZona": "Batas ZEE", "Datum": "WGS-84", "Batas_Ngr": "Australia", "StatusLaut": "Kesepakatan belum ratifikasi", "Jenis_Janj": "Treaty", "Janji_Tgl": "14 Maret", "Janji_Thn": 1997, "Ratif_Jns": "-", "Ratif_No": null, "Ratif_Thn": null }, "geometry": { "type": "Point", "coordinates": [ 119.984633800032313, -13.845655888438269 ] } },
{ "type": "Feature", "properties": { "fid": 27, "Titik": "Z64", "Lintang": -13.898833470853203, "Bujur": 120.12285374818036, "Jenis": "Bilateral", "TipeZona": "Batas ZEE", "Datum": "WGS-84", "Batas_Ngr": "Australia", "StatusLaut": "Kesepakatan belum ratifikasi", "Jenis_Janj": "Treaty", "Janji_Tgl": "14 Maret", "Janji_Thn": 1997, "Ratif_Jns": "-", "Ratif_No": null, "Ratif_Thn": null }, "geometry": { "type": "Point", "coordinates": [ 120.122853748180361, -13.898833470853203 ] } },
{ "type": "Feature", "properties": { "fid": 28, "Titik": "Z65", "Lintang": -13.25, "Bujur": 121.8167, "Jenis": "Bilateral", "TipeZona": "Batas ZEE", "Datum": "WGS-84", "Batas_Ngr": "Australia", "StatusLaut": "Kesepakatan belum ratifikasi", "Jenis_Janj": "Treaty", "Janji_Tgl": "14 Maret", "Janji_Thn": 1997, "Ratif_Jns": "-", "Ratif_No": null, "Ratif_Thn": null }, "geometry": { "type": "Point", "coordinates": [ 121.8167, -13.25 ] } },
{ "type": "Feature", "properties": { "fid": 29, "Titik": "Z66", "Lintang": -12.869243733959072, "Bujur": 122.50416145713621, "Jenis": "Bilateral", "TipeZona": "Batas ZEE", "Datum": "WGS-84", "Batas_Ngr": "Australia", "StatusLaut": "Kesepakatan belum ratifikasi", "Jenis_Janj": "Treaty", "Janji_Tgl": "14 Maret", "Janji_Thn": 1997, "Ratif_Jns": "-", "Ratif_No": null, "Ratif_Thn": null }, "geometry": { "type": "Point", "coordinates": [ 122.504161457136206, -12.869243733959072 ] } },
{ "type": "Feature", "properties": { "fid": 30, "Titik": "Z67", "Lintang": -12.56878181255189, "Bujur": 122.49946215044754, "Jenis": "Bilateral", "TipeZona": "Batas ZEE", "Datum": "WGS-84", "Batas_Ngr": "Australia", "StatusLaut": "Kesepakatan belum ratifikasi", "Jenis_Janj": "Treaty", "Janji_Tgl": "14 Maret", "Janji_Thn": 1997, "Ratif_Jns": "-", "Ratif_No": null, "Ratif_Thn": null }, "geometry": { "type": "Point", "coordinates": [ 122.499462150447542, -12.56878181255189 ] } },
{ "type": "Feature", "properties": { "fid": 31, "Titik": "Z68", "Lintang": -12.277718504522017, "Bujur": 122.49226633708044, "Jenis": "Bilateral", "TipeZona": "Batas ZEE", "Datum": "WGS-84", "Batas_Ngr": "Australia", "StatusLaut": "Kesepakatan belum ratifikasi", "Jenis_Janj": "Treaty", "Janji_Tgl": "14 Maret", "Janji_Thn": 1997, "Ratif_Jns": "-", "Ratif_No": null, "Ratif_Thn": null }, "geometry": { "type": "Point", "coordinates": [ 122.492266337080437, -12.277718504522017 ] } },
{ "type": "Feature", "properties": { "fid": 32, "Titik": "Z69", "Lintang": -12.265303387960818, "Bujur": 122.4930340589549, "Jenis": "Bilateral", "TipeZona": "Batas ZEE", "Datum": "WGS-84", "Batas_Ngr": "Australia", "StatusLaut": "Kesepakatan belum ratifikasi", "Jenis_Janj": "Treaty", "Janji_Tgl": "14 Maret", "Janji_Thn": 1997, "Ratif_Jns": "-", "Ratif_No": null, "Ratif_Thn": null }, "geometry": { "type": "Point", "coordinates": [ 122.493034058954905, -12.265303387960818 ] } },
{ "type": "Feature", "properties": { "fid": 33, "Titik": "Z70", "Lintang": -12.243426937916956, "Bujur": 122.49585682670251, "Jenis": "Bilateral", "TipeZona": "Batas ZEE", "Datum": "WGS-84", "Batas_Ngr": "Australia", "StatusLaut": "Kesepakatan belum ratifikasi", "Jenis_Janj": "Treaty", "Janji_Tgl": "14 Maret", "Janji_Thn": 1997, "Ratif_Jns": "-", "Ratif_No": null, "Ratif_Thn": null }, "geometry": { "type": "Point", "coordinates": [ 122.495856826702507, -12.243426937916956 ] } },
{ "type": "Feature", "properties": { "fid": 34, "Titik": "Z71", "Lintang": -12.216963490283252, "Bujur": 122.50114951622925, "Jenis": "Bilateral", "TipeZona": "Batas ZEE", "Datum": "WGS-84", "Batas_Ngr": "Australia", "StatusLaut": "Kesepakatan belum ratifikasi", "Jenis_Janj": "Treaty", "Janji_Tgl": "14 Maret", "Janji_Thn": 1997, "Ratif_Jns": "-", "Ratif_No": null, "Ratif_Thn": null }, "geometry": { "type": "Point", "coordinates": [ 122.501149516229248, -12.216963490283252 ] } },
{ "type": "Feature", "properties": { "fid": 35, "Titik": "Z72", "Lintang": -12.170034976479485, "Bujur": 122.51032351140893, "Jenis": "Bilateral", "TipeZona": "Batas ZEE", "Datum": "WGS-84", "Batas_Ngr": "Australia", "StatusLaut": "Kesepakatan belum ratifikasi", "Jenis_Janj": "Treaty", "Janji_Tgl": "14 Maret", "Janji_Thn": 1997, "Ratif_Jns": "-", "Ratif_No": null, "Ratif_Thn": null }, "geometry": { "type": "Point", "coordinates": [ 122.510323511408927, -12.170034976479485 ] } },
{ "type": "Feature", "properties": { "fid": 36, "Titik": "Z73", "Lintang": -12.128399152202459, "Bujur": 122.52549588805225, "Jenis": "Bilateral", "TipeZona": "Batas ZEE", "Datum": "WGS-84", "Batas_Ngr": "Australia", "StatusLaut": "Kesepakatan belum ratifikasi", "Jenis_Janj": "Treaty", "Janji_Tgl": "14 Maret", "Janji_Thn": 1997, "Ratif_Jns": "-", "Ratif_No": null, "Ratif_Thn": null }, "geometry": { "type": "Point", "coordinates": [ 122.525495888052248, -12.128399152202459 ] } },
{ "type": "Feature", "properties": { "fid": 37, "Titik": "Z74", "Lintang": -12.072649489187453, "Bujur": 122.5523121816544, "Jenis": "Bilateral", "TipeZona": "Batas ZEE", "Datum": "WGS-84", "Batas_Ngr": "Australia", "StatusLaut": "Kesepakatan belum ratifikasi", "Jenis_Janj": "Treaty", "Janji_Tgl": "14 Maret", "Janji_Thn": 1997, "Ratif_Jns": "-", "Ratif_No": null, "Ratif_Thn": null }, "geometry": { "type": "Point", "coordinates": [ 122.552312181654401, -12.072649489187453 ] } },
{ "type": "Feature", "properties": { "fid": 38, "Titik": "Z75", "Lintang": -12.05183157704894, "Bujur": 122.56572032845547, "Jenis": "Bilateral", "TipeZona": "Batas ZEE", "Datum": "WGS-84", "Batas_Ngr": "Australia", "StatusLaut": "Kesepakatan belum ratifikasi", "Jenis_Janj": "Treaty", "Janji_Tgl": "14 Maret", "Janji_Thn": 1997, "Ratif_Jns": "-", "Ratif_No": null, "Ratif_Thn": null }, "geometry": { "type": "Point", "coordinates": [ 122.56572032845547, -12.05183157704894 ] } },
{ "type": "Feature", "properties": { "fid": 39, "Titik": "Z76", "Lintang": -12.041951889932358, "Bujur": 122.57207155588756, "Jenis": "Bilateral", "TipeZona": "Batas ZEE", "Datum": "WGS-84", "Batas_Ngr": "Australia", "StatusLaut": "Kesepakatan belum ratifikasi", "Jenis_Janj": "Treaty", "Janji_Tgl": "14 Maret", "Janji_Thn": 1997, "Ratif_Jns": "-", "Ratif_No": null, "Ratif_Thn": null }, "geometry": { "type": "Point", "coordinates": [ 122.572071555887561, -12.041951889932358 ] } },
{ "type": "Feature", "properties": { "fid": 40, "Titik": "Z77", "Lintang": -12.034894970563371, "Bujur": 122.58053985913034, "Jenis": "Bilateral", "TipeZona": "Batas ZEE", "Datum": "WGS-84", "Batas_Ngr": "Australia", "StatusLaut": "Kesepakatan belum ratifikasi", "Jenis_Janj": "Treaty", "Janji_Tgl": "14 Maret", "Janji_Thn": 1997, "Ratif_Jns": "-", "Ratif_No": null, "Ratif_Thn": null }, "geometry": { "type": "Point", "coordinates": [ 122.58053985913034, -12.034894970563371 ] } },
{ "type": "Feature", "properties": { "fid": 41, "Titik": "Z78", "Lintang": -11.993435569270567, "Bujur": 122.61017892048005, "Jenis": "Bilateral", "TipeZona": "Batas ZEE", "Datum": "WGS-84", "Batas_Ngr": "Australia", "StatusLaut": "Kesepakatan belum ratifikasi", "Jenis_Janj": "Treaty", "Janji_Tgl": "14 Maret", "Janji_Thn": 1997, "Ratif_Jns": "-", "Ratif_No": null, "Ratif_Thn": null }, "geometry": { "type": "Point", "coordinates": [ 122.610178920480053, -11.993435569270567 ] } },
{ "type": "Feature", "properties": { "fid": 42, "Titik": "Z79", "Lintang": -11.96803065954221, "Bujur": 122.63082040963434, "Jenis": "Bilateral", "TipeZona": "Batas ZEE", "Datum": "WGS-84", "Batas_Ngr": "Australia", "StatusLaut": "Kesepakatan belum ratifikasi", "Jenis_Janj": "Treaty", "Janji_Tgl": "14 Maret", "Janji_Thn": 1997, "Ratif_Jns": "-", "Ratif_No": null, "Ratif_Thn": null }, "geometry": { "type": "Point", "coordinates": [ 122.630820409634339, -11.96803065954221 ] } },
{ "type": "Feature", "properties": { "fid": 43, "Titik": "Z80", "Lintang": -11.9315111018077, "Bujur": 122.67527900165895, "Jenis": "Bilateral", "TipeZona": "Batas ZEE", "Datum": "WGS-84", "Batas_Ngr": "Australia", "StatusLaut": "Kesepakatan belum ratifikasi", "Jenis_Janj": "Treaty", "Janji_Tgl": "14 Maret", "Janji_Thn": 1997, "Ratif_Jns": "-", "Ratif_No": null, "Ratif_Thn": null }, "geometry": { "type": "Point", "coordinates": [ 122.67527900165895, -11.9315111018077 ] } },
{ "type": "Feature", "properties": { "fid": 44, "Titik": "Z81", "Lintang": -11.906106192079344, "Bujur": 122.73085224168973, "Jenis": "Bilateral", "TipeZona": "Batas ZEE", "Datum": "WGS-84", "Batas_Ngr": "Australia", "StatusLaut": "Kesepakatan belum ratifikasi", "Jenis_Janj": "Treaty", "Janji_Tgl": "14 Maret", "Janji_Thn": 1997, "Ratif_Jns": "-", "Ratif_No": null, "Ratif_Thn": null }, "geometry": { "type": "Point", "coordinates": [ 122.730852241689732, -11.906106192079344 ] } },
{ "type": "Feature", "properties": { "fid": 45, "Titik": "Z82", "Lintang": -11.8886403166411, "Bujur": 122.78166206114645, "Jenis": "Bilateral", "TipeZona": "Batas ZEE", "Datum": "WGS-84", "Batas_Ngr": "Australia", "StatusLaut": "Kesepakatan belum ratifikasi", "Jenis_Janj": "Treaty", "Janji_Tgl": "14 Maret", "Janji_Thn": 1997, "Ratif_Jns": "-", "Ratif_No": null, "Ratif_Thn": null }, "geometry": { "type": "Point", "coordinates": [ 122.781662061146449, -11.8886403166411 ] } },
{ "type": "Feature", "properties": { "fid": 46, "Titik": "Z83", "Lintang": -11.863235406912745, "Bujur": 122.83167797717417, "Jenis": "Bilateral", "TipeZona": "Batas ZEE", "Datum": "WGS-84", "Batas_Ngr": "Australia", "StatusLaut": "Kesepakatan belum ratifikasi", "Jenis_Janj": "Treaty", "Janji_Tgl": "14 Maret", "Janji_Thn": 1997, "Ratif_Jns": "-", "Ratif_No": null, "Ratif_Thn": null }, "geometry": { "type": "Point", "coordinates": [ 122.831677977174166, -11.863235406912745 ] } },
{ "type": "Feature", "properties": { "fid": 47, "Titik": "Z84", "Lintang": -11.841601538472194, "Bujur": 122.88566341034692, "Jenis": "Bilateral", "TipeZona": "Batas ZEE", "Datum": "WGS-84", "Batas_Ngr": "Australia", "StatusLaut": "Kesepakatan belum ratifikasi", "Jenis_Janj": "Treaty", "Janji_Tgl": "14 Maret", "Janji_Thn": 1997, "Ratif_Jns": "-", "Ratif_No": null, "Ratif_Thn": null }, "geometry": { "type": "Point", "coordinates": [ 122.885663410346922, -11.841601538472194 ] } },
{ "type": "Feature", "properties": { "fid": 48, "Titik": "Z85", "Lintang": -11.832868600753072, "Bujur": 122.90630489950121, "Jenis": "Bilateral", "TipeZona": "Batas ZEE", "Datum": "WGS-84", "Batas_Ngr": "Australia", "StatusLaut": "Kesepakatan belum ratifikasi", "Jenis_Janj": "Treaty", "Janji_Tgl": "14 Maret", "Janji_Thn": 1997, "Ratif_Jns": "-", "Ratif_No": null, "Ratif_Thn": null }, "geometry": { "type": "Point", "coordinates": [ 122.906304899501208, -11.832868600753072 ] } },
{ "type": "Feature", "properties": { "fid": 49, "Titik": "Z86", "Lintang": -11.826517373320982, "Bujur": 122.9205951612234, "Jenis": "Bilateral", "TipeZona": "Batas ZEE", "Datum": "WGS-84", "Batas_Ngr": "Australia", "StatusLaut": "Kesepakatan belum ratifikasi", "Jenis_Janj": "Treaty", "Janji_Tgl": "14 Maret", "Janji_Thn": 1997, "Ratif_Jns": "-", "Ratif_No": null, "Ratif_Thn": null }, "geometry": { "type": "Point", "coordinates": [ 122.920595161223403, -11.826517373320982 ] } },
{ "type": "Feature", "properties": { "fid": 50, "Titik": "Z87", "Lintang": -11.822547856175927, "Bujur": 122.94679397438078, "Jenis": "Bilateral", "TipeZona": "Batas ZEE", "Datum": "WGS-84", "Batas_Ngr": "Australia", "StatusLaut": "Kesepakatan belum ratifikasi", "Jenis_Janj": "Treaty", "Janji_Tgl": "14 Maret", "Janji_Thn": 1997, "Ratif_Jns": "-", "Ratif_No": null, "Ratif_Thn": null }, "geometry": { "type": "Point", "coordinates": [ 122.946793974380782, -11.822547856175927 ] } },
{ "type": "Feature", "properties": { "fid": 51, "Titik": "Z88", "Lintang": -11.813021015027793, "Bujur": 122.98569524240231, "Jenis": "Bilateral", "TipeZona": "Batas ZEE", "Datum": "WGS-84", "Batas_Ngr": "Australia", "StatusLaut": "Kesepakatan belum ratifikasi", "Jenis_Janj": "Treaty", "Janji_Tgl": "14 Maret", "Janji_Thn": 1997, "Ratif_Jns": "-", "Ratif_No": null, "Ratif_Thn": null }, "geometry": { "type": "Point", "coordinates": [ 122.985695242402315, -11.813021015027793 ] } },
{ "type": "Feature", "properties": { "fid": 52, "Titik": "Z89", "Lintang": -11.813021015027793, "Bujur": 123.00474892469859, "Jenis": "Bilateral", "TipeZona": "Batas ZEE", "Datum": "WGS-84", "Batas_Ngr": "Australia", "StatusLaut": "Kesepakatan belum ratifikasi", "Jenis_Janj": "Treaty", "Janji_Tgl": "14 Maret", "Janji_Thn": 1997, "Ratif_Jns": "-", "Ratif_No": null, "Ratif_Thn": null }, "geometry": { "type": "Point", "coordinates": [ 123.004748924698589, -11.813021015027793 ] } },
{ "type": "Feature", "properties": { "fid": 53, "Titik": "Z90", "Lintang": -11.816990532172849, "Bujur": 123.05317703386827, "Jenis": "Bilateral", "TipeZona": "Batas ZEE", "Datum": "WGS-84", "Batas_Ngr": "Australia", "StatusLaut": "Kesepakatan belum ratifikasi", "Jenis_Janj": "Treaty", "Janji_Tgl": "14 Maret", "Janji_Thn": 1997, "Ratif_Jns": "-", "Ratif_No": null, "Ratif_Thn": null }, "geometry": { "type": "Point", "coordinates": [ 123.053177033868266, -11.816990532172849 ] } },
{ "type": "Feature", "properties": { "fid": 54, "Titik": "Z91", "Lintang": -11.825723469891971, "Bujur": 123.11430759790211, "Jenis": "Bilateral", "TipeZona": "Batas ZEE", "Datum": "WGS-84", "Batas_Ngr": "Australia", "StatusLaut": "Kesepakatan belum ratifikasi", "Jenis_Janj": "Treaty", "Janji_Tgl": "14 Maret", "Janji_Thn": 1997, "Ratif_Jns": "-", "Ratif_No": null, "Ratif_Thn": null }, "geometry": { "type": "Point", "coordinates": [ 123.114307597902112, -11.825723469891971 ] } },
{ "type": "Feature", "properties": { "fid": 55, "Titik": "Z92", "Lintang": -11.835250311040104, "Bujur": 123.15241496249465, "Jenis": "Bilateral", "TipeZona": "Batas ZEE", "Datum": "WGS-84", "Batas_Ngr": "Australia", "StatusLaut": "Kesepakatan belum ratifikasi", "Jenis_Janj": "Treaty", "Janji_Tgl": "14 Maret", "Janji_Thn": 1997, "Ratif_Jns": "-", "Ratif_No": null, "Ratif_Thn": null }, "geometry": { "type": "Point", "coordinates": [ 123.152414962494646, -11.835250311040104 ] } },
{ "type": "Feature", "properties": { "fid": 56, "Titik": "Z93", "Lintang": -11.843189345330215, "Bujur": 123.18972842365817, "Jenis": "Bilateral", "TipeZona": "Batas ZEE", "Datum": "WGS-84", "Batas_Ngr": "Australia", "StatusLaut": "Kesepakatan belum ratifikasi", "Jenis_Janj": "Treaty", "Janji_Tgl": "14 Maret", "Janji_Thn": 1997, "Ratif_Jns": "-", "Ratif_No": null, "Ratif_Thn": null }, "geometry": { "type": "Point", "coordinates": [ 123.189728423658167, -11.843189345330215 ] } },
{ "type": "Feature", "properties": { "fid": 57, "Titik": "Z94", "Lintang": -11.845235435829901, "Bujur": 123.21338963379118, "Jenis": "Bilateral", "TipeZona": "Batas ZEE", "Datum": "WGS-84", "Batas_Ngr": "Australia", "StatusLaut": "Kesepakatan belum ratifikasi", "Jenis_Janj": "Treaty", "Janji_Tgl": "14 Maret", "Janji_Thn": 1997, "Ratif_Jns": "-", "Ratif_No": null, "Ratif_Thn": null }, "geometry": { "type": "Point", "coordinates": [ 123.213389633791181, -11.845235435829901 ] } },
{ "type": "Feature", "properties": { "fid": 58, "Titik": "Z95", "Lintang": -11.845822849165986, "Bujur": 123.21808894047984, "Jenis": "Bilateral", "TipeZona": "Batas ZEE", "Datum": "WGS-84", "Batas_Ngr": "Australia", "StatusLaut": "Kesepakatan belum ratifikasi", "Jenis_Janj": "Treaty", "Janji_Tgl": "14 Maret", "Janji_Thn": 1997, "Ratif_Jns": "-", "Ratif_No": null, "Ratif_Thn": null }, "geometry": { "type": "Point", "coordinates": [ 123.218088940479845, -11.845822849165986 ] } },
{ "type": "Feature", "properties": { "fid": 59, "Titik": "Z96", "Lintang": -11.848172502510323, "Bujur": 123.22807496719328, "Jenis": "Bilateral", "TipeZona": "Batas ZEE", "Datum": "WGS-84", "Batas_Ngr": "Australia", "StatusLaut": "Kesepakatan belum ratifikasi", "Jenis_Janj": "Treaty", "Janji_Tgl": "14 Maret", "Janji_Thn": 1997, "Ratif_Jns": "-", "Ratif_No": null, "Ratif_Thn": null }, "geometry": { "type": "Point", "coordinates": [ 123.22807496719328, -11.848172502510323 ] } },
{ "type": "Feature", "properties": { "fid": 60, "Titik": "Z97", "Lintang": -11.848759915846408, "Bujur": 123.23864840724281, "Jenis": "Bilateral", "TipeZona": "Batas ZEE", "Datum": "WGS-84", "Batas_Ngr": "Australia", "StatusLaut": "Kesepakatan belum ratifikasi", "Jenis_Janj": "Treaty", "Janji_Tgl": "14 Maret", "Janji_Thn": 1997, "Ratif_Jns": "-", "Ratif_No": null, "Ratif_Thn": null }, "geometry": { "type": "Point", "coordinates": [ 123.238648407242806, -11.848759915846408 ] } },
{ "type": "Feature", "properties": { "fid": 61, "Titik": "Z98", "Lintang": -11.849347329182493, "Bujur": 123.24804702062015, "Jenis": "Bilateral", "TipeZona": "Batas ZEE", "Datum": "WGS-84", "Batas_Ngr": "Australia", "StatusLaut": "Kesepakatan belum ratifikasi", "Jenis_Janj": "Treaty", "Janji_Tgl": "14 Maret", "Janji_Thn": 1997, "Ratif_Jns": "-", "Ratif_No": null, "Ratif_Thn": null }, "geometry": { "type": "Point", "coordinates": [ 123.248047020620149, -11.849347329182493 ] } },
{ "type": "Feature", "properties": { "fid": 62, "Titik": "Z99", "Lintang": -11.851109569190745, "Bujur": 123.25274632730883, "Jenis": "Bilateral", "TipeZona": "Batas ZEE", "Datum": "WGS-84", "Batas_Ngr": "Australia", "StatusLaut": "Kesepakatan belum ratifikasi", "Jenis_Janj": "Treaty", "Janji_Tgl": "14 Maret", "Janji_Thn": 1997, "Ratif_Jns": "-", "Ratif_No": null, "Ratif_Thn": null }, "geometry": { "type": "Point", "coordinates": [ 123.252746327308827, -11.851109569190745 ] } },
{ "type": "Feature", "properties": { "fid": 63, "Titik": "Z100", "Lintang": -11.852284395862913, "Bujur": 123.25744563399751, "Jenis": "Bilateral", "TipeZona": "Batas ZEE", "Datum": "WGS-84", "Batas_Ngr": "Australia", "StatusLaut": "Kesepakatan belum ratifikasi", "Jenis_Janj": "Treaty", "Janji_Tgl": "14 Maret", "Janji_Thn": 1997, "Ratif_Jns": "-", "Ratif_No": null, "Ratif_Thn": null }, "geometry": { "type": "Point", "coordinates": [ 123.257445633997506, -11.852284395862913 ] } },
{ "type": "Feature", "properties": { "fid": 64, "Titik": "Z101", "Lintang": -11.854046635871168, "Bujur": 123.26097011401401, "Jenis": "Bilateral", "TipeZona": "Batas ZEE", "Datum": "WGS-84", "Batas_Ngr": "Australia", "StatusLaut": "Kesepakatan belum ratifikasi", "Jenis_Janj": "Treaty", "Janji_Tgl": "14 Maret", "Janji_Thn": 1997, "Ratif_Jns": "-", "Ratif_No": null, "Ratif_Thn": null }, "geometry": { "type": "Point", "coordinates": [ 123.260970114014015, -11.854046635871168 ] } },
{ "type": "Feature", "properties": { "fid": 65, "Titik": "Z102", "Lintang": -11.85698370255159, "Bujur": 123.26743166071094, "Jenis": "Bilateral", "TipeZona": "Batas ZEE", "Datum": "WGS-84", "Batas_Ngr": "Australia", "StatusLaut": "Kesepakatan belum ratifikasi", "Jenis_Janj": "Treaty", "Janji_Tgl": "14 Maret", "Janji_Thn": 1997, "Ratif_Jns": "-", "Ratif_No": null, "Ratif_Thn": null }, "geometry": { "type": "Point", "coordinates": [ 123.26743166071094, -11.85698370255159 ] } },
{ "type": "Feature", "properties": { "fid": 66, "Titik": "Z103", "Lintang": -11.861683009240265, "Bujur": 123.2768302740883, "Jenis": "Bilateral", "TipeZona": "Batas ZEE", "Datum": "WGS-84", "Batas_Ngr": "Australia", "StatusLaut": "Kesepakatan belum ratifikasi", "Jenis_Janj": "Treaty", "Janji_Tgl": "14 Maret", "Janji_Thn": 1997, "Ratif_Jns": "-", "Ratif_No": null, "Ratif_Thn": null }, "geometry": { "type": "Point", "coordinates": [ 123.276830274088297, -11.861683009240265 ] } },
{ "type": "Feature", "properties": { "fid": 67, "Titik": "Z104", "Lintang": -11.86638231592894, "Bujur": 123.28857854080998, "Jenis": "Bilateral", "TipeZona": "Batas ZEE", "Datum": "WGS-84", "Batas_Ngr": "Australia", "StatusLaut": "Kesepakatan belum ratifikasi", "Jenis_Janj": "Treaty", "Janji_Tgl": "14 Maret", "Janji_Thn": 1997, "Ratif_Jns": "-", "Ratif_No": null, "Ratif_Thn": null }, "geometry": { "type": "Point", "coordinates": [ 123.288578540809979, -11.86638231592894 ] } },
{ "type": "Feature", "properties": { "fid": 68, "Titik": "Z105", "Lintang": -11.869319382609362, "Bujur": 123.29504008750691, "Jenis": "Bilateral", "TipeZona": "Batas ZEE", "Datum": "WGS-84", "Batas_Ngr": "Australia", "StatusLaut": "Kesepakatan belum ratifikasi", "Jenis_Janj": "Treaty", "Janji_Tgl": "14 Maret", "Janji_Thn": 1997, "Ratif_Jns": "-", "Ratif_No": null, "Ratif_Thn": null }, "geometry": { "type": "Point", "coordinates": [ 123.295040087506905, -11.869319382609362 ] } },
{ "type": "Feature", "properties": { "fid": 69, "Titik": "Z106", "Lintang": -11.874606102634122, "Bujur": 123.302676460876, "Jenis": "Bilateral", "TipeZona": "Batas ZEE", "Datum": "WGS-84", "Batas_Ngr": "Australia", "StatusLaut": "Kesepakatan belum ratifikasi", "Jenis_Janj": "Treaty", "Janji_Tgl": "14 Maret", "Janji_Thn": 1997, "Ratif_Jns": "-", "Ratif_No": null, "Ratif_Thn": null }, "geometry": { "type": "Point", "coordinates": [ 123.302676460876, -11.874606102634122 ] } },
{ "type": "Feature", "properties": { "fid": 70, "Titik": "Z107", "Lintang": -11.877543169314544, "Bujur": 123.30855059423685, "Jenis": "Bilateral", "TipeZona": "Batas ZEE", "Datum": "WGS-84", "Batas_Ngr": "Australia", "StatusLaut": "Kesepakatan belum ratifikasi", "Jenis_Janj": "Treaty", "Janji_Tgl": "14 Maret", "Janji_Thn": 1997, "Ratif_Jns": "-", "Ratif_No": null, "Ratif_Thn": null }, "geometry": { "type": "Point", "coordinates": [ 123.308550594236848, -11.877543169314544 ] } },
{ "type": "Feature", "properties": { "fid": 71, "Titik": "Z108", "Lintang": -11.882242476003219, "Bujur": 123.31618696760594, "Jenis": "Bilateral", "TipeZona": "Batas ZEE", "Datum": "WGS-84", "Batas_Ngr": "Australia", "StatusLaut": "Kesepakatan belum ratifikasi", "Jenis_Janj": "Treaty", "Janji_Tgl": "14 Maret", "Janji_Thn": 1997, "Ratif_Jns": "-", "Ratif_No": null, "Ratif_Thn": null }, "geometry": { "type": "Point", "coordinates": [ 123.316186967605944, -11.882242476003219 ] } },
{ "type": "Feature", "properties": { "fid": 72, "Titik": "Z109", "Lintang": -11.889291436036233, "Bujur": 123.33028488767198, "Jenis": "Bilateral", "TipeZona": "Batas ZEE", "Datum": "WGS-84", "Batas_Ngr": "Australia", "StatusLaut": "Kesepakatan belum ratifikasi", "Jenis_Janj": "Treaty", "Janji_Tgl": "14 Maret", "Janji_Thn": 1997, "Ratif_Jns": "-", "Ratif_No": null, "Ratif_Thn": null }, "geometry": { "type": "Point", "coordinates": [ 123.330284887671979, -11.889291436036233 ] } },
{ "type": "Feature", "properties": { "fid": 73, "Titik": "Z110", "Lintang": -11.90221452943009, "Bujur": 123.3520191811071, "Jenis": "Bilateral", "TipeZona": "Batas ZEE", "Datum": "WGS-84", "Batas_Ngr": "Australia", "StatusLaut": "Kesepakatan belum ratifikasi", "Jenis_Janj": "Treaty", "Janji_Tgl": "14 Maret", "Janji_Thn": 1997, "Ratif_Jns": "-", "Ratif_No": null, "Ratif_Thn": null }, "geometry": { "type": "Point", "coordinates": [ 123.352019181107096, -11.90221452943009 ] } },
{ "type": "Feature", "properties": { "fid": 74, "Titik": "Z111", "Lintang": -11.916312449496116, "Bujur": 123.37199123453397, "Jenis": "Bilateral", "TipeZona": "Batas ZEE", "Datum": "WGS-84", "Batas_Ngr": "Australia", "StatusLaut": "Kesepakatan belum ratifikasi", "Jenis_Janj": "Treaty", "Janji_Tgl": "14 Maret", "Janji_Thn": 1997, "Ratif_Jns": "-", "Ratif_No": null, "Ratif_Thn": null }, "geometry": { "type": "Point", "coordinates": [ 123.371991234533965, -11.916312449496116 ] } },
{ "type": "Feature", "properties": { "fid": 75, "Titik": "Z112", "Lintang": -11.926885889545636, "Bujur": 123.38785139460825, "Jenis": "Bilateral", "TipeZona": "Batas ZEE", "Datum": "WGS-84", "Batas_Ngr": "Australia", "StatusLaut": "Kesepakatan belum ratifikasi", "Jenis_Janj": "Treaty", "Janji_Tgl": "14 Maret", "Janji_Thn": 1997, "Ratif_Jns": "-", "Ratif_No": null, "Ratif_Thn": null }, "geometry": { "type": "Point", "coordinates": [ 123.387851394608248, -11.926885889545636 ] } },
{ "type": "Feature", "properties": { "fid": 76, "Titik": "Z113", "Lintang": -11.936284502922987, "Bujur": 123.40194931467427, "Jenis": "Bilateral", "TipeZona": "Batas ZEE", "Datum": "WGS-84", "Batas_Ngr": "Australia", "StatusLaut": "Kesepakatan belum ratifikasi", "Jenis_Janj": "Treaty", "Janji_Tgl": "14 Maret", "Janji_Thn": 1997, "Ratif_Jns": "-", "Ratif_No": null, "Ratif_Thn": null }, "geometry": { "type": "Point", "coordinates": [ 123.401949314674269, -11.936284502922987 ] } },
{ "type": "Feature", "properties": { "fid": 77, "Titik": "Z114", "Lintang": -11.95273207633335, "Bujur": 123.41957171475681, "Jenis": "Bilateral", "TipeZona": "Batas ZEE", "Datum": "WGS-84", "Batas_Ngr": "Australia", "StatusLaut": "Kesepakatan belum ratifikasi", "Jenis_Janj": "Treaty", "Janji_Tgl": "14 Maret", "Janji_Thn": 1997, "Ratif_Jns": "-", "Ratif_No": null, "Ratif_Thn": null }, "geometry": { "type": "Point", "coordinates": [ 123.419571714756813, -11.95273207633335 ] } },
{ "type": "Feature", "properties": { "fid": 78, "Titik": "Z115", "Lintang": -11.965067756391123, "Bujur": 123.42838291479808, "Jenis": "Bilateral", "TipeZona": "Batas ZEE", "Datum": "WGS-84", "Batas_Ngr": "Australia", "StatusLaut": "Kesepakatan belum ratifikasi", "Jenis_Janj": "Treaty", "Janji_Tgl": "14 Maret", "Janji_Thn": 1997, "Ratif_Jns": "-", "Ratif_No": null, "Ratif_Thn": null }, "geometry": { "type": "Point", "coordinates": [ 123.428382914798078, -11.965067756391123 ] } },
{ "type": "Feature", "properties": { "fid": 79, "Titik": "Z116", "Lintang": -11.97387895643239, "Bujur": 123.43543187483108, "Jenis": "Bilateral", "TipeZona": "Batas ZEE", "Datum": "WGS-84", "Batas_Ngr": "Australia", "StatusLaut": "Kesepakatan belum ratifikasi", "Jenis_Janj": "Treaty", "Janji_Tgl": "14 Maret", "Janji_Thn": 1997, "Ratif_Jns": "-", "Ratif_No": null, "Ratif_Thn": null }, "geometry": { "type": "Point", "coordinates": [ 123.435431874831082, -11.97387895643239 ] } },
{ "type": "Feature", "properties": { "fid": 80, "Titik": "Z117", "Lintang": -11.98327756980974, "Bujur": 123.44306824820018, "Jenis": "Bilateral", "TipeZona": "Batas ZEE", "Datum": "WGS-84", "Batas_Ngr": "Australia", "StatusLaut": "Kesepakatan belum ratifikasi", "Jenis_Janj": "Treaty", "Janji_Tgl": "14 Maret", "Janji_Thn": 1997, "Ratif_Jns": "-", "Ratif_No": null, "Ratif_Thn": null }, "geometry": { "type": "Point", "coordinates": [ 123.443068248200177, -11.98327756980974 ] } },
{ "type": "Feature", "properties": { "fid": 81, "Titik": "Z118", "Lintang": -11.994438423195344, "Bujur": 123.45070462156929, "Jenis": "Bilateral", "TipeZona": "Batas ZEE", "Datum": "WGS-84", "Batas_Ngr": "Australia", "StatusLaut": "Kesepakatan belum ratifikasi", "Jenis_Janj": "Treaty", "Janji_Tgl": "14 Maret", "Janji_Thn": 1997, "Ratif_Jns": "-", "Ratif_No": null, "Ratif_Thn": null }, "geometry": { "type": "Point", "coordinates": [ 123.450704621569287, -11.994438423195344 ] } },
{ "type": "Feature", "properties": { "fid": 82, "Titik": "Z119", "Lintang": -12.000312556556189, "Bujur": 123.4536416882497, "Jenis": "Bilateral", "TipeZona": "Batas ZEE", "Datum": "WGS-84", "Batas_Ngr": "Australia", "StatusLaut": "Kesepakatan belum ratifikasi", "Jenis_Janj": "Treaty", "Janji_Tgl": "14 Maret", "Janji_Thn": 1997, "Ratif_Jns": "-", "Ratif_No": null, "Ratif_Thn": null }, "geometry": { "type": "Point", "coordinates": [ 123.453641688249704, -12.000312556556189 ] } },
{ "type": "Feature", "properties": { "fid": 83, "Titik": "Z120", "Lintang": -12.009123756597456, "Bujur": 123.45951582161055, "Jenis": "Bilateral", "TipeZona": "Batas ZEE", "Datum": "WGS-84", "Batas_Ngr": "Australia", "StatusLaut": "Kesepakatan belum ratifikasi", "Jenis_Janj": "Treaty", "Janji_Tgl": "14 Maret", "Janji_Thn": 1997, "Ratif_Jns": "-", "Ratif_No": null, "Ratif_Thn": null }, "geometry": { "type": "Point", "coordinates": [ 123.459515821610552, -12.009123756597456 ] } },
{ "type": "Feature", "properties": { "fid": 84, "Titik": "Z121", "Lintang": -12.019109783310894, "Bujur": 123.4653899549714, "Jenis": "Bilateral", "TipeZona": "Batas ZEE", "Datum": "WGS-84", "Batas_Ngr": "Australia", "StatusLaut": "Kesepakatan belum ratifikasi", "Jenis_Janj": "Treaty", "Janji_Tgl": "14 Maret", "Janji_Thn": 1997, "Ratif_Jns": "-", "Ratif_No": null, "Ratif_Thn": null }, "geometry": { "type": "Point", "coordinates": [ 123.4653899549714, -12.019109783310894 ] } },
{ "type": "Feature", "properties": { "fid": 85, "Titik": "Z122", "Lintang": -12.027920983352161, "Bujur": 123.47008926166008, "Jenis": "Bilateral", "TipeZona": "Batas ZEE", "Datum": "WGS-84", "Batas_Ngr": "Australia", "StatusLaut": "Kesepakatan belum ratifikasi", "Jenis_Janj": "Treaty", "Janji_Tgl": "14 Maret", "Janji_Thn": 1997, "Ratif_Jns": "-", "Ratif_No": null, "Ratif_Thn": null }, "geometry": { "type": "Point", "coordinates": [ 123.470089261660078, -12.027920983352161 ] } },
{ "type": "Feature", "properties": { "fid": 86, "Titik": "Z123", "Lintang": -12.048480450115115, "Bujur": 123.48125011504568, "Jenis": "Bilateral", "TipeZona": "Batas ZEE", "Datum": "WGS-84", "Batas_Ngr": "Australia", "StatusLaut": "Kesepakatan belum ratifikasi", "Jenis_Janj": "Treaty", "Janji_Tgl": "14 Maret", "Janji_Thn": 1997, "Ratif_Jns": "-", "Ratif_No": null, "Ratif_Thn": null }, "geometry": { "type": "Point", "coordinates": [ 123.481250115045682, -12.048480450115115 ] } },
{ "type": "Feature", "properties": { "fid": 87, "Titik": "Z124", "Lintang": -12.068452503541986, "Bujur": 123.49417320843953, "Jenis": "Bilateral", "TipeZona": "Batas ZEE", "Datum": "WGS-84", "Batas_Ngr": "Australia", "StatusLaut": "Kesepakatan belum ratifikasi", "Jenis_Janj": "Treaty", "Janji_Tgl": "14 Maret", "Janji_Thn": 1997, "Ratif_Jns": "-", "Ratif_No": null, "Ratif_Thn": null }, "geometry": { "type": "Point", "coordinates": [ 123.494173208439534, -12.068452503541986 ] } },
{ "type": "Feature", "properties": { "fid": 88, "Titik": "Z125", "Lintang": -12.086074903624517, "Bujur": 123.50357182181689, "Jenis": "Bilateral", "TipeZona": "Batas ZEE", "Datum": "WGS-84", "Batas_Ngr": "Australia", "StatusLaut": "Kesepakatan belum ratifikasi", "Jenis_Janj": "Treaty", "Janji_Tgl": "14 Maret", "Janji_Thn": 1997, "Ratif_Jns": "-", "Ratif_No": null, "Ratif_Thn": null }, "geometry": { "type": "Point", "coordinates": [ 123.503571821816891, -12.086074903624517 ] } },
{ "type": "Feature", "properties": { "fid": 89, "Titik": "Z126", "Lintang": -12.094886103665784, "Bujur": 123.50885854184165, "Jenis": "Bilateral", "TipeZona": "Batas ZEE", "Datum": "WGS-84", "Batas_Ngr": "Australia", "StatusLaut": "Kesepakatan belum ratifikasi", "Jenis_Janj": "Treaty", "Janji_Tgl": "14 Maret", "Janji_Thn": 1997, "Ratif_Jns": "-", "Ratif_No": null, "Ratif_Thn": null }, "geometry": { "type": "Point", "coordinates": [ 123.508858541841647, -12.094886103665784 ] } },
{ "type": "Feature", "properties": { "fid": 90, "Titik": "Z127", "Lintang": -12.097823170346206, "Bujur": 123.51062078184989, "Jenis": "Bilateral", "TipeZona": "Batas ZEE", "Datum": "WGS-84", "Batas_Ngr": "Australia", "StatusLaut": "Kesepakatan belum ratifikasi", "Jenis_Janj": "Treaty", "Janji_Tgl": "14 Maret", "Janji_Thn": 1997, "Ratif_Jns": "-", "Ratif_No": null, "Ratif_Thn": null }, "geometry": { "type": "Point", "coordinates": [ 123.510620781849894, -12.097823170346206 ] } },
{ "type": "Feature", "properties": { "fid": 91, "Titik": "Z128", "Lintang": -12.103697303707042, "Bujur": 123.51297043519425, "Jenis": "Bilateral", "TipeZona": "Batas ZEE", "Datum": "WGS-84", "Batas_Ngr": "Australia", "StatusLaut": "Kesepakatan belum ratifikasi", "Jenis_Janj": "Treaty", "Janji_Tgl": "14 Maret", "Janji_Thn": 1997, "Ratif_Jns": "-", "Ratif_No": null, "Ratif_Thn": null }, "geometry": { "type": "Point", "coordinates": [ 123.512970435194248, -12.103697303707042 ] } },
{ "type": "Feature", "properties": { "fid": 92, "Titik": "Z129", "Lintang": -12.12719383715042, "Bujur": 123.5203131018953, "Jenis": "Bilateral", "TipeZona": "Batas ZEE", "Datum": "WGS-84", "Batas_Ngr": "Australia", "StatusLaut": "Kesepakatan belum ratifikasi", "Jenis_Janj": "Treaty", "Janji_Tgl": "14 Maret", "Janji_Thn": 1997, "Ratif_Jns": "-", "Ratif_No": null, "Ratif_Thn": null }, "geometry": { "type": "Point", "coordinates": [ 123.520313101895297, -12.12719383715042 ] } },
{ "type": "Feature", "properties": { "fid": 93, "Titik": "Z130", "Lintang": -12.140704343880362, "Bujur": 123.52559982192005, "Jenis": "Bilateral", "TipeZona": "Batas ZEE", "Datum": "WGS-84", "Batas_Ngr": "Australia", "StatusLaut": "Kesepakatan belum ratifikasi", "Jenis_Janj": "Treaty", "Janji_Tgl": "14 Maret", "Janji_Thn": 1997, "Ratif_Jns": "-", "Ratif_No": null, "Ratif_Thn": null }, "geometry": { "type": "Point", "coordinates": [ 123.525599821920054, -12.140704343880362 ] } },
{ "type": "Feature", "properties": { "fid": 94, "Titik": "Z131", "Lintang": -12.170075010684583, "Bujur": 123.53441102196132, "Jenis": "Bilateral", "TipeZona": "Batas ZEE", "Datum": "WGS-84", "Batas_Ngr": "Australia", "StatusLaut": "Kesepakatan belum ratifikasi", "Jenis_Janj": "Treaty", "Janji_Tgl": "14 Maret", "Janji_Thn": 1997, "Ratif_Jns": "-", "Ratif_No": null, "Ratif_Thn": null }, "geometry": { "type": "Point", "coordinates": [ 123.534411021961319, -12.170075010684583 ] } },
{ "type": "Feature", "properties": { "fid": 95, "Titik": "Z132", "Lintang": -12.198858264152719, "Bujur": 123.54145998199434, "Jenis": "Bilateral", "TipeZona": "Batas ZEE", "Datum": "WGS-84", "Batas_Ngr": "Australia", "StatusLaut": "Kesepakatan belum ratifikasi", "Jenis_Janj": "Treaty", "Janji_Tgl": "14 Maret", "Janji_Thn": 1997, "Ratif_Jns": "-", "Ratif_No": null, "Ratif_Thn": null }, "geometry": { "type": "Point", "coordinates": [ 123.541459981994336, -12.198858264152719 ] } },
{ "type": "Feature", "properties": { "fid": 96, "Titik": "Z133", "Lintang": -12.24937581105598, "Bujur": 123.54498446201085, "Jenis": "Bilateral", "TipeZona": "Batas ZEE", "Datum": "WGS-84", "Batas_Ngr": "Australia", "StatusLaut": "Kesepakatan belum ratifikasi", "Jenis_Janj": "Treaty", "Janji_Tgl": "14 Maret", "Janji_Thn": 1997, "Ratif_Jns": "-", "Ratif_No": null, "Ratif_Thn": null }, "geometry": { "type": "Point", "coordinates": [ 123.544984462010845, -12.24937581105598 ] } },
{ "type": "Feature", "properties": { "fid": 97, "Titik": "Z134", "Lintang": -12.310466798008759, "Bujur": 123.55085859537169, "Jenis": "Bilateral", "TipeZona": "Batas ZEE", "Datum": "WGS-84", "Batas_Ngr": "Australia", "StatusLaut": "Kesepakatan belum ratifikasi", "Jenis_Janj": "Treaty", "Janji_Tgl": "14 Maret", "Janji_Thn": 1997, "Ratif_Jns": "-", "Ratif_No": null, "Ratif_Thn": null }, "geometry": { "type": "Point", "coordinates": [ 123.550858595371693, -12.310466798008759 ] } },
{ "type": "Feature", "properties": { "fid": 98, "Titik": "Z135", "Lintang": -11.7833, "Bujur": 125.3333, "Jenis": "Bilateral", "TipeZona": "Batas ZEE", "Datum": "WGS-84", "Batas_Ngr": "Australia", "StatusLaut": "Kesepakatan belum ratifikasi", "Jenis_Janj": "Treaty", "Janji_Tgl": "14 Maret", "Janji_Thn": 1997, "Ratif_Jns": "-", "Ratif_No": null, "Ratif_Thn": null }, "geometry": { "type": "Point", "coordinates": [ 125.3333, -11.7833 ] } },
{ "type": "Feature", "properties": { "fid": 99, "Titik": "Z136", "Lintang": -11.75, "Bujur": 125.4167, "Jenis": "Bilateral", "TipeZona": "Batas ZEE", "Datum": "WGS-84", "Batas_Ngr": "Australia", "StatusLaut": "Kesepakatan belum ratifikasi", "Jenis_Janj": "Treaty", "Janji_Tgl": "14 Maret", "Janji_Thn": 1997, "Ratif_Jns": "-", "Ratif_No": null, "Ratif_Thn": null }, "geometry": { "type": "Point", "coordinates": [ 125.4167, -11.75 ] } },
{ "type": "Feature", "properties": { "fid": 100, "Titik": "Z137", "Lintang": -11.6167, "Bujur": 125.75, "Jenis": "Bilateral", "TipeZona": "Batas ZEE", "Datum": "WGS-84", "Batas_Ngr": "Australia", "StatusLaut": "Kesepakatan belum ratifikasi", "Jenis_Janj": "Treaty", "Janji_Tgl": "14 Maret", "Janji_Thn": 1997, "Ratif_Jns": "-", "Ratif_No": null, "Ratif_Thn": null }, "geometry": { "type": "Point", "coordinates": [ 125.75, -11.6167 ] } },
{ "type": "Feature", "properties": { "fid": 101, "Titik": "Z138", "Lintang": -11.5167, "Bujur": 126.0, "Jenis": "Bilateral", "TipeZona": "Batas ZEE", "Datum": "WGS-84", "Batas_Ngr": "Australia", "StatusLaut": "Kesepakatan belum ratifikasi", "Jenis_Janj": "Treaty", "Janji_Tgl": "14 Maret", "Janji_Thn": 1997, "Ratif_Jns": "-", "Ratif_No": null, "Ratif_Thn": null }, "geometry": { "type": "Point", "coordinates": [ 126.0, -11.5167 ] } },
{ "type": "Feature", "properties": { "fid": 102, "Titik": "Z139", "Lintang": -11.4333, "Bujur": 126.2, "Jenis": "Bilateral", "TipeZona": "Batas ZEE", "Datum": "WGS-84", "Batas_Ngr": "Australia", "StatusLaut": "Kesepakatan belum ratifikasi", "Jenis_Janj": "Treaty", "Janji_Tgl": "14 Maret", "Janji_Thn": 1997, "Ratif_Jns": "-", "Ratif_No": null, "Ratif_Thn": null }, "geometry": { "type": "Point", "coordinates": [ 126.2, -11.4333 ] } },
{ "type": "Feature", "properties": { "fid": 103, "Titik": "Z140", "Lintang": -11.35, "Bujur": 126.4667, "Jenis": "Bilateral", "TipeZona": "Batas ZEE", "Datum": "WGS-84", "Batas_Ngr": "Australia", "StatusLaut": "Kesepakatan belum ratifikasi", "Jenis_Janj": "Treaty", "Janji_Tgl": "14 Maret", "Janji_Thn": 1997, "Ratif_Jns": "-", "Ratif_No": null, "Ratif_Thn": null }, "geometry": { "type": "Point", "coordinates": [ 126.4667, -11.35 ] } },
{ "type": "Feature", "properties": { "fid": 104, "Titik": "Z141", "Lintang": -11.3333, "Bujur": 126.5167, "Jenis": "Bilateral", "TipeZona": "Batas ZEE", "Datum": "WGS-84", "Batas_Ngr": "Australia", "StatusLaut": "Kesepakatan belum ratifikasi", "Jenis_Janj": "Treaty", "Janji_Tgl": "14 Maret", "Janji_Thn": 1997, "Ratif_Jns": "-", "Ratif_No": null, "Ratif_Thn": null }, "geometry": { "type": "Point", "coordinates": [ 126.5167, -11.3333 ] } },
{ "type": "Feature", "properties": { "fid": 105, "Titik": "Z142", "Lintang": -11.3341, "Bujur": 126.5329, "Jenis": "Bilateral", "TipeZona": "Batas ZEE", "Datum": "WGS-84", "Batas_Ngr": "Australia", "StatusLaut": "Kesepakatan belum ratifikasi", "Jenis_Janj": "Treaty", "Janji_Tgl": "14 Maret", "Janji_Thn": 1997, "Ratif_Jns": "-", "Ratif_No": null, "Ratif_Thn": null }, "geometry": { "type": "Point", "coordinates": [ 126.5329, -11.3341 ] } },
{ "type": "Feature", "properties": { "fid": 106, "Titik": "Z143", "Lintang": -10.4866, "Bujur": 128.2079, "Jenis": "Bilateral", "TipeZona": "Batas ZEE", "Datum": "WGS-84", "Batas_Ngr": "Australia", "StatusLaut": "Kesepakatan belum ratifikasi", "Jenis_Janj": "Treaty", "Janji_Tgl": "14 Maret", "Janji_Thn": 1997, "Ratif_Jns": "-", "Ratif_No": null, "Ratif_Thn": null }, "geometry": { "type": "Point", "coordinates": [ 128.2079, -10.4866 ] } },
{ "type": "Feature", "properties": { "fid": 107, "Titik": "Z144", "Lintang": -10.4667, "Bujur": 128.2333, "Jenis": "Bilateral", "TipeZona": "Batas ZEE", "Datum": "WGS-84", "Batas_Ngr": "Australia", "StatusLaut": "Kesepakatan belum ratifikasi", "Jenis_Janj": "Treaty", "Janji_Tgl": "14 Maret", "Janji_Thn": 1997, "Ratif_Jns": "-", "Ratif_No": null, "Ratif_Thn": null }, "geometry": { "type": "Point", "coordinates": [ 128.2333, -10.4667 ] } },
{ "type": "Feature", "properties": { "fid": 108, "Titik": "Z145", "Lintang": -10.4333, "Bujur": 128.3, "Jenis": "Bilateral", "TipeZona": "Batas ZEE", "Datum": "WGS-84", "Batas_Ngr": "Australia", "StatusLaut": "Kesepakatan belum ratifikasi", "Jenis_Janj": "Treaty", "Janji_Tgl": "14 Maret", "Janji_Thn": 1997, "Ratif_Jns": "-", "Ratif_No": null, "Ratif_Thn": null }, "geometry": { "type": "Point", "coordinates": [ 128.3, -10.4333 ] } },
{ "type": "Feature", "properties": { "fid": 109, "Titik": "Z146", "Lintang": -9.9833, "Bujur": 129.0167, "Jenis": "Bilateral", "TipeZona": "Batas ZEE", "Datum": "WGS-84", "Batas_Ngr": "Australia", "StatusLaut": "Kesepakatan belum ratifikasi", "Jenis_Janj": "Treaty", "Janji_Tgl": "14 Maret", "Janji_Thn": 1997, "Ratif_Jns": "-", "Ratif_No": null, "Ratif_Thn": null }, "geometry": { "type": "Point", "coordinates": [ 129.0167, -9.9833 ] } },
{ "type": "Feature", "properties": { "fid": 110, "Titik": "Z147", "Lintang": -9.75, "Bujur": 129.5, "Jenis": "Bilateral", "TipeZona": "Batas ZEE", "Datum": "WGS-84", "Batas_Ngr": "Australia", "StatusLaut": "Kesepakatan belum ratifikasi", "Jenis_Janj": "Treaty", "Janji_Tgl": "14 Maret", "Janji_Thn": 1997, "Ratif_Jns": "-", "Ratif_No": null, "Ratif_Thn": null }, "geometry": { "type": "Point", "coordinates": [ 129.5, -9.75 ] } },
{ "type": "Feature", "properties": { "fid": 111, "Titik": "Z148", "Lintang": -9.65, "Bujur": 130.1, "Jenis": "Bilateral", "TipeZona": "Batas ZEE", "Datum": "WGS-84", "Batas_Ngr": "Australia", "StatusLaut": "Kesepakatan belum ratifikasi", "Jenis_Janj": "Treaty", "Janji_Tgl": "14 Maret", "Janji_Thn": 1997, "Ratif_Jns": "-", "Ratif_No": null, "Ratif_Thn": null }, "geometry": { "type": "Point", "coordinates": [ 130.1, -9.65 ] } },
{ "type": "Feature", "properties": { "fid": 112, "Titik": "Z149", "Lintang": -9.75, "Bujur": 130.7167, "Jenis": "Bilateral", "TipeZona": "Batas ZEE", "Datum": "WGS-84", "Batas_Ngr": "Australia", "StatusLaut": "Kesepakatan belum ratifikasi", "Jenis_Janj": "Treaty", "Janji_Tgl": "14 Maret", "Janji_Thn": 1997, "Ratif_Jns": "-", "Ratif_No": null, "Ratif_Thn": null }, "geometry": { "type": "Point", "coordinates": [ 130.7167, -9.75 ] } },
{ "type": "Feature", "properties": { "fid": 113, "Titik": "Z150", "Lintang": -9.7833, "Bujur": 130.9167, "Jenis": "Bilateral", "TipeZona": "Batas ZEE", "Datum": "WGS-84", "Batas_Ngr": "Australia", "StatusLaut": "Kesepakatan belum ratifikasi", "Jenis_Janj": "Treaty", "Janji_Tgl": "14 Maret", "Janji_Thn": 1997, "Ratif_Jns": "-", "Ratif_No": null, "Ratif_Thn": null }, "geometry": { "type": "Point", "coordinates": [ 130.9167, -9.7833 ] } },
{ "type": "Feature", "properties": { "fid": 114, "Titik": "Z151", "Lintang": -9.7, "Bujur": 131.4667, "Jenis": "Bilateral", "TipeZona": "Batas ZEE", "Datum": "WGS-84", "Batas_Ngr": "Australia", "StatusLaut": "Kesepakatan belum ratifikasi", "Jenis_Janj": "Treaty", "Janji_Tgl": "14 Maret", "Janji_Thn": 1997, "Ratif_Jns": "-", "Ratif_No": null, "Ratif_Thn": null }, "geometry": { "type": "Point", "coordinates": [ 131.4667, -9.7 ] } },
{ "type": "Feature", "properties": { "fid": 115, "Titik": "Z152", "Lintang": -9.6667, "Bujur": 131.5167, "Jenis": "Bilateral", "TipeZona": "Batas ZEE", "Datum": "WGS-84", "Batas_Ngr": "Australia", "StatusLaut": "Kesepakatan belum ratifikasi", "Jenis_Janj": "Treaty", "Janji_Tgl": "14 Maret", "Janji_Thn": 1997, "Ratif_Jns": "-", "Ratif_No": null, "Ratif_Thn": null }, "geometry": { "type": "Point", "coordinates": [ 131.5167, -9.6667 ] } },
{ "type": "Feature", "properties": { "fid": 116, "Titik": "Z153", "Lintang": -9.6, "Bujur": 131.7167, "Jenis": "Bilateral", "TipeZona": "Batas ZEE", "Datum": "WGS-84", "Batas_Ngr": "Australia", "StatusLaut": "Kesepakatan belum ratifikasi", "Jenis_Janj": "Treaty", "Janji_Tgl": "14 Maret", "Janji_Thn": 1997, "Ratif_Jns": "-", "Ratif_No": null, "Ratif_Thn": null }, "geometry": { "type": "Point", "coordinates": [ 131.7167, -9.6 ] } },
{ "type": "Feature", "properties": { "fid": 117, "Titik": "Z154", "Lintang": -9.55, "Bujur": 131.8667, "Jenis": "Bilateral", "TipeZona": "Batas ZEE", "Datum": "WGS-84", "Batas_Ngr": "Australia", "StatusLaut": "Kesepakatan belum ratifikasi", "Jenis_Janj": "Treaty", "Janji_Tgl": "14 Maret", "Janji_Thn": 1997, "Ratif_Jns": "-", "Ratif_No": null, "Ratif_Thn": null }, "geometry": { "type": "Point", "coordinates": [ 131.8667, -9.55 ] } },
{ "type": "Feature", "properties": { "fid": 118, "Titik": "Z155", "Lintang": -9.5167, "Bujur": 131.95, "Jenis": "Bilateral", "TipeZona": "Batas ZEE", "Datum": "WGS-84", "Batas_Ngr": "Australia", "StatusLaut": "Kesepakatan belum ratifikasi", "Jenis_Janj": "Treaty", "Janji_Tgl": "14 Maret", "Janji_Thn": 1997, "Ratif_Jns": "-", "Ratif_No": null, "Ratif_Thn": null }, "geometry": { "type": "Point", "coordinates": [ 131.95, -9.5167 ] } },
{ "type": "Feature", "properties": { "fid": 119, "Titik": "Z156", "Lintang": -9.3833, "Bujur": 132.2, "Jenis": "Bilateral", "TipeZona": "Batas ZEE", "Datum": "WGS-84", "Batas_Ngr": "Australia", "StatusLaut": "Kesepakatan belum ratifikasi", "Jenis_Janj": "Treaty", "Janji_Tgl": "14 Maret", "Janji_Thn": 1997, "Ratif_Jns": "-", "Ratif_No": null, "Ratif_Thn": null }, "geometry": { "type": "Point", "coordinates": [ 132.2, -9.3833 ] } },
{ "type": "Feature", "properties": { "fid": 120, "Titik": "Z157", "Lintang": -9.3333, "Bujur": 132.3333, "Jenis": "Bilateral", "TipeZona": "Batas ZEE", "Datum": "WGS-84", "Batas_Ngr": "Australia", "StatusLaut": "Kesepakatan belum ratifikasi", "Jenis_Janj": "Treaty", "Janji_Tgl": "14 Maret", "Janji_Thn": 1997, "Ratif_Jns": "-", "Ratif_No": null, "Ratif_Thn": null }, "geometry": { "type": "Point", "coordinates": [ 132.3333, -9.3333 ] } },
{ "type": "Feature", "properties": { "fid": 121, "Titik": "Z158", "Lintang": -9.2667, "Bujur": 132.5, "Jenis": "Bilateral", "TipeZona": "Batas ZEE", "Datum": "WGS-84", "Batas_Ngr": "Australia", "StatusLaut": "Kesepakatan belum ratifikasi", "Jenis_Janj": "Treaty", "Janji_Tgl": "14 Maret", "Janji_Thn": 1997, "Ratif_Jns": "-", "Ratif_No": null, "Ratif_Thn": null }, "geometry": { "type": "Point", "coordinates": [ 132.5, -9.2667 ] } },
{ "type": "Feature", "properties": { "fid": 122, "Titik": "Z159", "Lintang": -9.2333, "Bujur": 132.55, "Jenis": "Bilateral", "TipeZona": "Batas ZEE", "Datum": "WGS-84", "Batas_Ngr": "Australia", "StatusLaut": "Kesepakatan belum ratifikasi", "Jenis_Janj": "Treaty", "Janji_Tgl": "14 Maret", "Janji_Thn": 1997, "Ratif_Jns": "-", "Ratif_No": null, "Ratif_Thn": null }, "geometry": { "type": "Point", "coordinates": [ 132.55, -9.2333 ] } },
{ "type": "Feature", "properties": { "fid": 123, "Titik": "Z160", "Lintang": -9.1, "Bujur": 132.7667, "Jenis": "Bilateral", "TipeZona": "Batas ZEE", "Datum": "WGS-84", "Batas_Ngr": "Australia", "StatusLaut": "Kesepakatan belum ratifikasi", "Jenis_Janj": "Treaty", "Janji_Tgl": "14 Maret", "Janji_Thn": 1997, "Ratif_Jns": "-", "Ratif_No": null, "Ratif_Thn": null }, "geometry": { "type": "Point", "coordinates": [ 132.7667, -9.1 ] } },
{ "type": "Feature", "properties": { "fid": 124, "Titik": "Z161", "Lintang": -8.8833333333333293, "Bujur": 133.38333333333298, "Jenis": "Bilateral", "TipeZona": "Batas ZEE", "Datum": "WGS-84", "Batas_Ngr": "Australia", "StatusLaut": "Kesepakatan belum ratifikasi", "Jenis_Janj": "Treaty", "Janji_Tgl": "14 Maret", "Janji_Thn": 1997, "Ratif_Jns": "-", "Ratif_No": null, "Ratif_Thn": null }, "geometry": { "type": "Point", "coordinates": [ 133.383333333332985, -8.883333333333329 ] } }
]
}
