{
"type": "FeatureCollection",
"name": "TitikPerjanjian_LandasKontinen",
"crs": { "type": "name", "properties": { "name": "urn:ogc:def:crs:OGC:1.3:CRS84" } },
"features": [
{ "type": "Feature", "properties": { "fid": 1, "Titik": null, "Lintang": 7.7683, "Bujur": 95.5517, "Jenis": "Bilateral", "TipeZona": "Batas Landas Kontinen", "Datum": "WGS-84", "Batas_Ngr": "Thailand", "StatusLaut": "Kesepakatan sudah ratifikasi", "Jenis_Janj": "Treaty", "Janji_Tgl": "11 Desember", "Janji_Thn": 1975, "Ratif_Jns": "KEPPRES", "Ratif_No": 1, "Ratif_Thn": 1977 }, "geometry": { "type": "Point", "coordinates": [ 95.5517, 7.7683 ] } },
{ "type": "Feature", "properties": { "fid": 2, "Titik": "1", "Lintang": 6.6417, "Bujur": 94.6333, "Jenis": "Bilateral", "TipeZona": "Batas Landas Kontinen", "Datum": "WGS-84", "Batas_Ngr": "India", "StatusLaut": "Kesepakatan sudah ratifikasi", "Jenis_Janj": "Agreement", "Janji_Tgl": "8 Agustus", "Janji_Thn": 1974, "Ratif_Jns": "KEPPRES", "Ratif_No": 54, "Ratif_Thn": 1974 }, "geometry": { "type": "Point", "coordinates": [ 94.6333, 6.6417 ] } },
{ "type": "Feature", "properties": { "fid": 3, "Titik": "2", "Lintang": 6.5, "Bujur": 94.54, "Jenis": "Bilateral", "TipeZona": "Batas Landas Kontinen", "Datum": "WGS-84", "Batas_Ngr": "India", "StatusLaut": "Kesepakatan sudah ratifikasi", "Jenis_Janj": "Agreement", "Janji_Tgl": "8 Agustus", "Janji_Thn": 1974, "Ratif_Jns": "KEPPRES", "Ratif_No": 54, "Ratif_Thn": 1974 }, "geometry": { "type": "Point", "coordinates": [ 94.54, 6.5 ] } },
{ "type": "Feature", "properties": { "fid": 4, "Titik": "3", "Lintang": 6.27, "Bujur": 94.4033, "Jenis": "Bilateral", "TipeZona": "Batas Landas Kontinen", "Datum": "WGS-84", "Batas_Ngr": "India", "StatusLaut": "Kesepakatan sudah ratifikasi", "Jenis_Janj": "Agreement", "Janji_Tgl": "8 Agustus", "Janji_Thn": 1974, "Ratif_Jns": "KEPPRES", "Ratif_No": 54, "Ratif_Thn": 1974 }, "geometry": { "type": "Point", "coordinates": [ 94.4033, 6.27 ] } },
{ "type": "Feature", "properties": { "fid": 5, "Titik": "4", "Lintang": 6.0, "Bujur": 94.1717, "Jenis": "Bilateral", "TipeZona": "Batas Landas Kontinen", "Datum": "WGS-84", "Batas_Ngr": "India", "StatusLaut": "Kesepakatan sudah ratifikasi", "Jenis_Janj": "Agreement", "Janji_Tgl": "8 Agustus", "Janji_Thn": 1974, "Ratif_Jns": "KEPPRES", "Ratif_No": 54, "Ratif_Thn": 1974 }, "geometry": { "type": "Point", "coordinates": [ 94.1717, 6.0 ] } },
{ "type": "Feature", "properties": { "fid": 6, "Titik": "1", "Lintang": 6.6417, "Bujur": 94.6333, "Jenis": "Bilateral", "TipeZona": "Batas Landas Kontinen", "Datum": "WGS-84", "Batas_Ngr": "India", "StatusLaut": "Kesepakatan sudah ratifikasi", "Jenis_Janj": "Agreement", "Janji_Tgl": "14 Januari", "Janji_Thn": 1977, "Ratif_Jns": "KEPPRES", "Ratif_No": 26, "Ratif_Thn": 1977 }, "geometry": { "type": "Point", "coordinates": [ 94.6333, 6.6417 ] } },
{ "type": "Feature", "properties": { "fid": 7, "Titik": "K", "Lintang": 7.04, "Bujur": 94.9269, "Jenis": "Bilateral", "TipeZona": "Batas Landas Kontinen", "Datum": "WGS-84", "Batas_Ngr": "India", "StatusLaut": "Kesepakatan sudah ratifikasi", "Jenis_Janj": "Agreement", "Janji_Tgl": "14 Januari", "Janji_Thn": 1977, "Ratif_Jns": "KEPPRES", "Ratif_No": 26, "Ratif_Thn": 1977 }, "geometry": { "type": "Point", "coordinates": [ 94.9269, 7.04 ] } },
{ "type": "Feature", "properties": { "fid": 8, "Titik": "N", "Lintang": 7.6683, "Bujur": 95.4292, "Jenis": "Bilateral", "TipeZona": "Batas Landas Kontinen", "Datum": "WGS-84", "Batas_Ngr": "India", "StatusLaut": "Kesepakatan sudah ratifikasi", "Jenis_Janj": "Agreement", "Janji_Tgl": "14 Januari", "Janji_Thn": 1977, "Ratif_Jns": "KEPPRES", "Ratif_No": 26, "Ratif_Thn": 1977 }, "geometry": { "type": "Point", "coordinates": [ 95.4292, 7.6683 ] } },
{ "type": "Feature", "properties": { "fid": 9, "Titik": "O", "Lintang": 7.7683, "Bujur": 95.52, "Jenis": "Bilateral", "TipeZona": "Batas Landas Kontinen", "Datum": "WGS-84", "Batas_Ngr": "India", "StatusLaut": "Kesepakatan sudah ratifikasi", "Jenis_Janj": "Agreement", "Janji_Tgl": "14 Januari", "Janji_Thn": 1977, "Ratif_Jns": "KEPPRES", "Ratif_No": 26, "Ratif_Thn": 1977 }, "geometry": { "type": "Point", "coordinates": [ 95.52, 7.7683 ] } },
{ "type": "Feature", "properties": { "fid": 10, "Titik": "4", "Lintang": 6.0, "Bujur": 94.1717, "Jenis": "Bilateral", "TipeZona": "Batas Landas Kontinen", "Datum": "WGS-84", "Batas_Ngr": "India", "StatusLaut": "Kesepakatan sudah ratifikasi", "Jenis_Janj": "Agreement", "Janji_Tgl": "14 Januari", "Janji_Thn": 1977, "Ratif_Jns": "KEPPRES", "Ratif_No": 26, "Ratif_Thn": 1977 }, "geometry": { "type": "Point", "coordinates": [ 94.1717, 6.0 ] } },
{ "type": "Feature", "properties": { "fid": 11, "Titik": "R", "Lintang": 5.4222, "Bujur": 93.6867, "Jenis": "Bilateral", "TipeZona": "Batas Landas Kontinen", "Datum": "WGS-84", "Batas_Ngr": "India", "StatusLaut": "Kesepakatan sudah ratifikasi", "Jenis_Janj": "Agreement", "Janji_Tgl": "14 Januari", "Janji_Thn": 1977, "Ratif_Jns": "KEPPRES", "Ratif_No": 26, "Ratif_Thn": 1977 }, "geometry": { "type": "Point", "coordinates": [ 93.6867, 5.4222 ] } },
{ "type": "Feature", "properties": { "fid": 12, "Titik": "S", "Lintang": 4.4594, "Bujur": 92.8547, "Jenis": "Bilateral", "TipeZona": "Batas Landas Kontinen", "Datum": "WGS-84", "Batas_Ngr": "India", "StatusLaut": "Kesepakatan sudah ratifikasi", "Jenis_Janj": "Agreement", "Janji_Tgl": "14 Januari", "Janji_Thn": 1977, "Ratif_Jns": "KEPPRES", "Ratif_No": 26, "Ratif_Thn": 1977 }, "geometry": { "type": "Point", "coordinates": [ 92.8547, 4.4594 ] } },
{ "type": "Feature", "properties": { "fid": 13, "Titik": "T", "Lintang": 4.3086, "Bujur": 92.7253, "Jenis": "Bilateral", "TipeZona": "Batas Landas Kontinen", "Datum": "WGS-84", "Batas_Ngr": "India", "StatusLaut": "Kesepakatan sudah ratifikasi", "Jenis_Janj": "Agreement", "Janji_Tgl": "14 Januari", "Janji_Thn": 1977, "Ratif_Jns": "KEPPRES", "Ratif_No": 26, "Ratif_Thn": 1977 }, "geometry": { "type": "Point", "coordinates": [ 92.7253, 4.3086 ] } },
{ "type": "Feature", "properties": { "fid": 14, "Titik": "U", "Lintang": 4.0278, "Bujur": 92.3986, "Jenis": "Bilateral", "TipeZona": "Batas Landas Kontinen", "Datum": "WGS-84", "Batas_Ngr": "India", "StatusLaut": "Kesepakatan sudah ratifikasi", "Jenis_Janj": "Agreement", "Janji_Tgl": "14 Januari", "Janji_Thn": 1977, "Ratif_Jns": "KEPPRES", "Ratif_No": 26, "Ratif_Thn": 1977 }, "geometry": { "type": "Point", "coordinates": [ 92.3986, 4.0278 ] } },
{ "type": "Feature", "properties": { "fid": 15, "Titik": "A1", "Lintang": -9.8667, "Bujur": 140.4833, "Jenis": "Bilateral", "TipeZona": "Batas Landas Kontinen", "Datum": "WGS-84", "Batas_Ngr": "Australia", "StatusLaut": "Kesepakatan sudah ratifikasi", "Jenis_Janj": "Agreement", "Janji_Tgl": "18 Mei", "Janji_Thn": 1971, "Ratif_Jns": "KEPPRES", "Ratif_No": 42, "Ratif_Thn": 1971 }, "geometry": { "type": "Point", "coordinates": [ 140.4833, -9.8667 ] } },
{ "type": "Feature", "properties": { "fid": 16, "Titik": "A2", "Lintang": -10.4, "Bujur": 139.7667, "Jenis": "Bilateral", "TipeZona": "Batas Landas Kontinen", "Datum": "WGS-84", "Batas_Ngr": "Australia", "StatusLaut": "Kesepakatan sudah ratifikasi", "Jenis_Janj": "Agreement", "Janji_Tgl": "18 Mei", "Janji_Thn": 1971, "Ratif_Jns": "KEPPRES", "Ratif_No": 42, "Ratif_Thn": 1971 }, "geometry": { "type": "Point", "coordinates": [ 139.7667, -10.4 ] } },
{ "type": "Feature", "properties": { "fid": 17, "Titik": "A3", "Lintang": -10.8333, "Bujur": 139.2, "Jenis": "Bilateral", "TipeZona": "Batas Landas Kontinen", "Datum": "WGS-84", "Batas_Ngr": "Australia", "StatusLaut": "Kesepakatan sudah ratifikasi", "Jenis_Janj": "Agreement", "Janji_Tgl": "18 Mei", "Janji_Thn": 1971, "Ratif_Jns": "KEPPRES", "Ratif_No": 42, "Ratif_Thn": 1971 }, "geometry": { "type": "Point", "coordinates": [ 139.2, -10.8333 ] } },
{ "type": "Feature", "properties": { "fid": 18, "Titik": "A4", "Lintang": -10.4, "Bujur": 138.6333, "Jenis": "Bilateral", "TipeZona": "Batas Landas Kontinen", "Datum": "WGS-84", "Batas_Ngr": "Australia", "StatusLaut": "Kesepakatan sudah ratifikasi", "Jenis_Janj": "Agreement", "Janji_Tgl": "18 Mei", "Janji_Thn": 1971, "Ratif_Jns": "KEPPRES", "Ratif_No": 42, "Ratif_Thn": 1971 }, "geometry": { "type": "Point", "coordinates": [ 138.6333, -10.4 ] } },
{ "type": "Feature", "properties": { "fid": 19, "Titik": "A5", "Lintang": -10.3667, "Bujur": 138.5833, "Jenis": "Bilateral", "TipeZona": "Batas Landas Kontinen", "Datum": "WGS-84", "Batas_Ngr": "Australia", "StatusLaut": "Kesepakatan sudah ratifikasi", "Jenis_Janj": "Agreement", "Janji_Tgl": "18 Mei", "Janji_Thn": 1971, "Ratif_Jns": "KEPPRES", "Ratif_No": 42, "Ratif_Thn": 1971 }, "geometry": { "type": "Point", "coordinates": [ 138.5833, -10.3667 ] } },
{ "type": "Feature", "properties": { "fid": 20, "Titik": "A6", "Lintang": -10.15, "Bujur": 138.2167, "Jenis": "Bilateral", "TipeZona": "Batas Landas Kontinen", "Datum": "WGS-84", "Batas_Ngr": "Australia", "StatusLaut": "Kesepakatan sudah ratifikasi", "Jenis_Janj": "Agreement", "Janji_Tgl": "18 Mei", "Janji_Thn": 1971, "Ratif_Jns": "KEPPRES", "Ratif_No": 42, "Ratif_Thn": 1971 }, "geometry": { "type": "Point", "coordinates": [ 138.2167, -10.15 ] } },
{ "type": "Feature", "properties": { "fid": 21, "Titik": "A7", "Lintang": -9.95, "Bujur": 137.75, "Jenis": "Bilateral", "TipeZona": "Batas Landas Kontinen", "Datum": "WGS-84", "Batas_Ngr": "Australia", "StatusLaut": "Kesepakatan sudah ratifikasi", "Jenis_Janj": "Agreement", "Janji_Tgl": "18 Mei", "Janji_Thn": 1971, "Ratif_Jns": "KEPPRES", "Ratif_No": 42, "Ratif_Thn": 1971 }, "geometry": { "type": "Point", "coordinates": [ 137.75, -9.95 ] } },
{ "type": "Feature", "properties": { "fid": 22, "Titik": "A8", "Lintang": -9.1333, "Bujur": 135.4833, "Jenis": "Bilateral", "TipeZona": "Batas Landas Kontinen", "Datum": "WGS-84", "Batas_Ngr": "Australia", "StatusLaut": "Kesepakatan sudah ratifikasi", "Jenis_Janj": "Agreement", "Janji_Tgl": "18 Mei", "Janji_Thn": 1971, "Ratif_Jns": "KEPPRES", "Ratif_No": 42, "Ratif_Thn": 1971 }, "geometry": { "type": "Point", "coordinates": [ 135.4833, -9.1333 ] } },
{ "type": "Feature", "properties": { "fid": 23, "Titik": "A9", "Lintang": -9.2833, "Bujur": 135.2167, "Jenis": "Bilateral", "TipeZona": "Batas Landas Kontinen", "Datum": "WGS-84", "Batas_Ngr": "Australia", "StatusLaut": "Kesepakatan sudah ratifikasi", "Jenis_Janj": "Agreement", "Janji_Tgl": "18 Mei", "Janji_Thn": 1971, "Ratif_Jns": "KEPPRES", "Ratif_No": 42, "Ratif_Thn": 1971 }, "geometry": { "type": "Point", "coordinates": [ 135.2167, -9.2833 ] } },
{ "type": "Feature", "properties": { "fid": 24, "Titik": "A10", "Lintang": -9.3667, "Bujur": 135.05, "Jenis": "Bilateral", "TipeZona": "Batas Landas Kontinen", "Datum": "WGS-84", "Batas_Ngr": "Australia", "StatusLaut": "Kesepakatan sudah ratifikasi", "Jenis_Janj": "Agreement", "Janji_Tgl": "18 Mei", "Janji_Thn": 1971, "Ratif_Jns": "KEPPRES", "Ratif_No": 42, "Ratif_Thn": 1971 }, "geometry": { "type": "Point", "coordinates": [ 135.05, -9.3667 ] } },
{ "type": "Feature", "properties": { "fid": 25, "Titik": "A11", "Lintang": -9.4167, "Bujur": 134.8333, "Jenis": "Bilateral", "TipeZona": "Batas Landas Kontinen", "Datum": "WGS-84", "Batas_Ngr": "Australia", "StatusLaut": "Kesepakatan sudah ratifikasi", "Jenis_Janj": "Agreement", "Janji_Tgl": "18 Mei", "Janji_Thn": 1971, "Ratif_Jns": "KEPPRES", "Ratif_No": 42, "Ratif_Thn": 1971 }, "geometry": { "type": "Point", "coordinates": [ 134.8333, -9.4167 ] } },
{ "type": "Feature", "properties": { "fid": 26, "Titik": "A12", "Lintang": -8.8833, "Bujur": 133.3833, "Jenis": "Bilateral", "TipeZona": "Batas Landas Kontinen", "Datum": "WGS-84", "Batas_Ngr": "Australia", "StatusLaut": "Kesepakatan sudah ratifikasi", "Jenis_Janj": "Agreement", "Janji_Tgl": "18 Mei", "Janji_Thn": 1971, "Ratif_Jns": "KEPPRES", "Ratif_No": 42, "Ratif_Thn": 1971 }, "geometry": { "type": "Point", "coordinates": [ 133.3833, -8.8833 ] } },
{ "type": "Feature", "properties": { "fid": 27, "Titik": "C3", "Lintang": -1.076388889, "Bujur": 141.4, "Jenis": "Bilateral", "TipeZona": "Batas Landas Kontinen", "Datum": "WGS-84", "Batas_Ngr": "Papua New Guinea", "StatusLaut": "Kesepakatan sudah ratifikasi", "Jenis_Janj": "Agreement", "Janji_Tgl": "13 Desember", "Janji_Thn": 1980, "Ratif_Jns": "KEPPRES", "Ratif_No": 21, "Ratif_Thn": 1982 }, "geometry": { "type": "Point", "coordinates": [ 141.4, -1.076388889 ] } },
{ "type": "Feature", "properties": { "fid": 28, "Titik": "C4", "Lintang": 0.736111111, "Bujur": 140.8194444, "Jenis": "Bilateral", "TipeZona": "Batas Landas Kontinen", "Datum": "WGS-84", "Batas_Ngr": "Papua New Guinea", "StatusLaut": "Kesepakatan sudah ratifikasi", "Jenis_Janj": "Agreement", "Janji_Tgl": "13 Desember", "Janji_Thn": 1980, "Ratif_Jns": "KEPPRES", "Ratif_No": 21, "Ratif_Thn": 1982 }, "geometry": { "type": "Point", "coordinates": [ 140.8194444, 0.736111111 ] } },
{ "type": "Feature", "properties": { "fid": 29, "Titik": "C5", "Lintang": 1.026388889, "Bujur": 140.8097222, "Jenis": "Bilateral", "TipeZona": "Batas Landas Kontinen", "Datum": "WGS-84", "Batas_Ngr": "Papua New Guinea", "StatusLaut": "Kesepakatan sudah ratifikasi", "Jenis_Janj": "Agreement", "Janji_Tgl": "13 Desember", "Janji_Thn": 1980, "Ratif_Jns": "KEPPRES", "Ratif_No": 21, "Ratif_Thn": 1982 }, "geometry": { "type": "Point", "coordinates": [ 140.80972220000001, 1.026388889 ] } },
{ "type": "Feature", "properties": { "fid": 30, "Titik": "20", "Lintang": 6.096666667, "Bujur": 105.82, "Jenis": "Bilateral", "TipeZona": "Batas Landas Kontinen", "Datum": "WGS-84", "Batas_Ngr": "Vietnam", "StatusLaut": "Kesepakatan sudah ratifikasi", "Jenis_Janj": "Agreement", "Janji_Tgl": "26 Juni", "Janji_Thn": 2003, "Ratif_Jns": "UU", "Ratif_No": 18, "Ratif_Thn": 2007 }, "geometry": { "type": "Point", "coordinates": [ 105.82, 6.096666667 ] } },
{ "type": "Feature", "properties": { "fid": 31, "Titik": "H", "Lintang": 6.25, "Bujur": 106.2, "Jenis": "Bilateral", "TipeZona": "Batas Landas Kontinen", "Datum": "WGS-84", "Batas_Ngr": "Vietnam", "StatusLaut": "Kesepakatan sudah ratifikasi", "Jenis_Janj": "Agreement", "Janji_Tgl": "26 Juni", "Janji_Thn": 2003, "Ratif_Jns": "UU", "Ratif_No": 18, "Ratif_Thn": 2007 }, "geometry": { "type": "Point", "coordinates": [ 106.2, 6.25 ] } },
{ "type": "Feature", "properties": { "fid": 32, "Titik": "H1", "Lintang": 6.25, "Bujur": 106.3169444, "Jenis": "Bilateral", "TipeZona": "Batas Landas Kontinen", "Datum": "WGS-84", "Batas_Ngr": "Vietnam", "StatusLaut": "Kesepakatan sudah ratifikasi", "Jenis_Janj": "Agreement", "Janji_Tgl": "26 Juni", "Janji_Thn": 2003, "Ratif_Jns": "UU", "Ratif_No": 18, "Ratif_Thn": 2007 }, "geometry": { "type": "Point", "coordinates": [ 106.3169444, 6.25 ] } },
{ "type": "Feature", "properties": { "fid": 33, "Titik": "A4", "Lintang": 6.349966667, "Bujur": 106.6604639, "Jenis": "Bilateral", "TipeZona": "Batas Landas Kontinen", "Datum": "WGS-84", "Batas_Ngr": "Vietnam", "StatusLaut": "Kesepakatan sudah ratifikasi", "Jenis_Janj": "Agreement", "Janji_Tgl": "26 Juni", "Janji_Thn": 2003, "Ratif_Jns": "UU", "Ratif_No": 18, "Ratif_Thn": 2007 }, "geometry": { "type": "Point", "coordinates": [ 106.6604639, 6.349966667 ] } },
{ "type": "Feature", "properties": { "fid": 34, "Titik": "X1", "Lintang": 6.8375, "Bujur": 109.2869444, "Jenis": "Bilateral", "TipeZona": "Batas Landas Kontinen", "Datum": "WGS-84", "Batas_Ngr": "Vietnam", "StatusLaut": "Kesepakatan sudah ratifikasi", "Jenis_Janj": "Agreement", "Janji_Tgl": "26 Juni", "Janji_Thn": 2003, "Ratif_Jns": "UU", "Ratif_No": 18, "Ratif_Thn": 2007 }, "geometry": { "type": "Point", "coordinates": [ 109.2869444, 6.8375 ] } },
{ "type": "Feature", "properties": { "fid": 35, "Titik": "B1", "Lintang": -9.408333333, "Bujur": 140.825, "Jenis": "Bilateral", "TipeZona": "Batas Landas Kontinen", "Datum": "WGS-84", "Batas_Ngr": "Papua New Guinea", "StatusLaut": "Kesepakatan sudah ratifikasi", "Jenis_Janj": "Agreement", "Janji_Tgl": "12 Februari", "Janji_Thn": 1973, "Ratif_Jns": "UU", "Ratif_No": 6, "Ratif_Thn": 1973 }, "geometry": { "type": "Point", "coordinates": [ 140.825, -9.408333333 ] } },
{ "type": "Feature", "properties": { "fid": 36, "Titik": "B2", "Lintang": -9.383333333, "Bujur": 140.8666667, "Jenis": "Bilateral", "TipeZona": "Batas Landas Kontinen", "Datum": "WGS-84", "Batas_Ngr": "Papua New Guinea", "StatusLaut": "Kesepakatan sudah ratifikasi", "Jenis_Janj": "Agreement", "Janji_Tgl": "12 Februari", "Janji_Thn": 1973, "Ratif_Jns": "UU", "Ratif_No": 6, "Ratif_Thn": 1973 }, "geometry": { "type": "Point", "coordinates": [ 140.8666667, -9.383333333 ] } },
{ "type": "Feature", "properties": { "fid": 37, "Titik": "B3", "Lintang": -9.1556, "Bujur": 141.0194, "Jenis": "Bilateral", "TipeZona": "Batas Landas Kontinen", "Datum": "WGS-84", "Batas_Ngr": "Papua New Guinea", "StatusLaut": "Kesepakatan sudah ratifikasi", "Jenis_Janj": "Agreement", "Janji_Tgl": "12 Februari", "Janji_Thn": 1973, "Ratif_Jns": "UU", "Ratif_No": 6, "Ratif_Thn": 1973 }, "geometry": { "type": "Point", "coordinates": [ 141.0194, -9.1556 ] } },
{ "type": "Feature", "properties": { "fid": 38, "Titik": "1", "Lintang": 5.45, "Bujur": 98.29166667, "Jenis": "Bilateral", "TipeZona": "Batas Landas Kontinen", "Datum": "WGS-84", "Batas_Ngr": "Malaysia", "StatusLaut": "Kesepakatan sudah ratifikasi", "Jenis_Janj": "Agreement", "Janji_Tgl": "27 Oktober", "Janji_Thn": 1969, "Ratif_Jns": "KEPPRES", "Ratif_No": 89, "Ratif_Thn": 1969 }, "geometry": { "type": "Point", "coordinates": [ 98.29166667, 5.45 ] } },
{ "type": "Feature", "properties": { "fid": 39, "Titik": "2", "Lintang": 4.928333333, "Bujur": 98.69166667, "Jenis": "Bilateral", "TipeZona": "Batas Landas Kontinen", "Datum": "WGS-84", "Batas_Ngr": "Malaysia", "StatusLaut": "Kesepakatan sudah ratifikasi", "Jenis_Janj": "Agreement", "Janji_Tgl": "27 Oktober", "Janji_Thn": 1969, "Ratif_Jns": "KEPPRES", "Ratif_No": 89, "Ratif_Thn": 1969 }, "geometry": { "type": "Point", "coordinates": [ 98.69166667, 4.928333333 ] } },
{ "type": "Feature", "properties": { "fid": 40, "Titik": "3", "Lintang": 3.993333333, "Bujur": 99.72666667, "Jenis": "Bilateral", "TipeZona": "Batas Landas Kontinen", "Datum": "WGS-84", "Batas_Ngr": "Malaysia", "StatusLaut": "Kesepakatan sudah ratifikasi", "Jenis_Janj": "Agreement", "Janji_Tgl": "27 Oktober", "Janji_Thn": 1969, "Ratif_Jns": "KEPPRES", "Ratif_No": 89, "Ratif_Thn": 1969 }, "geometry": { "type": "Point", "coordinates": [ 99.72666667, 3.993333333 ] } },
{ "type": "Feature", "properties": { "fid": 41, "Titik": "4", "Lintang": 3.79, "Bujur": 99.91666667, "Jenis": "Bilateral", "TipeZona": "Batas Landas Kontinen", "Datum": "WGS-84", "Batas_Ngr": "Malaysia", "StatusLaut": "Kesepakatan sudah ratifikasi", "Jenis_Janj": "Agreement", "Janji_Tgl": "27 Oktober", "Janji_Thn": 1969, "Ratif_Jns": "KEPPRES", "Ratif_No": 89, "Ratif_Thn": 1969 }, "geometry": { "type": "Point", "coordinates": [ 99.91666667, 3.79 ] } },
{ "type": "Feature", "properties": { "fid": 42, "Titik": "5", "Lintang": 2.691666667, "Bujur": 101.2016667, "Jenis": "Bilateral", "TipeZona": "Batas Landas Kontinen", "Datum": "WGS-84", "Batas_Ngr": "Malaysia", "StatusLaut": "Kesepakatan sudah ratifikasi", "Jenis_Janj": "Agreement", "Janji_Tgl": "27 Oktober", "Janji_Thn": 1969, "Ratif_Jns": "KEPPRES", "Ratif_No": 89, "Ratif_Thn": 1969 }, "geometry": { "type": "Point", "coordinates": [ 101.2016667, 2.691666667 ] } },
{ "type": "Feature", "properties": { "fid": 43, "Titik": "6", "Lintang": 2.256666667, "Bujur": 101.775, "Jenis": "Bilateral", "TipeZona": "Batas Landas Kontinen", "Datum": "WGS-84", "Batas_Ngr": "Malaysia", "StatusLaut": "Kesepakatan sudah ratifikasi", "Jenis_Janj": "Agreement", "Janji_Tgl": "27 Oktober", "Janji_Thn": 1969, "Ratif_Jns": "KEPPRES", "Ratif_No": 89, "Ratif_Thn": 1969 }, "geometry": { "type": "Point", "coordinates": [ 101.775, 2.256666667 ] } },
{ "type": "Feature", "properties": { "fid": 44, "Titik": "7", "Lintang": 1.92, "Bujur": 102.2233333, "Jenis": "Bilateral", "TipeZona": "Batas Landas Kontinen", "Datum": "WGS-84", "Batas_Ngr": "Malaysia", "StatusLaut": "Kesepakatan sudah ratifikasi", "Jenis_Janj": "Agreement", "Janji_Tgl": "27 Oktober", "Janji_Thn": 1969, "Ratif_Jns": "KEPPRES", "Ratif_No": 89, "Ratif_Thn": 1969 }, "geometry": { "type": "Point", "coordinates": [ 102.2233333, 1.92 ] } },
{ "type": "Feature", "properties": { "fid": 45, "Titik": "8", "Lintang": 1.686666667, "Bujur": 102.5833333, "Jenis": "Bilateral", "TipeZona": "Batas Landas Kontinen", "Datum": "WGS-84", "Batas_Ngr": "Malaysia", "StatusLaut": "Kesepakatan sudah ratifikasi", "Jenis_Janj": "Agreement", "Janji_Tgl": "27 Oktober", "Janji_Thn": 1969, "Ratif_Jns": "KEPPRES", "Ratif_No": 89, "Ratif_Thn": 1969 }, "geometry": { "type": "Point", "coordinates": [ 102.5833333, 1.686666667 ] } },
{ "type": "Feature", "properties": { "fid": 46, "Titik": "9", "Lintang": 1.325, "Bujur": 103.065, "Jenis": "Bilateral", "TipeZona": "Batas Landas Kontinen", "Datum": "WGS-84", "Batas_Ngr": "Malaysia", "StatusLaut": "Kesepakatan sudah ratifikasi", "Jenis_Janj": "Agreement", "Janji_Tgl": "27 Oktober", "Janji_Thn": 1969, "Ratif_Jns": "KEPPRES", "Ratif_No": 89, "Ratif_Thn": 1969 }, "geometry": { "type": "Point", "coordinates": [ 103.065, 1.325 ] } },
{ "type": "Feature", "properties": { "fid": 47, "Titik": "10", "Lintang": 1.25, "Bujur": 103.38, "Jenis": "Bilateral", "TipeZona": "Batas Landas Kontinen", "Datum": "WGS-84", "Batas_Ngr": "Malaysia", "StatusLaut": "Kesepakatan sudah ratifikasi", "Jenis_Janj": "Agreement", "Janji_Tgl": "27 Oktober", "Janji_Thn": 1969, "Ratif_Jns": "KEPPRES", "Ratif_No": 89, "Ratif_Thn": 1969 }, "geometry": { "type": "Point", "coordinates": [ 103.38, 1.25 ] } },
{ "type": "Feature", "properties": { "fid": 48, "Titik": "11", "Lintang": 1.398333333, "Bujur": 104.4916667, "Jenis": "Bilateral", "TipeZona": "Batas Landas Kontinen", "Datum": "WGS-84", "Batas_Ngr": "Malaysia", "StatusLaut": "Kesepakatan sudah ratifikasi", "Jenis_Janj": "Agreement", "Janji_Tgl": "27 Oktober", "Janji_Thn": 1969, "Ratif_Jns": "KEPPRES", "Ratif_No": 89, "Ratif_Thn": 1969 }, "geometry": { "type": "Point", "coordinates": [ 104.4916667, 1.398333333 ] } },
{ "type": "Feature", "properties": { "fid": 49, "Titik": "12", "Lintang": 1.633333333, "Bujur": 104.8833333, "Jenis": "Bilateral", "TipeZona": "Batas Landas Kontinen", "Datum": "WGS-84", "Batas_Ngr": "Malaysia", "StatusLaut": "Kesepakatan sudah ratifikasi", "Jenis_Janj": "Agreement", "Janji_Tgl": "27 Oktober", "Janji_Thn": 1969, "Ratif_Jns": "KEPPRES", "Ratif_No": 89, "Ratif_Thn": 1969 }, "geometry": { "type": "Point", "coordinates": [ 104.8833333, 1.633333333 ] } },
{ "type": "Feature", "properties": { "fid": 50, "Titik": "13", "Lintang": 1.906666667, "Bujur": 105.0866667, "Jenis": "Bilateral", "TipeZona": "Batas Landas Kontinen", "Datum": "WGS-84", "Batas_Ngr": "Malaysia", "StatusLaut": "Kesepakatan sudah ratifikasi", "Jenis_Janj": "Agreement", "Janji_Tgl": "27 Oktober", "Janji_Thn": 1969, "Ratif_Jns": "KEPPRES", "Ratif_No": 89, "Ratif_Thn": 1969 }, "geometry": { "type": "Point", "coordinates": [ 105.0866667, 1.906666667 ] } },
{ "type": "Feature", "properties": { "fid": 51, "Titik": "14", "Lintang": 2.375, "Bujur": 105.02, "Jenis": "Bilateral", "TipeZona": "Batas Landas Kontinen", "Datum": "WGS-84", "Batas_Ngr": "Malaysia", "StatusLaut": "Kesepakatan sudah ratifikasi", "Jenis_Janj": "Agreement", "Janji_Tgl": "27 Oktober", "Janji_Thn": 1969, "Ratif_Jns": "KEPPRES", "Ratif_No": 89, "Ratif_Thn": 1969 }, "geometry": { "type": "Point", "coordinates": [ 105.02, 2.375 ] } },
{ "type": "Feature", "properties": { "fid": 52, "Titik": "15", "Lintang": 2.92, "Bujur": 104.8583333, "Jenis": "Bilateral", "TipeZona": "Batas Landas Kontinen", "Datum": "WGS-84", "Batas_Ngr": "Malaysia", "StatusLaut": "Kesepakatan sudah ratifikasi", "Jenis_Janj": "Agreement", "Janji_Tgl": "27 Oktober", "Janji_Thn": 1969, "Ratif_Jns": "KEPPRES", "Ratif_No": 89, "Ratif_Thn": 1969 }, "geometry": { "type": "Point", "coordinates": [ 104.8583333, 2.92 ] } },
{ "type": "Feature", "properties": { "fid": 53, "Titik": "16", "Lintang": 3.835, "Bujur": 104.775, "Jenis": "Bilateral", "TipeZona": "Batas Landas Kontinen", "Datum": "WGS-84", "Batas_Ngr": "Malaysia", "StatusLaut": "Kesepakatan sudah ratifikasi", "Jenis_Janj": "Agreement", "Janji_Tgl": "27 Oktober", "Janji_Thn": 1969, "Ratif_Jns": "KEPPRES", "Ratif_No": 89, "Ratif_Thn": 1969 }, "geometry": { "type": "Point", "coordinates": [ 104.775, 3.835 ] } },
{ "type": "Feature", "properties": { "fid": 54, "Titik": "17", "Lintang": 4.05, "Bujur": 104.865, "Jenis": "Bilateral", "TipeZona": "Batas Landas Kontinen", "Datum": "WGS-84", "Batas_Ngr": "Malaysia", "StatusLaut": "Kesepakatan sudah ratifikasi", "Jenis_Janj": "Agreement", "Janji_Tgl": "27 Oktober", "Janji_Thn": 1969, "Ratif_Jns": "KEPPRES", "Ratif_No": 89, "Ratif_Thn": 1969 }, "geometry": { "type": "Point", "coordinates": [ 104.865, 4.05 ] } },
{ "type": "Feature", "properties": { "fid": 55, "Titik": "18", "Lintang": 5.078333333, "Bujur": 105.48, "Jenis": "Bilateral", "TipeZona": "Batas Landas Kontinen", "Datum": "WGS-84", "Batas_Ngr": "Malaysia", "StatusLaut": "Kesepakatan sudah ratifikasi", "Jenis_Janj": "Agreement", "Janji_Tgl": "27 Oktober", "Janji_Thn": 1969, "Ratif_Jns": "KEPPRES", "Ratif_No": 89, "Ratif_Thn": 1969 }, "geometry": { "type": "Point", "coordinates": [ 105.48, 5.078333333 ] } },
{ "type": "Feature", "properties": { "fid": 56, "Titik": "19", "Lintang": 5.676666667, "Bujur": 105.785, "Jenis": "Bilateral", "TipeZona": "Batas Landas Kontinen", "Datum": "WGS-84", "Batas_Ngr": "Malaysia", "StatusLaut": "Kesepakatan sudah ratifikasi", "Jenis_Janj": "Agreement", "Janji_Tgl": "27 Oktober", "Janji_Thn": 1969, "Ratif_Jns": "KEPPRES", "Ratif_No": 89, "Ratif_Thn": 1969 }, "geometry": { "type": "Point", "coordinates": [ 105.785, 5.676666667 ] } },
{ "type": "Feature", "properties": { "fid": 57, "Titik": "20", "Lintang": 6.096666667, "Bujur": 105.82, "Jenis": "Bilateral", "TipeZona": "Batas Landas Kontinen", "Datum": "WGS-84", "Batas_Ngr": "Malaysia", "StatusLaut": "Kesepakatan sudah ratifikasi", "Jenis_Janj": "Agreement", "Janji_Tgl": "27 Oktober", "Janji_Thn": 1969, "Ratif_Jns": "KEPPRES", "Ratif_No": 89, "Ratif_Thn": 1969 }, "geometry": { "type": "Point", "coordinates": [ 105.82, 6.096666667 ] } },
{ "type": "Feature", "properties": { "fid": 58, "Titik": "21", "Lintang": 2.083333333, "Bujur": 109.6466667, "Jenis": "Bilateral", "TipeZona": "Batas Landas Kontinen", "Datum": "WGS-84", "Batas_Ngr": "Malaysia", "StatusLaut": "Kesepakatan sudah ratifikasi", "Jenis_Janj": "Agreement", "Janji_Tgl": "27 Oktober", "Janji_Thn": 1969, "Ratif_Jns": "KEPPRES", "Ratif_No": 89, "Ratif_Thn": 1969 }, "geometry": { "type": "Point", "coordinates": [ 109.6466667, 2.083333333 ] } },
{ "type": "Feature", "properties": { "fid": 59, "Titik": "22", "Lintang": 3.0, "Bujur": 109.9083333, "Jenis": "Bilateral", "TipeZona": "Batas Landas Kontinen", "Datum": "WGS-84", "Batas_Ngr": "Malaysia", "StatusLaut": "Kesepakatan sudah ratifikasi", "Jenis_Janj": "Agreement", "Janji_Tgl": "27 Oktober", "Janji_Thn": 1969, "Ratif_Jns": "KEPPRES", "Ratif_No": 89, "Ratif_Thn": 1969 }, "geometry": { "type": "Point", "coordinates": [ 109.9083333, 3.0 ] } },
{ "type": "Feature", "properties": { "fid": 60, "Titik": "23", "Lintang": 4.666666667, "Bujur": 110.0333333, "Jenis": "Bilateral", "TipeZona": "Batas Landas Kontinen", "Datum": "WGS-84", "Batas_Ngr": "Malaysia", "StatusLaut": "Kesepakatan sudah ratifikasi", "Jenis_Janj": "Agreement", "Janji_Tgl": "27 Oktober", "Janji_Thn": 1969, "Ratif_Jns": "KEPPRES", "Ratif_No": 89, "Ratif_Thn": 1969 }, "geometry": { "type": "Point", "coordinates": [ 110.0333333, 4.666666667 ] } },
{ "type": "Feature", "properties": { "fid": 61, "Titik": "24", "Lintang": 5.52, "Bujur": 109.9833333, "Jenis": "Bilateral", "TipeZona": "Batas Landas Kontinen", "Datum": "WGS-84", "Batas_Ngr": "Malaysia", "StatusLaut": "Kesepakatan sudah ratifikasi", "Jenis_Janj": "Agreement", "Janji_Tgl": "27 Oktober", "Janji_Thn": 1969, "Ratif_Jns": "KEPPRES", "Ratif_No": 89, "Ratif_Thn": 1969 }, "geometry": { "type": "Point", "coordinates": [ 109.9833333, 5.52 ] } },
{ "type": "Feature", "properties": { "fid": 62, "Titik": "25", "Lintang": 6.303333333, "Bujur": 109.6433333, "Jenis": "Bilateral", "TipeZona": "Batas Landas Kontinen", "Datum": "WGS-84", "Batas_Ngr": "Malaysia", "StatusLaut": "Kesepakatan sudah ratifikasi", "Jenis_Janj": "Agreement", "Janji_Tgl": "27 Oktober", "Janji_Thn": 1969, "Ratif_Jns": "KEPPRES", "Ratif_No": 89, "Ratif_Thn": 1969 }, "geometry": { "type": "Point", "coordinates": [ 109.6433333, 6.303333333 ] } },
{ "type": "Feature", "properties": { "fid": 63, "Titik": "A12", "Lintang": -8.8833, "Bujur": 133.3833, "Jenis": "Bilateral", "TipeZona": "Batas Landas Kontinen", "Datum": "WGS-84", "Batas_Ngr": "Australia", "StatusLaut": "Kesepakatan sudah ratifikasi", "Jenis_Janj": "Agreement", "Janji_Tgl": "9 Oktober", "Janji_Thn": 1972, "Ratif_Jns": "KEPPRES", "Ratif_No": 66, "Ratif_Thn": 1972 }, "geometry": { "type": "Point", "coordinates": [ 133.3833, -8.8833 ] } },
{ "type": "Feature", "properties": { "fid": 64, "Titik": "A13", "Lintang": -8.9, "Bujur": 133.2333, "Jenis": "Bilateral", "TipeZona": "Batas Landas Kontinen", "Datum": "WGS-84", "Batas_Ngr": "Australia", "StatusLaut": "Kesepakatan sudah ratifikasi", "Jenis_Janj": "Agreement", "Janji_Tgl": "9 Oktober", "Janji_Thn": 1972, "Ratif_Jns": "KEPPRES", "Ratif_No": 66, "Ratif_Thn": 1972 }, "geometry": { "type": "Point", "coordinates": [ 133.2333, -8.9 ] } },
{ "type": "Feature", "properties": { "fid": 65, "Titik": "A14", "Lintang": -9.4167, "Bujur": 130.1667, "Jenis": "Bilateral", "TipeZona": "Batas Landas Kontinen", "Datum": "WGS-84", "Batas_Ngr": "Australia", "StatusLaut": "Kesepakatan sudah ratifikasi", "Jenis_Janj": "Agreement", "Janji_Tgl": "9 Oktober", "Janji_Thn": 1972, "Ratif_Jns": "KEPPRES", "Ratif_No": 66, "Ratif_Thn": 1972 }, "geometry": { "type": "Point", "coordinates": [ 130.1667, -9.4167 ] } },
{ "type": "Feature", "properties": { "fid": 66, "Titik": "A15", "Lintang": -9.4167, "Bujur": 128.0, "Jenis": "Bilateral", "TipeZona": "Batas Landas Kontinen", "Datum": "WGS-84", "Batas_Ngr": "Australia", "StatusLaut": "Kesepakatan sudah ratifikasi", "Jenis_Janj": "Agreement", "Janji_Tgl": "9 Oktober", "Janji_Thn": 1972, "Ratif_Jns": "KEPPRES", "Ratif_No": 66, "Ratif_Thn": 1972 }, "geometry": { "type": "Point", "coordinates": [ 128.0, -9.4167 ] } },
{ "type": "Feature", "properties": { "fid": 67, "Titik": "A16", "Lintang": -9.4667, "Bujur": 127.9333, "Jenis": "Bilateral", "TipeZona": "Batas Landas Kontinen", "Datum": "WGS-84", "Batas_Ngr": "Australia", "StatusLaut": "Kesepakatan sudah ratifikasi", "Jenis_Janj": "Agreement", "Janji_Tgl": "9 Oktober", "Janji_Thn": 1972, "Ratif_Jns": "KEPPRES", "Ratif_No": 66, "Ratif_Thn": 1972 }, "geometry": { "type": "Point", "coordinates": [ 127.9333, -9.4667 ] } },
{ "type": "Feature", "properties": { "fid": 68, "Titik": "A17", "Lintang": -10.4667, "Bujur": 126.0, "Jenis": "Bilateral", "TipeZona": "Batas Landas Kontinen", "Datum": "WGS-84", "Batas_Ngr": "Australia", "StatusLaut": "Kesepakatan sudah ratifikasi", "Jenis_Janj": "Agreement", "Janji_Tgl": "9 Oktober", "Janji_Thn": 1972, "Ratif_Jns": "KEPPRES", "Ratif_No": 66, "Ratif_Thn": 1972 }, "geometry": { "type": "Point", "coordinates": [ 126.0, -10.4667 ] } },
{ "type": "Feature", "properties": { "fid": 69, "Titik": "A18", "Lintang": -10.6167, "Bujur": 125.6833, "Jenis": "Bilateral", "TipeZona": "Batas Landas Kontinen", "Datum": "WGS-84", "Batas_Ngr": "Australia", "StatusLaut": "Kesepakatan sudah ratifikasi", "Jenis_Janj": "Agreement", "Janji_Tgl": "9 Oktober", "Janji_Thn": 1972, "Ratif_Jns": "KEPPRES", "Ratif_No": 66, "Ratif_Thn": 1972 }, "geometry": { "type": "Point", "coordinates": [ 125.6833, -10.6167 ] } },
{ "type": "Feature", "properties": { "fid": 70, "Titik": "A19", "Lintang": -11.0167, "Bujur": 125.3167, "Jenis": "Bilateral", "TipeZona": "Batas Landas Kontinen", "Datum": "WGS-84", "Batas_Ngr": "Australia", "StatusLaut": "Kesepakatan sudah ratifikasi", "Jenis_Janj": "Agreement", "Janji_Tgl": "9 Oktober", "Janji_Thn": 1972, "Ratif_Jns": "KEPPRES", "Ratif_No": 66, "Ratif_Thn": 1972 }, "geometry": { "type": "Point", "coordinates": [ 125.3167, -11.0167 ] } },
{ "type": "Feature", "properties": { "fid": 71, "Titik": "A20", "Lintang": -11.1167, "Bujur": 124.5667, "Jenis": "Bilateral", "TipeZona": "Batas Landas Kontinen", "Datum": "WGS-84", "Batas_Ngr": "Australia", "StatusLaut": "Kesepakatan sudah ratifikasi", "Jenis_Janj": "Agreement", "Janji_Tgl": "9 Oktober", "Janji_Thn": 1972, "Ratif_Jns": "KEPPRES", "Ratif_No": 66, "Ratif_Thn": 1972 }, "geometry": { "type": "Point", "coordinates": [ 124.5667, -11.1167 ] } },
{ "type": "Feature", "properties": { "fid": 72, "Titik": "A21", "Lintang": -11.4167, "Bujur": 124.1667, "Jenis": "Bilateral", "TipeZona": "Batas Landas Kontinen", "Datum": "WGS-84", "Batas_Ngr": "Australia", "StatusLaut": "Kesepakatan sudah ratifikasi", "Jenis_Janj": "Agreement", "Janji_Tgl": "9 Oktober", "Janji_Thn": 1972, "Ratif_Jns": "KEPPRES", "Ratif_No": 66, "Ratif_Thn": 1972 }, "geometry": { "type": "Point", "coordinates": [ 124.1667, -11.4167 ] } },
{ "type": "Feature", "properties": { "fid": 73, "Titik": "A22", "Lintang": -11.4333, "Bujur": 124.0, "Jenis": "Bilateral", "TipeZona": "Batas Landas Kontinen", "Datum": "WGS-84", "Batas_Ngr": "Australia", "StatusLaut": "Kesepakatan sudah ratifikasi", "Jenis_Janj": "Agreement", "Janji_Tgl": "9 Oktober", "Janji_Thn": 1972, "Ratif_Jns": "KEPPRES", "Ratif_No": 66, "Ratif_Thn": 1972 }, "geometry": { "type": "Point", "coordinates": [ 124.0, -11.4333 ] } },
{ "type": "Feature", "properties": { "fid": 74, "Titik": "A23", "Lintang": -11.4667, "Bujur": 123.6667, "Jenis": "Bilateral", "TipeZona": "Batas Landas Kontinen", "Datum": "WGS-84", "Batas_Ngr": "Australia", "StatusLaut": "Kesepakatan sudah ratifikasi", "Jenis_Janj": "Agreement", "Janji_Tgl": "9 Oktober", "Janji_Thn": 1972, "Ratif_Jns": "KEPPRES", "Ratif_No": 66, "Ratif_Thn": 1972 }, "geometry": { "type": "Point", "coordinates": [ 123.6667, -11.4667 ] } },
{ "type": "Feature", "properties": { "fid": 75, "Titik": "A24", "Lintang": -11.3833, "Bujur": 123.4333, "Jenis": "Bilateral", "TipeZona": "Batas Landas Kontinen", "Datum": "WGS-84", "Batas_Ngr": "Australia", "StatusLaut": "Kesepakatan sudah ratifikasi", "Jenis_Janj": "Agreement", "Janji_Tgl": "9 Oktober", "Janji_Thn": 1972, "Ratif_Jns": "KEPPRES", "Ratif_No": 66, "Ratif_Thn": 1972 }, "geometry": { "type": "Point", "coordinates": [ 123.4333, -11.3833 ] } },
{ "type": "Feature", "properties": { "fid": 76, "Titik": "A25", "Lintang": -11.5833, "Bujur": 123.2333, "Jenis": "Bilateral", "TipeZona": "Batas Landas Kontinen", "Datum": "WGS-84", "Batas_Ngr": "Australia", "StatusLaut": "Kesepakatan sudah ratifikasi", "Jenis_Janj": "Agreement", "Janji_Tgl": "9 Oktober", "Janji_Thn": 1972, "Ratif_Jns": "KEPPRES", "Ratif_No": 66, "Ratif_Thn": 1972 }, "geometry": { "type": "Point", "coordinates": [ 123.2333, -11.5833 ] } },
{ "type": "Feature", "properties": { "fid": 77, "Titik": "Trijunction", "Lintang": 7.7833, "Bujur": 95.53, "Jenis": "Trilateral", "TipeZona": "Batas Landas Kontinen", "Datum": "WGS-84", "Batas_Ngr": "India-Thailand", "StatusLaut": "Kesepakatan sudah ratifikasi", "Jenis_Janj": "Agreement", "Janji_Tgl": "22 Juni", "Janji_Thn": 1978, "Ratif_Jns": "KEPPRES", "Ratif_No": 24, "Ratif_Thn": 1978 }, "geometry": { "type": "Point", "coordinates": [ 95.53, 7.7833 ] } },
{ "type": "Feature", "properties": { "fid": 78, "Titik": "O", "Lintang": 7.7683, "Bujur": 95.52, "Jenis": "Trilateral", "TipeZona": "Batas Landas Kontinen", "Datum": "WGS-84", "Batas_Ngr": "India", "StatusLaut": "Kesepakatan sudah ratifikasi", "Jenis_Janj": "Agreement", "Janji_Tgl": "22 Juni", "Janji_Thn": 1978, "Ratif_Jns": "KEPPRES", "Ratif_No": 24, "Ratif_Thn": 1978 }, "geometry": { "type": "Point", "coordinates": [ 95.52, 7.7683 ] } },
{ "type": "Feature", "properties": { "fid": 79, "Titik": "L", "Lintang": 7.7669, "Bujur": 95.5503, "Jenis": "Trilateral", "TipeZona": "Batas Landas Kontinen", "Datum": "WGS-84", "Batas_Ngr": "Thailand", "StatusLaut": "Kesepakatan sudah ratifikasi", "Jenis_Janj": "Agreement", "Janji_Tgl": "22 Juni", "Janji_Thn": 1978, "Ratif_Jns": "KEPPRES", "Ratif_No": 24, "Ratif_Thn": 1978 }, "geometry": { "type": "Point", "coordinates": [ 95.5503, 7.7669 ] } },
{ "type": "Feature", "properties": { "fid": 80, "Titik": null, "Lintang": 5.95, "Bujur": 98.025, "Jenis": "Trilateral", "TipeZona": "Batas Landas Kontinen", "Datum": "WGS-84", "Batas_Ngr": "Thailand-Malaysia", "StatusLaut": "Kesepakatan sudah ratifikasi", "Jenis_Janj": "Agreement", "Janji_Tgl": "21 Desember", "Janji_Thn": 1971, "Ratif_Jns": "KEPPRES", "Ratif_No": 20, "Ratif_Thn": 1972 }, "geometry": { "type": "Point", "coordinates": [ 98.025, 5.95 ] } },
{ "type": "Feature", "properties": { "fid": 81, "Titik": null, "Lintang": 7.0967, "Bujur": 96.6083, "Jenis": "Bilateral", "TipeZona": "Batas Landas Kontinen", "Datum": "WGS-84", "Batas_Ngr": "Thailand", "StatusLaut": "Kesepakatan sudah ratifikasi", "Jenis_Janj": "Agreement", "Janji_Tgl": "17 Desember", "Janji_Thn": 1971, "Ratif_Jns": "KEPPRES", "Ratif_No": 21, "Ratif_Thn": 1972 }, "geometry": { "type": "Point", "coordinates": [ 96.6083, 7.0967 ] } },
{ "type": "Feature", "properties": { "fid": 82, "Titik": null, "Lintang": 6.3633, "Bujur": 97.9, "Jenis": "Bilateral", "TipeZona": "Batas Landas Kontinen", "Datum": "WGS-84", "Batas_Ngr": "Thailand", "StatusLaut": "Kesepakatan sudah ratifikasi", "Jenis_Janj": "Agreement", "Janji_Tgl": "17 Desember", "Janji_Thn": 1971, "Ratif_Jns": "KEPPRES", "Ratif_No": 21, "Ratif_Thn": 1972 }, "geometry": { "type": "Point", "coordinates": [ 97.9, 6.3633 ] } },
{ "type": "Feature", "properties": { "fid": 83, "Titik": "A28", "Lintang": -13.015994204850767, "Bujur": 118.1703572486531, "Jenis": "Bilateral", "TipeZona": "Batas Landas Kontinen", "Datum": "WGS-84", "Batas_Ngr": "Australia", "StatusLaut": "Kesepakatan belum ratifikasi", "Jenis_Janj": "Treaty", "Janji_Tgl": "14 Maret", "Janji_Thn": 1997, "Ratif_Jns": "-", "Ratif_No": null, "Ratif_Thn": null }, "geometry": { "type": "Point", "coordinates": [ 118.170357248653104, -13.015994204850767 ] } },
{ "type": "Feature", "properties": { "fid": 84, "Titik": "A29", "Lintang": -12.849161540531638, "Bujur": 118.21468571038039, "Jenis": "Bilateral", "TipeZona": "Batas Landas Kontinen", "Datum": "WGS-84", "Batas_Ngr": "Australia", "StatusLaut": "Kesepakatan belum ratifikasi", "Jenis_Janj": "Treaty", "Janji_Tgl": "14 Maret", "Janji_Thn": 1997, "Ratif_Jns": "-", "Ratif_No": null, "Ratif_Thn": null }, "geometry": { "type": "Point", "coordinates": [ 118.214685710380394, -12.849161540531638 ] } },
{ "type": "Feature", "properties": { "fid": 85, "Titik": "A30", "Lintang": -12.094482256997175, "Bujur": 118.07833238974182, "Jenis": "Bilateral", "TipeZona": "Batas Landas Kontinen", "Datum": "WGS-84", "Batas_Ngr": "Australia", "StatusLaut": "Kesepakatan belum ratifikasi", "Jenis_Janj": "Treaty", "Janji_Tgl": "14 Maret", "Janji_Thn": 1997, "Ratif_Jns": "-", "Ratif_No": null, "Ratif_Thn": null }, "geometry": { "type": "Point", "coordinates": [ 118.078332389741817, -12.094482256997175 ] } },
{ "type": "Feature", "properties": { "fid": 86, "Titik": "A31", "Lintang": -12.200547077493917, "Bujur": 118.60667397221617, "Jenis": "Bilateral", "TipeZona": "Batas Landas Kontinen", "Datum": "WGS-84", "Batas_Ngr": "Australia", "StatusLaut": "Kesepakatan belum ratifikasi", "Jenis_Janj": "Treaty", "Janji_Tgl": "14 Maret", "Janji_Thn": 1997, "Ratif_Jns": "-", "Ratif_No": null, "Ratif_Thn": null }, "geometry": { "type": "Point", "coordinates": [ 118.606673972216171, -12.200547077493917 ] } },
{ "type": "Feature", "properties": { "fid": 87, "Titik": "A32", "Lintang": -12.454309638682389, "Bujur": 119.32831125559589, "Jenis": "Bilateral", "TipeZona": "Batas Landas Kontinen", "Datum": "WGS-84", "Batas_Ngr": "Australia", "StatusLaut": "Kesepakatan belum ratifikasi", "Jenis_Janj": "Treaty", "Janji_Tgl": "14 Maret", "Janji_Thn": 1997, "Ratif_Jns": "-", "Ratif_No": null, "Ratif_Thn": null }, "geometry": { "type": "Point", "coordinates": [ 119.328311255595892, -12.454309638682389 ] } },
{ "type": "Feature", "properties": { "fid": 88, "Titik": "A33", "Lintang": -12.762701640126707, "Bujur": 119.90940989831735, "Jenis": "Bilateral", "TipeZona": "Batas Landas Kontinen", "Datum": "WGS-84", "Batas_Ngr": "Australia", "StatusLaut": "Kesepakatan belum ratifikasi", "Jenis_Janj": "Treaty", "Janji_Tgl": "14 Maret", "Janji_Thn": 1997, "Ratif_Jns": "-", "Ratif_No": null, "Ratif_Thn": null }, "geometry": { "type": "Point", "coordinates": [ 119.90940989831735, -12.762701640126707 ] } },
{ "type": "Feature", "properties": { "fid": 89, "Titik": "A34", "Lintang": -12.755652680093695, "Bujur": 119.96712325858765, "Jenis": "Bilateral", "TipeZona": "Batas Landas Kontinen", "Datum": "WGS-84", "Batas_Ngr": "Australia", "StatusLaut": "Kesepakatan belum ratifikasi", "Jenis_Janj": "Treaty", "Janji_Tgl": "14 Maret", "Janji_Thn": 1997, "Ratif_Jns": "-", "Ratif_No": null, "Ratif_Thn": null }, "geometry": { "type": "Point", "coordinates": [ 119.967123258587648, -12.755652680093695 ] } },
{ "type": "Feature", "properties": { "fid": 90, "Titik": "A35", "Lintang": -12.797505880289711, "Bujur": 119.96447989857526, "Jenis": "Bilateral", "TipeZona": "Batas Landas Kontinen", "Datum": "WGS-84", "Batas_Ngr": "Australia", "StatusLaut": "Kesepakatan belum ratifikasi", "Jenis_Janj": "Treaty", "Janji_Tgl": "14 Maret", "Janji_Thn": 1997, "Ratif_Jns": "-", "Ratif_No": null, "Ratif_Thn": null }, "geometry": { "type": "Point", "coordinates": [ 119.964479898575263, -12.797505880289711 ] } },
{ "type": "Feature", "properties": { "fid": 91, "Titik": "A36", "Lintang": -12.803673720318596, "Bujur": 119.9869484586805, "Jenis": "Bilateral", "TipeZona": "Batas Landas Kontinen", "Datum": "WGS-84", "Batas_Ngr": "Australia", "StatusLaut": "Kesepakatan belum ratifikasi", "Jenis_Janj": "Treaty", "Janji_Tgl": "14 Maret", "Janji_Thn": 1997, "Ratif_Jns": "-", "Ratif_No": null, "Ratif_Thn": null }, "geometry": { "type": "Point", "coordinates": [ 119.986948458680502, -12.803673720318596 ] } },
{ "type": "Feature", "properties": { "fid": 92, "Titik": "A37", "Lintang": -13.845655888438269, "Bujur": 119.98463380003231, "Jenis": "Bilateral", "TipeZona": "Batas Landas Kontinen", "Datum": "WGS-84", "Batas_Ngr": "Australia", "StatusLaut": "Kesepakatan belum ratifikasi", "Jenis_Janj": "Treaty", "Janji_Tgl": "14 Maret", "Janji_Thn": 1997, "Ratif_Jns": "-", "Ratif_No": null, "Ratif_Thn": null }, "geometry": { "type": "Point", "coordinates": [ 119.984633800032313, -13.845655888438269 ] } },
{ "type": "Feature", "properties": { "fid": 93, "Titik": "A38", "Lintang": -13.898833470853203, "Bujur": 120.12285374818036, "Jenis": "Bilateral", "TipeZona": "Batas Landas Kontinen", "Datum": "WGS-84", "Batas_Ngr": "Australia", "StatusLaut": "Kesepakatan belum ratifikasi", "Jenis_Janj": "Treaty", "Janji_Tgl": "14 Maret", "Janji_Thn": 1997, "Ratif_Jns": "-", "Ratif_No": null, "Ratif_Thn": null }, "geometry": { "type": "Point", "coordinates": [ 120.122853748180361, -13.898833470853203 ] } },
{ "type": "Feature", "properties": { "fid": 94, "Titik": "A39", "Lintang": -12.277718504522017, "Bujur": 122.49226633708044, "Jenis": "Bilateral", "TipeZona": "Batas Landas Kontinen", "Datum": "WGS-84", "Batas_Ngr": "Australia", "StatusLaut": "Kesepakatan belum ratifikasi", "Jenis_Janj": "Treaty", "Janji_Tgl": "14 Maret", "Janji_Thn": 1997, "Ratif_Jns": "-", "Ratif_No": null, "Ratif_Thn": null }, "geometry": { "type": "Point", "coordinates": [ 122.492266337080437, -12.277718504522017 ] } },
{ "type": "Feature", "properties": { "fid": 95, "Titik": "A40", "Lintang": -12.265303387960818, "Bujur": 122.4930340589549, "Jenis": "Bilateral", "TipeZona": "Batas Landas Kontinen", "Datum": "WGS-84", "Batas_Ngr": "Australia", "StatusLaut": "Kesepakatan belum ratifikasi", "Jenis_Janj": "Treaty", "Janji_Tgl": "14 Maret", "Janji_Thn": 1997, "Ratif_Jns": "-", "Ratif_No": null, "Ratif_Thn": null }, "geometry": { "type": "Point", "coordinates": [ 122.493034058954905, -12.265303387960818 ] } },
{ "type": "Feature", "properties": { "fid": 96, "Titik": "A41", "Lintang": -12.243426937916956, "Bujur": 122.49585682670251, "Jenis": "Bilateral", "TipeZona": "Batas Landas Kontinen", "Datum": "WGS-84", "Batas_Ngr": "Australia", "StatusLaut": "Kesepakatan belum ratifikasi", "Jenis_Janj": "Treaty", "Janji_Tgl": "14 Maret", "Janji_Thn": 1997, "Ratif_Jns": "-", "Ratif_No": null, "Ratif_Thn": null }, "geometry": { "type": "Point", "coordinates": [ 122.495856826702507, -12.243426937916956 ] } },
{ "type": "Feature", "properties": { "fid": 97, "Titik": "A42", "Lintang": -12.216963490283252, "Bujur": 122.50114951622925, "Jenis": "Bilateral", "TipeZona": "Batas Landas Kontinen", "Datum": "WGS-84", "Batas_Ngr": "Australia", "StatusLaut": "Kesepakatan belum ratifikasi", "Jenis_Janj": "Treaty", "Janji_Tgl": "14 Maret", "Janji_Thn": 1997, "Ratif_Jns": "-", "Ratif_No": null, "Ratif_Thn": null }, "geometry": { "type": "Point", "coordinates": [ 122.501149516229248, -12.216963490283252 ] } },
{ "type": "Feature", "properties": { "fid": 98, "Titik": "A43", "Lintang": -12.170034976479485, "Bujur": 122.51032351140893, "Jenis": "Bilateral", "TipeZona": "Batas Landas Kontinen", "Datum": "WGS-84", "Batas_Ngr": "Australia", "StatusLaut": "Kesepakatan belum ratifikasi", "Jenis_Janj": "Treaty", "Janji_Tgl": "14 Maret", "Janji_Thn": 1997, "Ratif_Jns": "-", "Ratif_No": null, "Ratif_Thn": null }, "geometry": { "type": "Point", "coordinates": [ 122.510323511408927, -12.170034976479485 ] } },
{ "type": "Feature", "properties": { "fid": 99, "Titik": "A44", "Lintang": -12.128399152202459, "Bujur": 122.52549588805225, "Jenis": "Bilateral", "TipeZona": "Batas Landas Kontinen", "Datum": "WGS-84", "Batas_Ngr": "Australia", "StatusLaut": "Kesepakatan belum ratifikasi", "Jenis_Janj": "Treaty", "Janji_Tgl": "14 Maret", "Janji_Thn": 1997, "Ratif_Jns": "-", "Ratif_No": null, "Ratif_Thn": null }, "geometry": { "type": "Point", "coordinates": [ 122.525495888052248, -12.128399152202459 ] } },
{ "type": "Feature", "properties": { "fid": 100, "Titik": "A45", "Lintang": -12.072649489187453, "Bujur": 122.5523121816544, "Jenis": "Bilateral", "TipeZona": "Batas Landas Kontinen", "Datum": "WGS-84", "Batas_Ngr": "Australia", "StatusLaut": "Kesepakatan belum ratifikasi", "Jenis_Janj": "Treaty", "Janji_Tgl": "14 Maret", "Janji_Thn": 1997, "Ratif_Jns": "-", "Ratif_No": null, "Ratif_Thn": null }, "geometry": { "type": "Point", "coordinates": [ 122.552312181654401, -12.072649489187453 ] } },
{ "type": "Feature", "properties": { "fid": 101, "Titik": "A46", "Lintang": -12.05183157704894, "Bujur": 122.56572032845547, "Jenis": "Bilateral", "TipeZona": "Batas Landas Kontinen", "Datum": "WGS-84", "Batas_Ngr": "Australia", "StatusLaut": "Kesepakatan belum ratifikasi", "Jenis_Janj": "Treaty", "Janji_Tgl": "14 Maret", "Janji_Thn": 1997, "Ratif_Jns": "-", "Ratif_No": null, "Ratif_Thn": null }, "geometry": { "type": "Point", "coordinates": [ 122.56572032845547, -12.05183157704894 ] } },
{ "type": "Feature", "properties": { "fid": 102, "Titik": "A47", "Lintang": -12.041951889932358, "Bujur": 122.57207155588756, "Jenis": "Bilateral", "TipeZona": "Batas Landas Kontinen", "Datum": "WGS-84", "Batas_Ngr": "Australia", "StatusLaut": "Kesepakatan belum ratifikasi", "Jenis_Janj": "Treaty", "Janji_Tgl": "14 Maret", "Janji_Thn": 1997, "Ratif_Jns": "-", "Ratif_No": null, "Ratif_Thn": null }, "geometry": { "type": "Point", "coordinates": [ 122.572071555887561, -12.041951889932358 ] } },
{ "type": "Feature", "properties": { "fid": 103, "Titik": "A48", "Lintang": -12.034894970563371, "Bujur": 122.58053985913034, "Jenis": "Bilateral", "TipeZona": "Batas Landas Kontinen", "Datum": "WGS-84", "Batas_Ngr": "Australia", "StatusLaut": "Kesepakatan belum ratifikasi", "Jenis_Janj": "Treaty", "Janji_Tgl": "14 Maret", "Janji_Thn": 1997, "Ratif_Jns": "-", "Ratif_No": null, "Ratif_Thn": null }, "geometry": { "type": "Point", "coordinates": [ 122.58053985913034, -12.034894970563371 ] } },
{ "type": "Feature", "properties": { "fid": 104, "Titik": "A49", "Lintang": -11.993435569270567, "Bujur": 122.61017892048005, "Jenis": "Bilateral", "TipeZona": "Batas Landas Kontinen", "Datum": "WGS-84", "Batas_Ngr": "Australia", "StatusLaut": "Kesepakatan belum ratifikasi", "Jenis_Janj": "Treaty", "Janji_Tgl": "14 Maret", "Janji_Thn": 1997, "Ratif_Jns": "-", "Ratif_No": null, "Ratif_Thn": null }, "geometry": { "type": "Point", "coordinates": [ 122.610178920480053, -11.993435569270567 ] } },
{ "type": "Feature", "properties": { "fid": 105, "Titik": "A50", "Lintang": -11.96803065954221, "Bujur": 122.63082040963434, "Jenis": "Bilateral", "TipeZona": "Batas Landas Kontinen", "Datum": "WGS-84", "Batas_Ngr": "Australia", "StatusLaut": "Kesepakatan belum ratifikasi", "Jenis_Janj": "Treaty", "Janji_Tgl": "14 Maret", "Janji_Thn": 1997, "Ratif_Jns": "-", "Ratif_No": null, "Ratif_Thn": null }, "geometry": { "type": "Point", "coordinates": [ 122.630820409634339, -11.96803065954221 ] } },
{ "type": "Feature", "properties": { "fid": 106, "Titik": "A51", "Lintang": -11.9315111018077, "Bujur": 122.67527900165895, "Jenis": "Bilateral", "TipeZona": "Batas Landas Kontinen", "Datum": "WGS-84", "Batas_Ngr": "Australia", "StatusLaut": "Kesepakatan belum ratifikasi", "Jenis_Janj": "Treaty", "Janji_Tgl": "14 Maret", "Janji_Thn": 1997, "Ratif_Jns": "-", "Ratif_No": null, "Ratif_Thn": null }, "geometry": { "type": "Point", "coordinates": [ 122.67527900165895, -11.9315111018077 ] } },
{ "type": "Feature", "properties": { "fid": 107, "Titik": "A52", "Lintang": -11.906106192079344, "Bujur": 122.73085224168973, "Jenis": "Bilateral", "TipeZona": "Batas Landas Kontinen", "Datum": "WGS-84", "Batas_Ngr": "Australia", "StatusLaut": "Kesepakatan belum ratifikasi", "Jenis_Janj": "Treaty", "Janji_Tgl": "14 Maret", "Janji_Thn": 1997, "Ratif_Jns": "-", "Ratif_No": null, "Ratif_Thn": null }, "geometry": { "type": "Point", "coordinates": [ 122.730852241689732, -11.906106192079344 ] } },
{ "type": "Feature", "properties": { "fid": 108, "Titik": "A53", "Lintang": -11.8886403166411, "Bujur": 122.78166206114645, "Jenis": "Bilateral", "TipeZona": "Batas Landas Kontinen", "Datum": "WGS-84", "Batas_Ngr": "Australia", "StatusLaut": "Kesepakatan belum ratifikasi", "Jenis_Janj": "Treaty", "Janji_Tgl": "14 Maret", "Janji_Thn": 1997, "Ratif_Jns": "-", "Ratif_No": null, "Ratif_Thn": null }, "geometry": { "type": "Point", "coordinates": [ 122.781662061146449, -11.8886403166411 ] } },
{ "type": "Feature", "properties": { "fid": 109, "Titik": "A54", "Lintang": -11.863235406912745, "Bujur": 122.83167797717417, "Jenis": "Bilateral", "TipeZona": "Batas Landas Kontinen", "Datum": "WGS-84", "Batas_Ngr": "Australia", "StatusLaut": "Kesepakatan belum ratifikasi", "Jenis_Janj": "Treaty", "Janji_Tgl": "14 Maret", "Janji_Thn": 1997, "Ratif_Jns": "-", "Ratif_No": null, "Ratif_Thn": null }, "geometry": { "type": "Point", "coordinates": [ 122.831677977174166, -11.863235406912745 ] } },
{ "type": "Feature", "properties": { "fid": 110, "Titik": "A55", "Lintang": -11.841601538472194, "Bujur": 122.88566341034692, "Jenis": "Bilateral", "TipeZona": "Batas Landas Kontinen", "Datum": "WGS-84", "Batas_Ngr": "Australia", "StatusLaut": "Kesepakatan belum ratifikasi", "Jenis_Janj": "Treaty", "Janji_Tgl": "14 Maret", "Janji_Thn": 1997, "Ratif_Jns": "-", "Ratif_No": null, "Ratif_Thn": null }, "geometry": { "type": "Point", "coordinates": [ 122.885663410346922, -11.841601538472194 ] } },
{ "type": "Feature", "properties": { "fid": 111, "Titik": "A56", "Lintang": -11.832868600753072, "Bujur": 122.90630489950121, "Jenis": "Bilateral", "TipeZona": "Batas Landas Kontinen", "Datum": "WGS-84", "Batas_Ngr": "Australia", "StatusLaut": "Kesepakatan belum ratifikasi", "Jenis_Janj": "Treaty", "Janji_Tgl": "14 Maret", "Janji_Thn": 1997, "Ratif_Jns": "-", "Ratif_No": null, "Ratif_Thn": null }, "geometry": { "type": "Point", "coordinates": [ 122.906304899501208, -11.832868600753072 ] } },
{ "type": "Feature", "properties": { "fid": 112, "Titik": "A57", "Lintang": -11.826517373320982, "Bujur": 122.9205951612234, "Jenis": "Bilateral", "TipeZona": "Batas Landas Kontinen", "Datum": "WGS-84", "Batas_Ngr": "Australia", "StatusLaut": "Kesepakatan belum ratifikasi", "Jenis_Janj": "Treaty", "Janji_Tgl": "14 Maret", "Janji_Thn": 1997, "Ratif_Jns": "-", "Ratif_No": null, "Ratif_Thn": null }, "geometry": { "type": "Point", "coordinates": [ 122.920595161223403, -11.826517373320982 ] } },
{ "type": "Feature", "properties": { "fid": 113, "Titik": "A58", "Lintang": -11.822547856175927, "Bujur": 122.94679397438078, "Jenis": "Bilateral", "TipeZona": "Batas Landas Kontinen", "Datum": "WGS-84", "Batas_Ngr": "Australia", "StatusLaut": "Kesepakatan belum ratifikasi", "Jenis_Janj": "Treaty", "Janji_Tgl": "14 Maret", "Janji_Thn": 1997, "Ratif_Jns": "-", "Ratif_No": null, "Ratif_Thn": null }, "geometry": { "type": "Point", "coordinates": [ 122.946793974380782, -11.822547856175927 ] } },
{ "type": "Feature", "properties": { "fid": 114, "Titik": "A59", "Lintang": -11.813021015027793, "Bujur": 122.98569524240231, "Jenis": "Bilateral", "TipeZona": "Batas Landas Kontinen", "Datum": "WGS-84", "Batas_Ngr": "Australia", "StatusLaut": "Kesepakatan belum ratifikasi", "Jenis_Janj": "Treaty", "Janji_Tgl": "14 Maret", "Janji_Thn": 1997, "Ratif_Jns": "-", "Ratif_No": null, "Ratif_Thn": null }, "geometry": { "type": "Point", "coordinates": [ 122.985695242402315, -11.813021015027793 ] } },
{ "type": "Feature", "properties": { "fid": 115, "Titik": "A60", "Lintang": -11.813021015027793, "Bujur": 123.00474892469859, "Jenis": "Bilateral", "TipeZona": "Batas Landas Kontinen", "Datum": "WGS-84", "Batas_Ngr": "Australia", "StatusLaut": "Kesepakatan belum ratifikasi", "Jenis_Janj": "Treaty", "Janji_Tgl": "14 Maret", "Janji_Thn": 1997, "Ratif_Jns": "-", "Ratif_No": null, "Ratif_Thn": null }, "geometry": { "type": "Point", "coordinates": [ 123.004748924698589, -11.813021015027793 ] } },
{ "type": "Feature", "properties": { "fid": 116, "Titik": "A61", "Lintang": -11.816990532172849, "Bujur": 123.05317703386827, "Jenis": "Bilateral", "TipeZona": "Batas Landas Kontinen", "Datum": "WGS-84", "Batas_Ngr": "Australia", "StatusLaut": "Kesepakatan belum ratifikasi", "Jenis_Janj": "Treaty", "Janji_Tgl": "14 Maret", "Janji_Thn": 1997, "Ratif_Jns": "-", "Ratif_No": null, "Ratif_Thn": null }, "geometry": { "type": "Point", "coordinates": [ 123.053177033868266, -11.816990532172849 ] } },
{ "type": "Feature", "properties": { "fid": 117, "Titik": "A62", "Lintang": -11.825723469891971, "Bujur": 123.11430759790211, "Jenis": "Bilateral", "TipeZona": "Batas Landas Kontinen", "Datum": "WGS-84", "Batas_Ngr": "Australia", "StatusLaut": "Kesepakatan belum ratifikasi", "Jenis_Janj": "Treaty", "Janji_Tgl": "14 Maret", "Janji_Thn": 1997, "Ratif_Jns": "-", "Ratif_No": null, "Ratif_Thn": null }, "geometry": { "type": "Point", "coordinates": [ 123.114307597902112, -11.825723469891971 ] } },
{ "type": "Feature", "properties": { "fid": 118, "Titik": "A63", "Lintang": -11.835250311040104, "Bujur": 123.15241496249465, "Jenis": "Bilateral", "TipeZona": "Batas Landas Kontinen", "Datum": "WGS-84", "Batas_Ngr": "Australia", "StatusLaut": "Kesepakatan belum ratifikasi", "Jenis_Janj": "Treaty", "Janji_Tgl": "14 Maret", "Janji_Thn": 1997, "Ratif_Jns": "-", "Ratif_No": null, "Ratif_Thn": null }, "geometry": { "type": "Point", "coordinates": [ 123.152414962494646, -11.835250311040104 ] } },
{ "type": "Feature", "properties": { "fid": 119, "Titik": "A64", "Lintang": -11.843189345330215, "Bujur": 123.18972842365817, "Jenis": "Bilateral", "TipeZona": "Batas Landas Kontinen", "Datum": "WGS-84", "Batas_Ngr": "Australia", "StatusLaut": "Kesepakatan belum ratifikasi", "Jenis_Janj": "Treaty", "Janji_Tgl": "14 Maret", "Janji_Thn": 1997, "Ratif_Jns": "-", "Ratif_No": null, "Ratif_Thn": null }, "geometry": { "type": "Point", "coordinates": [ 123.189728423658167, -11.843189345330215 ] } },
{ "type": "Feature", "properties": { "fid": 120, "Titik": "A65", "Lintang": -11.845235435829901, "Bujur": 123.21338963379118, "Jenis": "Bilateral", "TipeZona": "Batas Landas Kontinen", "Datum": "WGS-84", "Batas_Ngr": "Australia", "StatusLaut": "Kesepakatan belum ratifikasi", "Jenis_Janj": "Treaty", "Janji_Tgl": "14 Maret", "Janji_Thn": 1997, "Ratif_Jns": "-", "Ratif_No": null, "Ratif_Thn": null }, "geometry": { "type": "Point", "coordinates": [ 123.213389633791181, -11.845235435829901 ] } }
]
}
