{
"type": "FeatureCollection",
"name": "TitikDasar",
"crs": { "type": "name", "properties": { "name": "urn:ogc:def:crs:OGC:1.3:CRS84" } },
"features": [
{ "type": "Feature", "properties": { "fid": 1, "TitikDasar": "TD.001", "Lintang": 1.2408, "Bujur": 104.5756, "Lokasi": "Tg. Berakit", "TitikRefer": "TR.001", "JarakTitik": 19.19, "Nomor_Peta": "431", "Datum_H": "WGS'84", "Datum_V": "MLWS", "Perairan": "Laut Natuna", "Sumber": "PP", "Sumber_No": 38, "Sumber_Th": 2002 }, "geometry": { "type": "Point", "coordinates": [ 104.5756, 1.2408 ] } },
{ "type": "Feature", "properties": { "fid": 2, "TitikDasar": "TD.001A", "Lintang": 1.0478, "Bujur": 104.8306, "Lokasi": "P. Sentut", "TitikRefer": "TR.001A", "JarakTitik": 88.06, "Nomor_Peta": "430_431", "Datum_H": "WGS'84", "Datum_V": "MLWS", "Perairan": "Laut Natuna", "Sumber": "PP", "Sumber_No": 38, "Sumber_Th": 2002 }, "geometry": { "type": "Point", "coordinates": [ 104.8306, 1.0478 ] } },
{ "type": "Feature", "properties": { "fid": 3, "TitikDasar": "TD.022", "Lintang": 2.3, "Bujur": 105.5964, "Lokasi": "P. Tokong Malang Biru", "TitikRefer": "TR.022", "JarakTitik": 29.5, "Nomor_Peta": "430", "Datum_H": "WGS'84", "Datum_V": "MLWS", "Perairan": "Laut Natuna", "Sumber": "PP", "Sumber_No": 38, "Sumber_Th": 2002 }, "geometry": { "type": "Point", "coordinates": [ 105.5964, 2.3 ] } },
{ "type": "Feature", "properties": { "fid": 4, "TitikDasar": "TD.023", "Lintang": 2.7414, "Bujur": 105.3794, "Lokasi": "P. Damar", "TitikRefer": "TR.023", "JarakTitik": 24.34, "Nomor_Peta": "423", "Datum_H": "WGS'84", "Datum_V": "MLWS", "Perairan": "Laut Natuna", "Sumber": "PP", "Sumber_No": 38, "Sumber_Th": 2002 }, "geometry": { "type": "Point", "coordinates": [ 105.3794, 2.7414 ] } },
{ "type": "Feature", "properties": { "fid": 5, "TitikDasar": "TD.024", "Lintang": 3.0922, "Bujur": 105.5833, "Lokasi": "P. Mangkai", "TitikRefer": "TR.024", "JarakTitik": 26.28, "Nomor_Peta": "423", "Datum_H": "WGS'84", "Datum_V": "MLWS", "Perairan": "Laut Natuna", "Sumber": "PP", "Sumber_No": 38, "Sumber_Th": 2002 }, "geometry": { "type": "Point", "coordinates": [ 105.5833, 3.0922 ] } },
{ "type": "Feature", "properties": { "fid": 6, "TitikDasar": "TD.025", "Lintang": 3.3311, "Bujur": 105.9511, "Lokasi": "P. Tokong Nanas", "TitikRefer": "TR.025", "JarakTitik": 20.35, "Nomor_Peta": "423", "Datum_H": "WGS'84", "Datum_V": "MLWS", "Perairan": "Laut Natuna", "Sumber": "PP", "Sumber_No": 38, "Sumber_Th": 2002 }, "geometry": { "type": "Point", "coordinates": [ 105.9511, 3.3311 ] } },
{ "type": "Feature", "properties": { "fid": 7, "TitikDasar": "TD.026", "Lintang": 3.4511, "Bujur": 106.2689, "Lokasi": "P. Tokongbelayar", "TitikRefer": "TR.026", "JarakTitik": 79.03, "Nomor_Peta": "423", "Datum_H": "WGS'84", "Datum_V": "MLWS", "Perairan": "Laut Natuna", "Sumber": "PP", "Sumber_No": 38, "Sumber_Th": 2002 }, "geometry": { "type": "Point", "coordinates": [ 106.2689, 3.4511 ] } },
{ "type": "Feature", "properties": { "fid": 8, "TitikDasar": "TD.028", "Lintang": 4.0669, "Bujur": 107.4358, "Lokasi": "P. Tokongboro", "TitikRefer": "TR.028", "JarakTitik": 32.06, "Nomor_Peta": "422", "Datum_H": "WGS'84", "Datum_V": "MLWS", "Perairan": "Laut Natuna", "Sumber": "PP", "Sumber_No": 38, "Sumber_Th": 2002 }, "geometry": { "type": "Point", "coordinates": [ 107.4358, 4.0669 ] } },
{ "type": "Feature", "properties": { "fid": 9, "TitikDasar": "TD.029", "Lintang": 4.5192, "Bujur": 107.7214, "Lokasi": "P. Semiun", "TitikRefer": "TR.029", "JarakTitik": 15.76, "Nomor_Peta": "421_422", "Datum_H": "WGS'84", "Datum_V": "MLWS", "Perairan": "Laut Natuna", "Sumber": "PP", "Sumber_No": 38, "Sumber_Th": 2002 }, "geometry": { "type": "Point", "coordinates": [ 107.7214, 4.5192 ] } },
{ "type": "Feature", "properties": { "fid": 10, "TitikDasar": "TD.030A", "Lintang": 4.7069, "Bujur": 107.9056, "Lokasi": "P. Sebetul", "TitikRefer": "TR.030A", "JarakTitik": 8.18, "Nomor_Peta": "421", "Datum_H": "WGS'84", "Datum_V": "MLWS", "Perairan": "Laut Cina Selatan", "Sumber": "PP", "Sumber_No": 38, "Sumber_Th": 2002 }, "geometry": { "type": "Point", "coordinates": [ 107.9056, 4.7069 ] } },
{ "type": "Feature", "properties": { "fid": 11, "TitikDasar": "TD.030B", "Lintang": 4.7939, "Bujur": 108.0108, "Lokasi": "P. Sekatung", "TitikRefer": "TR.030A", "JarakTitik": null, "Nomor_Peta": "421", "Datum_H": "WGS'84", "Datum_V": "MLWS", "Perairan": "Laut Cina Selatan", "Sumber": "PP", "Sumber_No": 38, "Sumber_Th": 2002 }, "geometry": { "type": "Point", "coordinates": [ 108.0108, 4.7939 ] } },
{ "type": "Feature", "properties": { "fid": 12, "TitikDasar": "TD.030D", "Lintang": 4.7958, "Bujur": 108.0219, "Lokasi": "P. Sekatung", "TitikRefer": "TR.030", "JarakTitik": 52.58, "Nomor_Peta": "421", "Datum_H": "WGS'84", "Datum_V": "MLWS", "Perairan": "Laut Cina Selatan", "Sumber": "PP", "Sumber_No": 38, "Sumber_Th": 2002 }, "geometry": { "type": "Point", "coordinates": [ 108.0219, 4.7958 ] } },
{ "type": "Feature", "properties": { "fid": 13, "TitikDasar": "TD.031", "Lintang": 4.0133, "Bujur": 108.4178, "Lokasi": "P. Senua", "TitikRefer": "TR.031", "JarakTitik": 66.03, "Nomor_Peta": "421", "Datum_H": "WGS'84", "Datum_V": "MLWS", "Perairan": "Laut Cina Selatan", "Sumber": "PP", "Sumber_No": 38, "Sumber_Th": 2002 }, "geometry": { "type": "Point", "coordinates": [ 108.4178, 4.0133 ] } },
{ "type": "Feature", "properties": { "fid": 14, "TitikDasar": "TD.032", "Lintang": 3.0308, "Bujur": 108.9144, "Lokasi": "P. Subi Kecil", "TitikRefer": "TR.032", "JarakTitik": 27.67, "Nomor_Peta": "420", "Datum_H": "WGS'84", "Datum_V": "MLWS", "Perairan": "Laut Natuna", "Sumber": "PP", "Sumber_No": 38, "Sumber_Th": 2002 }, "geometry": { "type": "Point", "coordinates": [ 108.9144, 3.0308 ] } },
{ "type": "Feature", "properties": { "fid": 15, "TitikDasar": "TD.033", "Lintang": 2.6453, "Bujur": 109.1678, "Lokasi": "P. Kepala", "TitikRefer": "TR.033", "JarakTitik": 44.1, "Nomor_Peta": "420", "Datum_H": "WGS'84", "Datum_V": "MLWS", "Perairan": "Laut Natuna", "Sumber": "PP", "Sumber_No": 38, "Sumber_Th": 2002 }, "geometry": { "type": "Point", "coordinates": [ 109.1678, 2.6453 ] } },
{ "type": "Feature", "properties": { "fid": 16, "TitikDasar": "TD.035", "Lintang": 2.0861, "Bujur": 109.6453, "Lokasi": "Tg. Datu", "TitikRefer": "TR.035", "JarakTitik": null, "Nomor_Peta": "420", "Datum_H": "WGS'84", "Datum_V": "MLWS", "Perairan": "Laut Natuna", "Sumber": "PP", "Sumber_No": 38, "Sumber_Th": 2002 }, "geometry": { "type": "Point", "coordinates": [ 109.6453, 2.0861 ] } },
{ "type": "Feature", "properties": { "fid": 17, "TitikDasar": "TD.036", "Lintang": 4.1694, "Bujur": 117.9081, "Lokasi": "P. Sebatik", "TitikRefer": "TR.036", "JarakTitik": 1.27, "Nomor_Peta": "489_59", "Datum_H": "WGS'84", "Datum_V": "MLWS", "Perairan": "Laut Sulawesi", "Sumber": "PP", "Sumber_No": 37, "Sumber_Th": 2008 }, "geometry": { "type": "Point", "coordinates": [ 117.9081, 4.1694 ] } },
{ "type": "Feature", "properties": { "fid": 18, "TitikDasar": "TD.036A", "Lintang": 4.1661, "Bujur": 117.9289, "Lokasi": "P. Sebatik", "TitikRefer": "TR.036", "JarakTitik": 0.82, "Nomor_Peta": "489_59", "Datum_H": "WGS'84", "Datum_V": "MLWS", "Perairan": "Laut Sulawesi", "Sumber": "PP", "Sumber_No": 37, "Sumber_Th": 2008 }, "geometry": { "type": "Point", "coordinates": [ 117.9289, 4.1661 ] } },
{ "type": "Feature", "properties": { "fid": 19, "TitikDasar": "TD.036B", "Lintang": 4.1594, "Bujur": 117.9408, "Lokasi": "P. Sebatik", "TitikRefer": "TR.036", "JarakTitik": 12.22, "Nomor_Peta": "489_59", "Datum_H": "WGS'84", "Datum_V": "MLWS", "Perairan": "Laut Sulawesi", "Sumber": "PP", "Sumber_No": 37, "Sumber_Th": 2008 }, "geometry": { "type": "Point", "coordinates": [ 117.9408, 4.1594 ] } },
{ "type": "Feature", "properties": { "fid": 20, "TitikDasar": "TD.037", "Lintang": 4.0106, "Bujur": 118.0828, "Lokasi": "Karang Unarang", "TitikRefer": "TR.036", "JarakTitik": 110.27, "Nomor_Peta": "489_59", "Datum_H": "WGS'84", "Datum_V": "MLWS", "Perairan": "Laut Sulawesi", "Sumber": "PP", "Sumber_No": 37, "Sumber_Th": 2008 }, "geometry": { "type": "Point", "coordinates": [ 118.0828, 4.0106 ] } },
{ "type": "Feature", "properties": { "fid": 21, "TitikDasar": "TD.039", "Lintang": 2.2533, "Bujur": 118.6447, "Lokasi": "P. Maratua", "TitikRefer": "TR.039", "JarakTitik": 36.95, "Nomor_Peta": "488", "Datum_H": "WGS'84", "Datum_V": "MLWS", "Perairan": "Laut Sulawesi", "Sumber": "PP", "Sumber_No": 38, "Sumber_Th": 2002 }, "geometry": { "type": "Point", "coordinates": [ 118.6447, 2.2533 ] } },
{ "type": "Feature", "properties": { "fid": 22, "TitikDasar": "TD.040", "Lintang": 1.7814, "Bujur": 119.0406, "Lokasi": "P. Sambit", "TitikRefer": "TR.040", "JarakTitik": 84.61, "Nomor_Peta": "488", "Datum_H": "WGS'84", "Datum_V": "MLWS", "Perairan": "Laut Sulawesi", "Sumber": "PP", "Sumber_No": 38, "Sumber_Th": 2002 }, "geometry": { "type": "Point", "coordinates": [ 119.0406, 1.7814 ] } },
{ "type": "Feature", "properties": { "fid": 23, "TitikDasar": "TD.043", "Lintang": 0.9986, "Bujur": 120.2139, "Lokasi": "P. Lingian", "TitikRefer": "TR.043", "JarakTitik": 40.21, "Nomor_Peta": "487", "Datum_H": "WGS'84", "Datum_V": "MLWS", "Perairan": "Laut Sulawesi", "Sumber": "PP", "Sumber_No": 38, "Sumber_Th": 2002 }, "geometry": { "type": "Point", "coordinates": [ 120.2139, 0.9986 ] } },
{ "type": "Feature", "properties": { "fid": 24, "TitikDasar": "TD.044", "Lintang": 1.3378, "Bujur": 120.7919, "Lokasi": "P. Salando", "TitikRefer": "TR.044", "JarakTitik": 6.05, "Nomor_Peta": "487", "Datum_H": "WGS'84", "Datum_V": "MLWS", "Perairan": "Laut Sulawesi", "Sumber": "PP", "Sumber_No": 38, "Sumber_Th": 2002 }, "geometry": { "type": "Point", "coordinates": [ 120.7919, 1.3378 ] } },
{ "type": "Feature", "properties": { "fid": 25, "TitikDasar": "TD.044A", "Lintang": 1.3778, "Bujur": 120.8844, "Lokasi": "P. Dolangan", "TitikRefer": "TR.044A", "JarakTitik": null, "Nomor_Peta": "486_487", "Datum_H": "WGS'84", "Datum_V": "MLWS", "Perairan": "Laut Sulawesi", "Sumber": "PP", "Sumber_No": 38, "Sumber_Th": 2002 }, "geometry": { "type": "Point", "coordinates": [ 120.8844, 1.3778 ] } },
{ "type": "Feature", "properties": { "fid": 26, "TitikDasar": "TD.044B", "Lintang": 1.3781, "Bujur": 120.8853, "Lokasi": "P. Dolangan", "TitikRefer": "TR.044A", "JarakTitik": 33.7, "Nomor_Peta": "486_487", "Datum_H": "WGS'84", "Datum_V": "MLWS", "Perairan": "Laut Sulawesi", "Sumber": "PP", "Sumber_No": 38, "Sumber_Th": 2002 }, "geometry": { "type": "Point", "coordinates": [ 120.8853, 1.3781 ] } },
{ "type": "Feature", "properties": { "fid": 27, "TitikDasar": "TD.045", "Lintang": 1.3133, "Bujur": 121.4433, "Lokasi": "Tg. Kramat", "TitikRefer": "TR.045", "JarakTitik": 60.1, "Nomor_Peta": "486", "Datum_H": "WGS'84", "Datum_V": "MLWS", "Perairan": "Laut Sulawesi", "Sumber": "PP", "Sumber_No": 38, "Sumber_Th": 2002 }, "geometry": { "type": "Point", "coordinates": [ 121.4433, 1.3133 ] } },
{ "type": "Feature", "properties": { "fid": 28, "TitikDasar": "TD.046A", "Lintang": 1.1381, "Bujur": 122.4297, "Lokasi": "Kr. Bollogut", "TitikRefer": "TR.046A", "JarakTitik": 41.32, "Nomor_Peta": "486", "Datum_H": "WGS'84", "Datum_V": "MLWS", "Perairan": "Laut Sulawesi", "Sumber": "PP", "Sumber_No": 38, "Sumber_Th": 2002 }, "geometry": { "type": "Point", "coordinates": [ 122.4297, 1.1381 ] } },
{ "type": "Feature", "properties": { "fid": 29, "TitikDasar": "TD.047", "Lintang": 1.0478, "Bujur": 123.1125, "Lokasi": "P. Bangkit", "TitikRefer": "TR.047", "JarakTitik": 74.17, "Nomor_Peta": "485", "Datum_H": "WGS'84", "Datum_V": "MLWS", "Perairan": "Laut Sulawesi", "Sumber": "PP", "Sumber_No": 38, "Sumber_Th": 2002 }, "geometry": { "type": "Point", "coordinates": [ 123.1125, 1.0478 ] } },
{ "type": "Feature", "properties": { "fid": 30, "TitikDasar": "TD.048", "Lintang": 1.1581, "Bujur": 124.3439, "Lokasi": "Tg. Laimpangi", "TitikRefer": "TR.048", "JarakTitik": 43.09, "Nomor_Peta": "485", "Datum_H": "WGS'84", "Datum_V": "MLWS", "Perairan": "Laut Sulawesi", "Sumber": "PP", "Sumber_No": 38, "Sumber_Th": 2002 }, "geometry": { "type": "Point", "coordinates": [ 124.3439, 1.1581 ] } },
{ "type": "Feature", "properties": { "fid": 31, "TitikDasar": "TD.049A", "Lintang": 1.7631, "Bujur": 124.7308, "Lokasi": "P. Manterawu", "TitikRefer": "TR.049A", "JarakTitik": 63.82, "Nomor_Peta": "484", "Datum_H": "WGS'84", "Datum_V": "MLWS", "Perairan": "Laut Sulawesi", "Sumber": "PP", "Sumber_No": 38, "Sumber_Th": 2002 }, "geometry": { "type": "Point", "coordinates": [ 124.7308, 1.7631 ] } },
{ "type": "Feature", "properties": { "fid": 32, "TitikDasar": "TD.051A", "Lintang": 2.7375, "Bujur": 125.1578, "Lokasi": "P. Makalehi", "TitikRefer": "TR.051", "JarakTitik": 90.35, "Nomor_Peta": "484", "Datum_H": "WGS'84", "Datum_V": "MLWS", "Perairan": "Laut Sulawesi", "Sumber": "PP", "Sumber_No": 38, "Sumber_Th": 2002 }, "geometry": { "type": "Point", "coordinates": [ 125.1578, 2.7375 ] } },
{ "type": "Feature", "properties": { "fid": 33, "TitikDasar": "TD.053A", "Lintang": 4.235, "Bujur": 125.3164, "Lokasi": "P. Kawalusu", "TitikRefer": "TR.053", "JarakTitik": 27.01, "Nomor_Peta": "483", "Datum_H": "WGS'84", "Datum_V": "MLWS", "Perairan": "Laut Sulawesi", "Sumber": "PP", "Sumber_No": 38, "Sumber_Th": 2002 }, "geometry": { "type": "Point", "coordinates": [ 125.3164, 4.235 ] } },
{ "type": "Feature", "properties": { "fid": 34, "TitikDasar": "TD.054", "Lintang": 4.6711, "Bujur": 125.4281, "Lokasi": "P. Kawio", "TitikRefer": "TR.054", "JarakTitik": 4.98, "Nomor_Peta": "482", "Datum_H": "WGS'84", "Datum_V": "MLWS", "Perairan": "Laut Mindanao", "Sumber": "PP", "Sumber_No": 38, "Sumber_Th": 2002 }, "geometry": { "type": "Point", "coordinates": [ 125.4281, 4.6711 ] } },
{ "type": "Feature", "properties": { "fid": 35, "TitikDasar": "TD.055", "Lintang": 4.7372, "Bujur": 125.4783, "Lokasi": "P. Marore", "TitikRefer": "TR.055", "JarakTitik": null, "Nomor_Peta": "482", "Datum_H": "WGS'84", "Datum_V": "MLWS", "Perairan": "Laut Mindanao", "Sumber": "PP", "Sumber_No": 38, "Sumber_Th": 2002 }, "geometry": { "type": "Point", "coordinates": [ 125.4783, 4.7372 ] } },
{ "type": "Feature", "properties": { "fid": 36, "TitikDasar": "TD.055A", "Lintang": 4.7403, "Bujur": 125.4822, "Lokasi": "P. Marore", "TitikRefer": "TR.055", "JarakTitik": 0.58, "Nomor_Peta": "482", "Datum_H": "WGS'84", "Datum_V": "MLWS", "Perairan": "Laut Mindanao", "Sumber": "PP", "Sumber_No": 38, "Sumber_Th": 2002 }, "geometry": { "type": "Point", "coordinates": [ 125.4822, 4.7403 ] } },
{ "type": "Feature", "properties": { "fid": 37, "TitikDasar": "TD.055B", "Lintang": 4.7461, "Bujur": 125.49, "Lokasi": "P. Batubawaikang", "TitikRefer": "TR.055", "JarakTitik": 81.75, "Nomor_Peta": "482", "Datum_H": "WGS'84", "Datum_V": "MLWS", "Perairan": "Laut Mindanao", "Sumber": "PP", "Sumber_No": 38, "Sumber_Th": 2002 }, "geometry": { "type": "Point", "coordinates": [ 125.49, 4.7461 ] } },
{ "type": "Feature", "properties": { "fid": 38, "TitikDasar": "TD.056", "Lintang": 5.5672, "Bujur": 126.5817, "Lokasi": "P. Mangas", "TitikRefer": "TR.056", "JarakTitik": null, "Nomor_Peta": "481_482", "Datum_H": "WGS'84", "Datum_V": "MLWS", "Perairan": "Laut Filipina", "Sumber": "PP", "Sumber_No": 38, "Sumber_Th": 2002 }, "geometry": { "type": "Point", "coordinates": [ 126.5817, 5.5672 ] } },
{ "type": "Feature", "properties": { "fid": 39, "TitikDasar": "TD.056A", "Lintang": 5.5658, "Bujur": 126.5914, "Lokasi": "P. Mangas", "TitikRefer": "TR.056", "JarakTitik": 57.91, "Nomor_Peta": "481_482", "Datum_H": "WGS'84", "Datum_V": "MLWS", "Perairan": "Laut Filipina", "Sumber": "PP", "Sumber_No": 38, "Sumber_Th": 2002 }, "geometry": { "type": "Point", "coordinates": [ 126.5914, 5.5658 ] } },
{ "type": "Feature", "properties": { "fid": 40, "TitikDasar": "TD.057A", "Lintang": 4.7717, "Bujur": 127.1422, "Lokasi": "P. Marampit", "TitikRefer": "TR.057", "JarakTitik": null, "Nomor_Peta": "481", "Datum_H": "WGS'84", "Datum_V": "MLWS", "Perairan": "Laut Filipina", "Sumber": "PP", "Sumber_No": 38, "Sumber_Th": 2002 }, "geometry": { "type": "Point", "coordinates": [ 127.1422, 4.7717 ] } },
{ "type": "Feature", "properties": { "fid": 41, "TitikDasar": "TD.057", "Lintang": 4.7608, "Bujur": 127.1456, "Lokasi": "P. Marampit", "TitikRefer": "TR.057", "JarakTitik": 7.1, "Nomor_Peta": "481", "Datum_H": "WGS'84", "Datum_V": "MLWS", "Perairan": "Laut Filipina", "Sumber": "PP", "Sumber_No": 38, "Sumber_Th": 2002 }, "geometry": { "type": "Point", "coordinates": [ 127.1456, 4.7608 ] } },
{ "type": "Feature", "properties": { "fid": 42, "TitikDasar": "TD.058A", "Lintang": 4.6439, "Bujur": 127.1636, "Lokasi": "P. Intata", "TitikRefer": "TR.058A", "JarakTitik": null, "Nomor_Peta": "481", "Datum_H": "WGS'84", "Datum_V": "MLWS", "Perairan": "Laut Filipina", "Sumber": "PP", "Sumber_No": 38, "Sumber_Th": 2002 }, "geometry": { "type": "Point", "coordinates": [ 127.1636, 4.6439 ] } },
{ "type": "Feature", "properties": { "fid": 43, "TitikDasar": "TD.058", "Lintang": 4.6267, "Bujur": 127.1647, "Lokasi": "P. Kakarutan", "TitikRefer": "TR.058", "JarakTitik": 55.63, "Nomor_Peta": "481", "Datum_H": "WGS'84", "Datum_V": "MLWS", "Perairan": "Laut Filipina", "Sumber": "PP", "Sumber_No": 38, "Sumber_Th": 2002 }, "geometry": { "type": "Point", "coordinates": [ 127.1647, 4.6267 ] } },
{ "type": "Feature", "properties": { "fid": 44, "TitikDasar": "TD.059", "Lintang": 3.7536, "Bujur": 126.8517, "Lokasi": "Tg. Tampida", "TitikRefer": "TR.059", "JarakTitik": 122.75, "Nomor_Peta": "480", "Datum_H": "WGS'84", "Datum_V": "MLWS", "Perairan": "Laut Halmahera", "Sumber": "PP", "Sumber_No": 38, "Sumber_Th": 2002 }, "geometry": { "type": "Point", "coordinates": [ 126.8517, 3.7536 ] } },
{ "type": "Feature", "properties": { "fid": 45, "TitikDasar": "TD.060", "Lintang": 2.6455, "Bujur": 128.5742, "Lokasi": "Tg. Sopi", "TitikRefer": "TR.060", "JarakTitik": null, "Nomor_Peta": "479", "Datum_H": "WGS'84", "Datum_V": "MLWS", "Perairan": "Laut Halmahera", "Sumber": "PP", "Sumber_No": 38, "Sumber_Th": 2002 }, "geometry": { "type": "Point", "coordinates": [ 128.5742, 2.6455 ] } },
{ "type": "Feature", "properties": { "fid": 46, "TitikDasar": "TD.061A", "Lintang": 2.4275, "Bujur": 128.6991, "Lokasi": "Tg. Gorua", "TitikRefer": "TR.061", "JarakTitik": 50.97, "Nomor_Peta": "479", "Datum_H": "WGS'84", "Datum_V": "MLWS", "Perairan": "Laut Halmahera", "Sumber": "PP", "Sumber_No": 38, "Sumber_Th": 2002 }, "geometry": { "type": "Point", "coordinates": [ 128.6991, 2.4275 ] } },
{ "type": "Feature", "properties": { "fid": 47, "TitikDasar": "TD.062", "Lintang": 1.5789, "Bujur": 128.7372, "Lokasi": "Tg. Lelai", "TitikRefer": "TR.062", "JarakTitik": 56.55, "Nomor_Peta": "479", "Datum_H": "WGS'84", "Datum_V": "MLWS", "Perairan": "Laut Halmahera", "Sumber": "PP", "Sumber_No": 38, "Sumber_Th": 2002 }, "geometry": { "type": "Point", "coordinates": [ 128.7372, 1.5789 ] } },
{ "type": "Feature", "properties": { "fid": 48, "TitikDasar": "TD.063", "Lintang": 0.7275, "Bujur": 129.1416, "Lokasi": "P. Jiew", "TitikRefer": "TR.063", "JarakTitik": 96.05, "Nomor_Peta": "478", "Datum_H": "WGS'84", "Datum_V": "MLWS", "Perairan": "Laut Halmahera", "Sumber": "PP", "Sumber_No": 38, "Sumber_Th": 2002 }, "geometry": { "type": "Point", "coordinates": [ 129.1416, 0.7275 ] } },
{ "type": "Feature", "properties": { "fid": 49, "TitikDasar": "TD.065", "Lintang": 0.5355, "Bujur": 130.7311, "Lokasi": "P. Budd", "TitikRefer": "TR.065", "JarakTitik": 45.91, "Nomor_Peta": "477", "Datum_H": "WGS'84", "Datum_V": "MLWS", "Perairan": "Samudra Pasifik", "Sumber": "PP", "Sumber_No": 38, "Sumber_Th": 2002 }, "geometry": { "type": "Point", "coordinates": [ 130.7311, 0.5355 ] } },
{ "type": "Feature", "properties": { "fid": 50, "TitikDasar": "TD.066", "Lintang": 1.0889, "Bujur": 131.2597, "Lokasi": "P. Fani", "TitikRefer": "TR.066", "JarakTitik": null, "Nomor_Peta": "477", "Datum_H": "WGS'84", "Datum_V": "MLWS", "Perairan": "Samudra Pasifik", "Sumber": "PP", "Sumber_No": 38, "Sumber_Th": 2002 }, "geometry": { "type": "Point", "coordinates": [ 131.2597, 1.0889 ] } },
{ "type": "Feature", "properties": { "fid": 51, "TitikDasar": "TD.066A", "Lintang": 1.0745, "Bujur": 131.2803, "Lokasi": "P. Fani", "TitikRefer": "TR.066", "JarakTitik": 99.81, "Nomor_Peta": "477", "Datum_H": "WGS'84", "Datum_V": "MLWS", "Perairan": "Samudra Pasifik", "Sumber": "PP", "Sumber_No": 38, "Sumber_Th": 2002 }, "geometry": { "type": "Point", "coordinates": [ 131.2803, 1.0745 ] } },
{ "type": "Feature", "properties": { "fid": 52, "TitikDasar": "TD.070", "Lintang": -0.3377, "Bujur": 132.1594, "Lokasi": "P. Miossu", "TitikRefer": "TR.070", "JarakTitik": 15.77, "Nomor_Peta": "476", "Datum_H": "WGS'84", "Datum_V": "MLWS", "Perairan": "Samudra Pasifik", "Sumber": "PP", "Sumber_No": 38, "Sumber_Th": 2002 }, "geometry": { "type": "Point", "coordinates": [ 132.1594, -0.3377 ] } },
{ "type": "Feature", "properties": { "fid": 53, "TitikDasar": "TD.070A", "Lintang": -0.3427, "Bujur": 132.4222, "Lokasi": "Tg. Yamursba", "TitikRefer": "TR.070A", "JarakTitik": 17.72, "Nomor_Peta": "476", "Datum_H": "WGS'84", "Datum_V": "MLWS", "Perairan": "Samudra Pasifik", "Sumber": "PP", "Sumber_No": 38, "Sumber_Th": 2002 }, "geometry": { "type": "Point", "coordinates": [ 132.4222, -0.3427 ] } },
{ "type": "Feature", "properties": { "fid": 54, "TitikDasar": "TD.071", "Lintang": -0.3617, "Bujur": 132.7169, "Lokasi": "Tg. Wasio", "TitikRefer": "TR.071", "JarakTitik": 122.74, "Nomor_Peta": "476", "Datum_H": "WGS'84", "Datum_V": "MLWS", "Perairan": "Samudra Pasifik", "Sumber": "PP", "Sumber_No": 38, "Sumber_Th": 2002 }, "geometry": { "type": "Point", "coordinates": [ 132.7169, -0.3617 ] } },
{ "type": "Feature", "properties": { "fid": 55, "TitikDasar": "TD.072", "Lintang": 0.9394, "Bujur": 134.2956, "Lokasi": "P. Fanildo", "TitikRefer": "TR.072", "JarakTitik": null, "Nomor_Peta": "475", "Datum_H": "WGS'84", "Datum_V": "MLWS", "Perairan": "Samudra Pasifik", "Sumber": "PP", "Sumber_No": 38, "Sumber_Th": 2002 }, "geometry": { "type": "Point", "coordinates": [ 134.2956, 0.9394 ] } },
{ "type": "Feature", "properties": { "fid": 56, "TitikDasar": "TD.072A", "Lintang": 0.9325, "Bujur": 134.3417, "Lokasi": "P. Bras", "TitikRefer": "TR.072", "JarakTitik": 97.28, "Nomor_Peta": "475", "Datum_H": "WGS'84", "Datum_V": "MLWS", "Perairan": "Samudra Pasifik", "Sumber": "PP", "Sumber_No": 38, "Sumber_Th": 2002 }, "geometry": { "type": "Point", "coordinates": [ 134.3417, 0.9325 ] } },
{ "type": "Feature", "properties": { "fid": 57, "TitikDasar": "TD.074", "Lintang": -0.3939, "Bujur": 135.2742, "Lokasi": "P. Bepondi", "TitikRefer": "TR.074", "JarakTitik": 39.41, "Nomor_Peta": "474", "Datum_H": "WGS'84", "Datum_V": "MLWS", "Perairan": "Samudra Pasifik", "Sumber": "PP", "Sumber_No": 38, "Sumber_Th": 2002 }, "geometry": { "type": "Point", "coordinates": [ 135.2742, -0.3939 ] } },
{ "type": "Feature", "properties": { "fid": 58, "TitikDasar": "TD.076B", "Lintang": -0.6989, "Bujur": 135.8558, "Lokasi": "Tg. Wasanbari", "TitikRefer": "TR.077", "JarakTitik": 38.9, "Nomor_Peta": "474", "Datum_H": "WGS'84", "Datum_V": "MLWS", "Perairan": "Samudra Pasifik", "Sumber": "PP", "Sumber_No": 38, "Sumber_Th": 2002 }, "geometry": { "type": "Point", "coordinates": [ 135.8558, -0.6989 ] } },
{ "type": "Feature", "properties": { "fid": 59, "TitikDasar": "TD.077", "Lintang": -1.0703, "Bujur": 136.3872, "Lokasi": "Tg. Basari", "TitikRefer": "TR.077", "JarakTitik": 95.45, "Nomor_Peta": "473", "Datum_H": "WGS'84", "Datum_V": "MLWS", "Perairan": "Samudra Pasifik", "Sumber": "PP", "Sumber_No": 38, "Sumber_Th": 2002 }, "geometry": { "type": "Point", "coordinates": [ 136.3872, -1.0703 ] } },
{ "type": "Feature", "properties": { "fid": 60, "TitikDasar": "TD.078", "Lintang": -1.4564, "Bujur": 137.9308, "Lokasi": "Tg. Narwaku", "TitikRefer": "TR.078", "JarakTitik": 47.61, "Nomor_Peta": "472", "Datum_H": "WGS'84", "Datum_V": "MLWS", "Perairan": "Samudra Pasifik", "Sumber": "PP", "Sumber_No": 38, "Sumber_Th": 2002 }, "geometry": { "type": "Point", "coordinates": [ 137.9308, -1.4564 ] } },
{ "type": "Feature", "properties": { "fid": 61, "TitikDasar": "TD.079", "Lintang": -1.5739, "Bujur": 138.7158, "Lokasi": "P. Liki", "TitikRefer": "TR.079", "JarakTitik": 97.06, "Nomor_Peta": "472", "Datum_H": "WGS'84", "Datum_V": "MLWS", "Perairan": "Samudra Pasifik", "Sumber": "PP", "Sumber_No": 38, "Sumber_Th": 2002 }, "geometry": { "type": "Point", "coordinates": [ 138.7158, -1.5739 ] } },
{ "type": "Feature", "properties": { "fid": 62, "TitikDasar": "TD.080", "Lintang": -2.32, "Bujur": 140.1519, "Lokasi": "Tg. Kamdara", "TitikRefer": "TR.080", "JarakTitik": 28.56, "Nomor_Peta": "471", "Datum_H": "WGS'84", "Datum_V": "MLWS", "Perairan": "Samudra Pasifik", "Sumber": "PP", "Sumber_No": 38, "Sumber_Th": 2002 }, "geometry": { "type": "Point", "coordinates": [ 140.1519, -2.32 ] } },
{ "type": "Feature", "properties": { "fid": 63, "TitikDasar": "TD.080A", "Lintang": -2.4394, "Bujur": 140.6131, "Lokasi": "Tg. Kelapa", "TitikRefer": "TR.080A", "JarakTitik": 25.22, "Nomor_Peta": "471", "Datum_H": "WGS'84", "Datum_V": "MLWS", "Perairan": "Samudra Pasifik", "Sumber": "PP", "Sumber_No": 38, "Sumber_Th": 2002 }, "geometry": { "type": "Point", "coordinates": [ 140.6131, -2.4394 ] } },
{ "type": "Feature", "properties": { "fid": 64, "TitikDasar": "TD.081", "Lintang": -2.6044, "Bujur": 141.0, "Lokasi": "Tg. Oinake", "TitikRefer": "TR.081", "JarakTitik": null, "Nomor_Peta": "471", "Datum_H": "WGS'84", "Datum_V": "MLWS", "Perairan": "Samudra Pasifik", "Sumber": "PP", "Sumber_No": 38, "Sumber_Th": 2002 }, "geometry": { "type": "Point", "coordinates": [ 141.0, -2.6044 ] } },
{ "type": "Feature", "properties": { "fid": 65, "TitikDasar": "TD.082", "Lintang": -9.1278, "Bujur": 141.0194, "Lokasi": "S.Torasi", "TitikRefer": "TR.082", "JarakTitik": null, "Nomor_Peta": "470", "Datum_H": "WGS'84", "Datum_V": "MLWS", "Perairan": "Laut Arafura", "Sumber": "PP", "Sumber_No": 38, "Sumber_Th": 2002 }, "geometry": { "type": "Point", "coordinates": [ 141.0194, -9.1278 ] } },
{ "type": "Feature", "properties": { "fid": 66, "TitikDasar": "TD.082A", "Lintang": -9.1814, "Bujur": 140.9853, "Lokasi": "S.Torasi", "TitikRefer": "TR.082", "JarakTitik": null, "Nomor_Peta": "470", "Datum_H": "WGS'84", "Datum_V": "MLWS", "Perairan": "Laut Arafura", "Sumber": "PP", "Sumber_No": 38, "Sumber_Th": 2002 }, "geometry": { "type": "Point", "coordinates": [ 140.9853, -9.1814 ] } },
{ "type": "Feature", "properties": { "fid": 67, "TitikDasar": "TD.082B", "Lintang": -9.2036, "Bujur": 140.9575, "Lokasi": "S.Torasi", "TitikRefer": "TR.082", "JarakTitik": null, "Nomor_Peta": "470", "Datum_H": "WGS'84", "Datum_V": "MLWS", "Perairan": "Laut Arafura", "Sumber": "PP", "Sumber_No": 38, "Sumber_Th": 2002 }, "geometry": { "type": "Point", "coordinates": [ 140.9575, -9.2036 ] } },
{ "type": "Feature", "properties": { "fid": 68, "TitikDasar": "TD.082C", "Lintang": -9.2, "Bujur": 140.9356, "Lokasi": "S.Torasi", "TitikRefer": "TR.082", "JarakTitik": null, "Nomor_Peta": "470", "Datum_H": "WGS'84", "Datum_V": "MLWS", "Perairan": "Laut Arafura", "Sumber": "PP", "Sumber_No": 38, "Sumber_Th": 2002 }, "geometry": { "type": "Point", "coordinates": [ 140.9356, -9.2 ] } },
{ "type": "Feature", "properties": { "fid": 69, "TitikDasar": "TD.083", "Lintang": -9.095, "Bujur": 140.8494, "Lokasi": "S. Blatar", "TitikRefer": "TR.083", "JarakTitik": 97.35, "Nomor_Peta": "470", "Datum_H": "WGS'84", "Datum_V": "MLWS", "Perairan": "Laut Arafura", "Sumber": "PP", "Sumber_No": 38, "Sumber_Th": 2002 }, "geometry": { "type": "Point", "coordinates": [ 140.8494, -9.095 ] } },
{ "type": "Feature", "properties": { "fid": 70, "TitikDasar": "TD.085", "Lintang": -8.2698, "Bujur": 139.4364, "Lokasi": "Kr. Sametinke", "TitikRefer": "TR.085", "JarakTitik": 33.0, "Nomor_Peta": "470", "Datum_H": "WGS'84", "Datum_V": "MLWS", "Perairan": "Laut Arafura", "Sumber": "PP", "Sumber_No": 38, "Sumber_Th": 2002 }, "geometry": { "type": "Point", "coordinates": [ 139.4364, -8.2698 ] } },
{ "type": "Feature", "properties": { "fid": 71, "TitikDasar": "TD.086", "Lintang": -8.4358, "Bujur": 138.9064, "Lokasi": "Ug. Komoran", "TitikRefer": "TR.086", "JarakTitik": 74.11, "Nomor_Peta": "469", "Datum_H": "WGS'84", "Datum_V": "MLWS", "Perairan": "Laut Arafura", "Sumber": "PP", "Sumber_No": 38, "Sumber_Th": 2002 }, "geometry": { "type": "Point", "coordinates": [ 138.9064, -8.4358 ] } },
{ "type": "Feature", "properties": { "fid": 72, "TitikDasar": "TD.088A", "Lintang": -8.4455, "Bujur": 137.6578, "Lokasi": "Ug. Salah", "TitikRefer": "TR.088", "JarakTitik": null, "Nomor_Peta": "469", "Datum_H": "WGS'84", "Datum_V": "MLWS", "Perairan": "Laut Aru", "Sumber": "PP", "Sumber_No": 38, "Sumber_Th": 2002 }, "geometry": { "type": "Point", "coordinates": [ 137.6578, -8.4455 ] } },
{ "type": "Feature", "properties": { "fid": 73, "TitikDasar": "TD.088E", "Lintang": -8.2136, "Bujur": 137.69, "Lokasi": "P. Kolepon", "TitikRefer": "TR.088", "JarakTitik": 25.15, "Nomor_Peta": "469", "Datum_H": "WGS'84", "Datum_V": "MLWS", "Perairan": "Laut Aru", "Sumber": "PP", "Sumber_No": 38, "Sumber_Th": 2002 }, "geometry": { "type": "Point", "coordinates": [ 137.69, -8.2136 ] } },
{ "type": "Feature", "properties": { "fid": 74, "TitikDasar": "TD.088F", "Lintang": -7.8245, "Bujur": 137.8472, "Lokasi": "S. Korima", "TitikRefer": "TR.088", "JarakTitik": 93.9, "Nomor_Peta": "469", "Datum_H": "WGS'84", "Datum_V": "MLWS", "Perairan": "Laut Aru", "Sumber": "PP", "Sumber_No": 38, "Sumber_Th": 2002 }, "geometry": { "type": "Point", "coordinates": [ 137.8472, -7.8245 ] } },
{ "type": "Feature", "properties": { "fid": 75, "TitikDasar": "TD.090", "Lintang": -6.3586, "Bujur": 138.3997, "Lokasi": "S. Cook", "TitikRefer": "TR.090", "JarakTitik": 30.63, "Nomor_Peta": "468", "Datum_H": "WGS'84", "Datum_V": "MLWS", "Perairan": "Laut Aru", "Sumber": "PP", "Sumber_No": 38, "Sumber_Th": 2002 }, "geometry": { "type": "Point", "coordinates": [ 138.3997, -6.3586 ] } },
{ "type": "Feature", "properties": { "fid": 76, "TitikDasar": "TD.091", "Lintang": -5.9792, "Bujur": 138.0561, "Lokasi": "Gosong Triton", "TitikRefer": "TR.091", "JarakTitik": 40.83, "Nomor_Peta": "467_468", "Datum_H": "WGS'84", "Datum_V": "MLWS", "Perairan": "Laut Aru", "Sumber": "PP", "Sumber_No": 38, "Sumber_Th": 2002 }, "geometry": { "type": "Point", "coordinates": [ 138.0561, -5.9792 ] } },
{ "type": "Feature", "properties": { "fid": 77, "TitikDasar": "TD.092", "Lintang": -5.3872, "Bujur": 137.7186, "Lokasi": "P. Laag", "TitikRefer": "TR.092", "JarakTitik": 64.15, "Nomor_Peta": "467", "Datum_H": "WGS'84", "Datum_V": "MLWS", "Perairan": "Laut Aru", "Sumber": "PP", "Sumber_No": 38, "Sumber_Th": 2002 }, "geometry": { "type": "Point", "coordinates": [ 137.7186, -5.3872 ] } },
{ "type": "Feature", "properties": { "fid": 78, "TitikDasar": "TD.093", "Lintang": -4.9067, "Bujur": 136.7597, "Lokasi": "Tg. Pahonbatu", "TitikRefer": "TR.093", "JarakTitik": 41.32, "Nomor_Peta": "467", "Datum_H": "WGS'84", "Datum_V": "MLWS", "Perairan": "Laut Aru", "Sumber": "PP", "Sumber_No": 38, "Sumber_Th": 2002 }, "geometry": { "type": "Point", "coordinates": [ 136.7597, -4.9067 ] } },
{ "type": "Feature", "properties": { "fid": 79, "TitikDasar": "TD.094", "Lintang": -4.6447, "Bujur": 136.1206, "Lokasi": "Amarapya", "TitikRefer": "TR.094", "JarakTitik": 96.49, "Nomor_Peta": "466", "Datum_H": "WGS'84", "Datum_V": "MLWS", "Perairan": "Laut Aru", "Sumber": "PP", "Sumber_No": 38, "Sumber_Th": 2002 }, "geometry": { "type": "Point", "coordinates": [ 136.1206, -4.6447 ] } },
{ "type": "Feature", "properties": { "fid": 80, "TitikDasar": "TD.097A", "Lintang": -5.595, "Bujur": 134.8181, "Lokasi": "P. Ararkula", "TitikRefer": "TR.097", "JarakTitik": 25.02, "Nomor_Peta": "466", "Datum_H": "WGS'84", "Datum_V": "MLWS", "Perairan": "Laut Aru", "Sumber": "PP", "Sumber_No": 38, "Sumber_Th": 2002 }, "geometry": { "type": "Point", "coordinates": [ 134.8181, -5.595 ] } },
{ "type": "Feature", "properties": { "fid": 81, "TitikDasar": "TD.098", "Lintang": -6.0025, "Bujur": 134.9072, "Lokasi": "P. Karaweira Br", "TitikRefer": "TR.098", "JarakTitik": 19.29, "Nomor_Peta": "465", "Datum_H": "WGS'84", "Datum_V": "MLWS", "Perairan": "Laut Aru", "Sumber": "PP", "Sumber_No": 38, "Sumber_Th": 2002 }, "geometry": { "type": "Point", "coordinates": [ 134.9072, -6.0025 ] } },
{ "type": "Feature", "properties": { "fid": 82, "TitikDasar": "TD.099", "Lintang": -6.3239, "Bujur": 134.9147, "Lokasi": "P. Panambulai", "TitikRefer": "TR.099", "JarakTitik": 19.95, "Nomor_Peta": "465", "Datum_H": "WGS'84", "Datum_V": "MLWS", "Perairan": "Laut Aru", "Sumber": "PP", "Sumber_No": 38, "Sumber_Th": 2002 }, "geometry": { "type": "Point", "coordinates": [ 134.9147, -6.3239 ] } },
{ "type": "Feature", "properties": { "fid": 83, "TitikDasar": "TD.099A", "Lintang": -6.6472, "Bujur": 134.8367, "Lokasi": "P. Kultubai Utara", "TitikRefer": "TR.099", "JarakTitik": 11.45, "Nomor_Peta": "465", "Datum_H": "WGS'84", "Datum_V": "MLWS", "Perairan": "Laut Aru", "Sumber": "PP", "Sumber_No": 38, "Sumber_Th": 2002 }, "geometry": { "type": "Point", "coordinates": [ 134.8367, -6.6472 ] } },
{ "type": "Feature", "properties": { "fid": 84, "TitikDasar": "TD.100", "Lintang": -6.8317, "Bujur": 134.7872, "Lokasi": "P. Kultubai Selatan", "TitikRefer": "TR.100", "JarakTitik": 12.62, "Nomor_Peta": "465", "Datum_H": "WGS'84", "Datum_V": "MLWS", "Perairan": "Laut Aru", "Sumber": "PP", "Sumber_No": 38, "Sumber_Th": 2002 }, "geometry": { "type": "Point", "coordinates": [ 134.7872, -6.8317 ] } },
{ "type": "Feature", "properties": { "fid": 85, "TitikDasar": "TD.100A", "Lintang": -7.0189, "Bujur": 134.6906, "Lokasi": "P. Karang", "TitikRefer": "TR.100A", "JarakTitik": null, "Nomor_Peta": "465", "Datum_H": "WGS'84", "Datum_V": "MLWS", "Perairan": "Laut Aru", "Sumber": "PP", "Sumber_No": 38, "Sumber_Th": 2002 }, "geometry": { "type": "Point", "coordinates": [ 134.6906, -7.0189 ] } },
{ "type": "Feature", "properties": { "fid": 86, "TitikDasar": "TD.100B", "Lintang": -7.03, "Bujur": 134.6772, "Lokasi": "P. Karang", "TitikRefer": "TR.100B", "JarakTitik": 10.25, "Nomor_Peta": "465", "Datum_H": "WGS'84", "Datum_V": "MLWS", "Perairan": "Laut Aru", "Sumber": "PP", "Sumber_No": 38, "Sumber_Th": 2002 }, "geometry": { "type": "Point", "coordinates": [ 134.6772, -7.03 ] } },
{ "type": "Feature", "properties": { "fid": 87, "TitikDasar": "TD.101", "Lintang": -7.1039, "Bujur": 134.5219, "Lokasi": "P. Enu", "TitikRefer": "TR.100B", "JarakTitik": null, "Nomor_Peta": "465", "Datum_H": "WGS'84", "Datum_V": "MLWS", "Perairan": "Laut Aru", "Sumber": "PP", "Sumber_No": 38, "Sumber_Th": 2002 }, "geometry": { "type": "Point", "coordinates": [ 134.5219, -7.1039 ] } },
{ "type": "Feature", "properties": { "fid": 88, "TitikDasar": "TD.101A", "Lintang": -7.0897, "Bujur": 134.4717, "Lokasi": "P. Enu", "TitikRefer": "TR.100B", "JarakTitik": 18.54, "Nomor_Peta": "465", "Datum_H": "WGS'84", "Datum_V": "MLWS", "Perairan": "Laut Aru", "Sumber": "PP", "Sumber_No": 38, "Sumber_Th": 2002 }, "geometry": { "type": "Point", "coordinates": [ 134.4717, -7.0897 ] } },
{ "type": "Feature", "properties": { "fid": 89, "TitikDasar": "TD.102", "Lintang": -6.9503, "Bujur": 134.1939, "Lokasi": "P. Batugoyang", "TitikRefer": "TR.102", "JarakTitik": 98.34, "Nomor_Peta": "464_465", "Datum_H": "WGS'84", "Datum_V": "MLWS", "Perairan": "Laut Aru", "Sumber": "PP", "Sumber_No": 38, "Sumber_Th": 2002 }, "geometry": { "type": "Point", "coordinates": [ 134.1939, -6.9503 ] } },
{ "type": "Feature", "properties": { "fid": 90, "TitikDasar": "TD.103", "Lintang": -6.0069, "Bujur": 132.845, "Lokasi": "Tg. Weduar", "TitikRefer": "TR.103", "JarakTitik": 90.19, "Nomor_Peta": "464", "Datum_H": "WGS'84", "Datum_V": "MLWS", "Perairan": "Laut Aru", "Sumber": "PP", "Sumber_No": 38, "Sumber_Th": 2002 }, "geometry": { "type": "Point", "coordinates": [ 132.845, -6.0069 ] } },
{ "type": "Feature", "properties": { "fid": 91, "TitikDasar": "TD.104", "Lintang": -7.2405, "Bujur": 131.9803, "Lokasi": "P. Larat", "TitikRefer": "TR.104", "JarakTitik": 29.55, "Nomor_Peta": "463", "Datum_H": "WGS'84", "Datum_V": "MLWS", "Perairan": "Laut Aru", "Sumber": "PP", "Sumber_No": 38, "Sumber_Th": 2002 }, "geometry": { "type": "Point", "coordinates": [ 131.9803, -7.2405 ] } },
{ "type": "Feature", "properties": { "fid": 92, "TitikDasar": "TD.105B", "Lintang": -7.6636, "Bujur": 131.7258, "Lokasi": "Kr. Sarikilmasa", "TitikRefer": "TR.104", "JarakTitik": 34.38, "Nomor_Peta": "463", "Datum_H": "WGS'84", "Datum_V": "MLWS", "Perairan": "Laut Aru", "Sumber": "PP", "Sumber_No": 38, "Sumber_Th": 2002 }, "geometry": { "type": "Point", "coordinates": [ 131.7258, -7.6636 ] } },
{ "type": "Feature", "properties": { "fid": 93, "TitikDasar": "TD.105", "Lintang": -8.0519, "Bujur": 131.3006, "Lokasi": "P. Asutubun", "TitikRefer": "TR.105", "JarakTitik": null, "Nomor_Peta": "463", "Datum_H": "WGS'84", "Datum_V": "MLWS", "Perairan": "Laut Timor", "Sumber": "PP", "Sumber_No": 38, "Sumber_Th": 2002 }, "geometry": { "type": "Point", "coordinates": [ 131.3006, -8.0519 ] } },
{ "type": "Feature", "properties": { "fid": 94, "TitikDasar": "TD.105C", "Lintang": -8.0658, "Bujur": 131.2819, "Lokasi": "P. Asutubun", "TitikRefer": "TR.105", "JarakTitik": 11.26, "Nomor_Peta": "463", "Datum_H": "WGS'84", "Datum_V": "MLWS", "Perairan": "Laut Timor", "Sumber": "PP", "Sumber_No": 38, "Sumber_Th": 2002 }, "geometry": { "type": "Point", "coordinates": [ 131.2819, -8.0658 ] } },
{ "type": "Feature", "properties": { "fid": 95, "TitikDasar": "TD.106", "Lintang": -8.1714, "Bujur": 131.1253, "Lokasi": "P. Selaru Timur", "TitikRefer": "TR.106", "JarakTitik": 16.24, "Nomor_Peta": "462_463", "Datum_H": "WGS'84", "Datum_V": "MLWS", "Perairan": "Laut Timor", "Sumber": "PP", "Sumber_No": 38, "Sumber_Th": 2002 }, "geometry": { "type": "Point", "coordinates": [ 131.1253, -8.1714 ] } },
{ "type": "Feature", "properties": { "fid": 96, "TitikDasar": "TD.106A", "Lintang": -8.3075, "Bujur": 130.8889, "Lokasi": "P. Selaru Barat", "TitikRefer": "TR.106", "JarakTitik": 4.52, "Nomor_Peta": "462_463", "Datum_H": "WGS'84", "Datum_V": "MLWS", "Perairan": "Laut Timor", "Sumber": "PP", "Sumber_No": 38, "Sumber_Th": 2002 }, "geometry": { "type": "Point", "coordinates": [ 130.8889, -8.3075 ] } },
{ "type": "Feature", "properties": { "fid": 97, "TitikDasar": "TD.107", "Lintang": -8.3416, "Bujur": 130.8211, "Lokasi": "P. Batarkusu", "TitikRefer": "TR.107", "JarakTitik": 0.51, "Nomor_Peta": "462", "Datum_H": "WGS'84", "Datum_V": "MLWS", "Perairan": "Laut Timor", "Sumber": "PP", "Sumber_No": 38, "Sumber_Th": 2002 }, "geometry": { "type": "Point", "coordinates": [ 130.8211, -8.3416 ] } },
{ "type": "Feature", "properties": { "fid": 98, "TitikDasar": "TD.107A", "Lintang": -8.3447, "Bujur": 130.8131, "Lokasi": "Fursey", "TitikRefer": "TR.107", "JarakTitik": null, "Nomor_Peta": "462", "Datum_H": "WGS'84", "Datum_V": "MLWS", "Perairan": "Laut Timor", "Sumber": "PP", "Sumber_No": 38, "Sumber_Th": 2002 }, "geometry": { "type": "Point", "coordinates": [ 130.8131, -8.3447 ] } },
{ "type": "Feature", "properties": { "fid": 99, "TitikDasar": "TD.107C", "Lintang": -8.3483, "Bujur": 130.7558, "Lokasi": "Tg. Arousu", "TitikRefer": "TR.107", "JarakTitik": 55.73, "Nomor_Peta": "462", "Datum_H": "WGS'84", "Datum_V": "MLWS", "Perairan": "Laut Timor", "Sumber": "PP", "Sumber_No": 38, "Sumber_Th": 2002 }, "geometry": { "type": "Point", "coordinates": [ 130.7558, -8.3483 ] } },
{ "type": "Feature", "properties": { "fid": 100, "TitikDasar": "TD.108", "Lintang": -8.2248, "Bujur": 129.8256, "Lokasi": "P. Masela", "TitikRefer": "TR.108", "JarakTitik": 78.22, "Nomor_Peta": "462", "Datum_H": "WGS'84", "Datum_V": "MLWS", "Perairan": "Laut Timor", "Sumber": "PP", "Sumber_No": 38, "Sumber_Th": 2002 }, "geometry": { "type": "Point", "coordinates": [ 129.8256, -8.2248 ] } },
{ "type": "Feature", "properties": { "fid": 101, "TitikDasar": "TD.109", "Lintang": -8.3525, "Bujur": 128.5144, "Lokasi": "P. Meatimiarang", "TitikRefer": "TR.109", "JarakTitik": 52.29, "Nomor_Peta": "375_461", "Datum_H": "WGS'84", "Datum_V": "MLWS", "Perairan": "Laut Timor", "Sumber": "PP", "Sumber_No": 37, "Sumber_Th": 2008 }, "geometry": { "type": "Point", "coordinates": [ 128.5144, -8.3525 ] } },
{ "type": "Feature", "properties": { "fid": 102, "TitikDasar": "TD.110", "Lintang": -8.2389, "Bujur": 127.6428, "Lokasi": "Tg. Karang, P. Leti", "TitikRefer": "TR.196", "JarakTitik": null, "Nomor_Peta": "375_461", "Datum_H": "WGS'84", "Datum_V": "MLWS", "Perairan": "Laut Timor", "Sumber": "PP", "Sumber_No": 37, "Sumber_Th": 2008 }, "geometry": { "type": "Point", "coordinates": [ 127.6428, -8.2389 ] } },
{ "type": "Feature", "properties": { "fid": 103, "TitikDasar": "TD.110A", "Lintang": -8.238, "Bujur": 127.6344, "Lokasi": "Tg. Kesioh, P. Leti", "TitikRefer": "TR.196", "JarakTitik": 30.08, "Nomor_Peta": "375_461", "Datum_H": "WGS'84", "Datum_V": "MLWS", "Perairan": "Laut Timor", "Sumber": "PP", "Sumber_No": 37, "Sumber_Th": 2008 }, "geometry": { "type": "Point", "coordinates": [ 127.6344, -8.238 ] } },
{ "type": "Feature", "properties": { "fid": 104, "TitikDasar": "TD.111", "Lintang": -8.1019, "Bujur": 127.1478, "Lokasi": "Tutun Yen, P. Kisar", "TitikRefer": "TR.198", "JarakTitik": 41.24, "Nomor_Peta": "375_461", "Datum_H": "WGS'84", "Datum_V": "MLWS", "Perairan": "Laut Wetar", "Sumber": "PP", "Sumber_No": 37, "Sumber_Th": 2008 }, "geometry": { "type": "Point", "coordinates": [ 127.1478, -8.1019 ] } },
{ "type": "Feature", "properties": { "fid": 105, "TitikDasar": "TD.112", "Lintang": -7.9753, "Bujur": 126.4664, "Lokasi": "Tutun Eden, P. Wetar", "TitikRefer": "TR.112", "JarakTitik": 43.85, "Nomor_Peta": "459A", "Datum_H": "WGS'84", "Datum_V": "MLWS", "Perairan": "Laut Wetar", "Sumber": "PP", "Sumber_No": 37, "Sumber_Th": 2008 }, "geometry": { "type": "Point", "coordinates": [ 126.4664, -7.9753 ] } },
{ "type": "Feature", "properties": { "fid": 106, "TitikDasar": "TD.112A", "Lintang": -8.0622, "Bujur": 125.735, "Lokasi": "P. Lirang", "TitikRefer": "TR.112A", "JarakTitik": 38.69, "Nomor_Peta": "459A", "Datum_H": "WGS'84", "Datum_V": "MLWS", "Perairan": "Laut Wetar", "Sumber": "PP", "Sumber_No": 37, "Sumber_Th": 2008 }, "geometry": { "type": "Point", "coordinates": [ 125.735, -8.0622 ] } },
{ "type": "Feature", "properties": { "fid": 107, "TitikDasar": "TD.113", "Lintang": -8.3178, "Bujur": 125.1403, "Lokasi": "Tg. Lisomu, P. Alor", "TitikRefer": "TR.113", "JarakTitik": null, "Nomor_Peta": "459A", "Datum_H": "WGS'84", "Datum_V": "MLWS", "Perairan": "Laut Ombai", "Sumber": "PP", "Sumber_No": 37, "Sumber_Th": 2008 }, "geometry": { "type": "Point", "coordinates": [ 125.1403, -8.3178 ] } },
{ "type": "Feature", "properties": { "fid": 108, "TitikDasar": "TD.113A", "Lintang": -8.3572, "Bujur": 125.0603, "Lokasi": "Tg. Seromu, P. Alor", "TitikRefer": "TR.113A", "JarakTitik": 16.49, "Nomor_Peta": "459A", "Datum_H": "WGS'84", "Datum_V": "MLWS", "Perairan": "Laut Ombai", "Sumber": "PP", "Sumber_No": 37, "Sumber_Th": 2008 }, "geometry": { "type": "Point", "coordinates": [ 125.0603, -8.3572 ] } },
{ "type": "Feature", "properties": { "fid": 109, "TitikDasar": "TD.113B", "Lintang": -8.3994, "Bujur": 124.7861, "Lokasi": "Tg. Sibera, P. Alor", "TitikRefer": "TR.205", "JarakTitik": 34.69, "Nomor_Peta": "459A", "Datum_H": "WGS'84", "Datum_V": "MLWS", "Perairan": "Laut Ombai", "Sumber": "PP", "Sumber_No": 37, "Sumber_Th": 2008 }, "geometry": { "type": "Point", "coordinates": [ 124.7861, -8.3994 ] } },
{ "type": "Feature", "properties": { "fid": 110, "TitikDasar": "TD.114", "Lintang": -8.9572, "Bujur": 124.9492, "Lokasi": "Mota Biku, P. Timor", "TitikRefer": "TR.114", "JarakTitik": null, "Nomor_Peta": "459A", "Datum_H": "WGS'84", "Datum_V": "MLWS", "Perairan": "Laut Ombai", "Sumber": "PP", "Sumber_No": 37, "Sumber_Th": 2008 }, "geometry": { "type": "Point", "coordinates": [ 124.9492, -8.9572 ] } },
{ "type": "Feature", "properties": { "fid": 111, "TitikDasar": "TD.114A", "Lintang": -9.4603, "Bujur": 125.0889, "Lokasi": "Mota Talas, P. Timor", "TitikRefer": "TR.114A", "JarakTitik": 11.89, "Nomor_Peta": "459", "Datum_H": "WGS'84", "Datum_V": "MLWS", "Perairan": "Laut Timor", "Sumber": "PP", "Sumber_No": 37, "Sumber_Th": 2008 }, "geometry": { "type": "Point", "coordinates": [ 125.0889, -9.4603 ] } },
{ "type": "Feature", "properties": { "fid": 112, "TitikDasar": "TD.115", "Lintang": -9.6358, "Bujur": 124.9942, "Lokasi": "Tg. Wetoh", "TitikRefer": "TR.115", "JarakTitik": 20.69, "Nomor_Peta": "459", "Datum_H": "WGS'84", "Datum_V": "MLWS", "Perairan": "Laut Timor", "Sumber": "PP", "Sumber_No": 38, "Sumber_Th": 2002 }, "geometry": { "type": "Point", "coordinates": [ 124.9942, -9.6358 ] } },
{ "type": "Feature", "properties": { "fid": 113, "TitikDasar": "TD.116", "Lintang": -9.8828, "Bujur": 124.75, "Lokasi": "Tg. Batu Merah", "TitikRefer": "TR.116", "JarakTitik": 21.27, "Nomor_Peta": "459", "Datum_H": "WGS'84", "Datum_V": "MLWS", "Perairan": "Laut Timor", "Sumber": "PP", "Sumber_No": 38, "Sumber_Th": 2002 }, "geometry": { "type": "Point", "coordinates": [ 124.75, -9.8828 ] } },
{ "type": "Feature", "properties": { "fid": 114, "TitikDasar": "TD.117", "Lintang": -10.1206, "Bujur": 124.4831, "Lokasi": "Tg. Haikmeo", "TitikRefer": "TR.117", "JarakTitik": 6.02, "Nomor_Peta": "459", "Datum_H": "WGS'84", "Datum_V": "MLWS", "Perairan": "Laut Timor", "Sumber": "PP", "Sumber_No": 38, "Sumber_Th": 2002 }, "geometry": { "type": "Point", "coordinates": [ 124.4831, -10.1206 ] } },
{ "type": "Feature", "properties": { "fid": 115, "TitikDasar": "TD.118", "Lintang": -10.172, "Bujur": 124.3956, "Lokasi": "Tg. Tunfano", "TitikRefer": "TR.118", "JarakTitik": 79.65, "Nomor_Peta": "459", "Datum_H": "WGS'84", "Datum_V": "MLWS", "Perairan": "Laut Timor", "Sumber": "PP", "Sumber_No": 38, "Sumber_Th": 2002 }, "geometry": { "type": "Point", "coordinates": [ 124.3956, -10.172 ] } },
{ "type": "Feature", "properties": { "fid": 116, "TitikDasar": "TD.120", "Lintang": -10.8298, "Bujur": 123.2228, "Lokasi": "Tg. Pulch", "TitikRefer": "TR.120", "JarakTitik": 23.07, "Nomor_Peta": "458", "Datum_H": "WGS'84", "Datum_V": "MLWS", "Perairan": "Samudra Hindia", "Sumber": "PP", "Sumber_No": 38, "Sumber_Th": 2002 }, "geometry": { "type": "Point", "coordinates": [ 123.2228, -10.8298 ] } },
{ "type": "Feature", "properties": { "fid": 117, "TitikDasar": "TD.121", "Lintang": -11.01, "Bujur": 122.8769, "Lokasi": "P. Dana", "TitikRefer": "TR.121", "JarakTitik": 65.43, "Nomor_Peta": "458", "Datum_H": "WGS'84", "Datum_V": "MLWS", "Perairan": "Samudra Hindia", "Sumber": "PP", "Sumber_No": 38, "Sumber_Th": 2002 }, "geometry": { "type": "Point", "coordinates": [ 122.8769, -11.01 ] } },
{ "type": "Feature", "properties": { "fid": 118, "TitikDasar": "TD.122", "Lintang": -10.627, "Bujur": 121.8375, "Lokasi": "Tg. Merebu", "TitikRefer": "TR.122", "JarakTitik": 34.98, "Nomor_Peta": "457", "Datum_H": "WGS'84", "Datum_V": "MLWS", "Perairan": "Samudra Hindia", "Sumber": "PP", "Sumber_No": 38, "Sumber_Th": 2002 }, "geometry": { "type": "Point", "coordinates": [ 121.8375, -10.627 ] } },
{ "type": "Feature", "properties": { "fid": 119, "TitikDasar": "TD.123", "Lintang": -10.8333, "Bujur": 121.2825, "Lokasi": "P. Dana", "TitikRefer": "TR.123", "JarakTitik": null, "Nomor_Peta": "457", "Datum_H": "WGS'84", "Datum_V": "MLWS", "Perairan": "Samudra Hindia", "Sumber": "PP", "Sumber_No": 38, "Sumber_Th": 2002 }, "geometry": { "type": "Point", "coordinates": [ 121.2825, -10.8333 ] } },
{ "type": "Feature", "properties": { "fid": 120, "TitikDasar": "TD.123A", "Lintang": -10.8317, "Bujur": 121.2772, "Lokasi": "P. Dana", "TitikRefer": "TR.123", "JarakTitik": 57.55, "Nomor_Peta": "457", "Datum_H": "WGS'84", "Datum_V": "MLWS", "Perairan": "Samudra Hindia", "Sumber": "PP", "Sumber_No": 38, "Sumber_Th": 2002 }, "geometry": { "type": "Point", "coordinates": [ 121.2772, -10.8317 ] } },
{ "type": "Feature", "properties": { "fid": 121, "TitikDasar": "TD.124", "Lintang": -10.3173, "Bujur": 120.4536, "Lokasi": "Tg. Ngunju", "TitikRefer": "TR.124", "JarakTitik": 19.9, "Nomor_Peta": "456", "Datum_H": "WGS'84", "Datum_V": "MLWS", "Perairan": "Samudra Hindia", "Sumber": "PP", "Sumber_No": 38, "Sumber_Th": 2002 }, "geometry": { "type": "Point", "coordinates": [ 120.4536, -10.3173 ] } },
{ "type": "Feature", "properties": { "fid": 122, "TitikDasar": "TD.125", "Lintang": -10.3394, "Bujur": 120.1172, "Lokasi": "P. Mangudu", "TitikRefer": "TR.125", "JarakTitik": null, "Nomor_Peta": "456", "Datum_H": "WGS'84", "Datum_V": "MLWS", "Perairan": "Samudra Hindia", "Sumber": "PP", "Sumber_No": 38, "Sumber_Th": 2002 }, "geometry": { "type": "Point", "coordinates": [ 120.1172, -10.3394 ] } },
{ "type": "Feature", "properties": { "fid": 123, "TitikDasar": "TD.125A", "Lintang": -10.3355, "Bujur": 120.0989, "Lokasi": "P. Mangudu", "TitikRefer": "TR.125", "JarakTitik": 72.43, "Nomor_Peta": "456", "Datum_H": "WGS'84", "Datum_V": "MLWS", "Perairan": "Samudra Hindia", "Sumber": "PP", "Sumber_No": 38, "Sumber_Th": 2002 }, "geometry": { "type": "Point", "coordinates": [ 120.0989, -10.3355 ] } },
{ "type": "Feature", "properties": { "fid": 124, "TitikDasar": "TD.128B", "Lintang": -9.6986, "Bujur": 119.0575, "Lokasi": "Tg. Merapu", "TitikRefer": "TR.128B", "JarakTitik": null, "Nomor_Peta": "455_456", "Datum_H": "WGS'84", "Datum_V": "MLWS", "Perairan": "Samudra Hindia", "Sumber": "PP", "Sumber_No": 38, "Sumber_Th": 2002 }, "geometry": { "type": "Point", "coordinates": [ 119.0575, -9.6986 ] } },
{ "type": "Feature", "properties": { "fid": 125, "TitikDasar": "TD.128", "Lintang": -9.5628, "Bujur": 118.9247, "Lokasi": "Tg. Karoso", "TitikRefer": "TR.128", "JarakTitik": 48.64, "Nomor_Peta": "455_456", "Datum_H": "WGS'84", "Datum_V": "MLWS", "Perairan": "Samudra Hindia", "Sumber": "PP", "Sumber_No": 38, "Sumber_Th": 2002 }, "geometry": { "type": "Point", "coordinates": [ 118.9247, -9.5628 ] } },
{ "type": "Feature", "properties": { "fid": 126, "TitikDasar": "TD.129", "Lintang": -8.8894, "Bujur": 118.4672, "Lokasi": "Toro Doro", "TitikRefer": "TR.129", "JarakTitik": 84.56, "Nomor_Peta": "455", "Datum_H": "WGS'84", "Datum_V": "MLWS", "Perairan": "Samudra Hindia", "Sumber": "PP", "Sumber_No": 38, "Sumber_Th": 2002 }, "geometry": { "type": "Point", "coordinates": [ 118.4672, -8.8894 ] } },
{ "type": "Feature", "properties": { "fid": 127, "TitikDasar": "TD.130A", "Lintang": -9.1042, "Bujur": 117.0569, "Lokasi": "Tg. Talonan", "TitikRefer": "TR.130", "JarakTitik": 2.64, "Nomor_Peta": "454", "Datum_H": "WGS'84", "Datum_V": "MLWS", "Perairan": "Samudra Hindia", "Sumber": "PP", "Sumber_No": 38, "Sumber_Th": 2002 }, "geometry": { "type": "Point", "coordinates": [ 117.0569, -9.1042 ] } },
{ "type": "Feature", "properties": { "fid": 128, "TitikDasar": "TD.130", "Lintang": -9.1103, "Bujur": 117.0128, "Lokasi": "Tg. Talonan", "TitikRefer": "TR.130", "JarakTitik": 60.94, "Nomor_Peta": "454", "Datum_H": "WGS'84", "Datum_V": "MLWS", "Perairan": "Samudra Hindia", "Sumber": "PP", "Sumber_No": 38, "Sumber_Th": 2002 }, "geometry": { "type": "Point", "coordinates": [ 117.0128, -9.1103 ] } },
{ "type": "Feature", "properties": { "fid": 129, "TitikDasar": "TD.131", "Lintang": -8.9223, "Bujur": 116.0022, "Lokasi": "P. Sophialouisa", "TitikRefer": "TR.131", "JarakTitik": 25.38, "Nomor_Peta": "454", "Datum_H": "WGS'84", "Datum_V": "MLWS", "Perairan": "Samudra Hindia", "Sumber": "PP", "Sumber_No": 38, "Sumber_Th": 2002 }, "geometry": { "type": "Point", "coordinates": [ 116.0022, -8.9223 ] } },
{ "type": "Feature", "properties": { "fid": 130, "TitikDasar": "TD.133", "Lintang": -8.8198, "Bujur": 115.5869, "Lokasi": "Tg. Sedihing", "TitikRefer": "TR.133", "JarakTitik": 24.47, "Nomor_Peta": "454", "Datum_H": "WGS'84", "Datum_V": "MLWS", "Perairan": "Samudra Hindia", "Sumber": "PP", "Sumber_No": 38, "Sumber_Th": 2002 }, "geometry": { "type": "Point", "coordinates": [ 115.5869, -8.8198 ] } },
{ "type": "Feature", "properties": { "fid": 131, "TitikDasar": "TD.134A", "Lintang": -8.8517, "Bujur": 115.1756, "Lokasi": "Tg. Ungasan", "TitikRefer": "TR.134A", "JarakTitik": null, "Nomor_Peta": "453", "Datum_H": "WGS'84", "Datum_V": "MLWS", "Perairan": "Samudra Hindia", "Sumber": "PP", "Sumber_No": 38, "Sumber_Th": 2002 }, "geometry": { "type": "Point", "coordinates": [ 115.1756, -8.8517 ] } },
{ "type": "Feature", "properties": { "fid": 132, "TitikDasar": "TD.134", "Lintang": -8.8489, "Bujur": 115.1086, "Lokasi": "Tg. Mebulu", "TitikRefer": "TR.134", "JarakTitik": 34.75, "Nomor_Peta": "453", "Datum_H": "WGS'84", "Datum_V": "MLWS", "Perairan": "Samudra Hindia", "Sumber": "PP", "Sumber_No": 38, "Sumber_Th": 2002 }, "geometry": { "type": "Point", "coordinates": [ 115.1086, -8.8489 ] } },
{ "type": "Feature", "properties": { "fid": 133, "TitikDasar": "TD.135", "Lintang": -8.7872, "Bujur": 114.5258, "Lokasi": "Tg. Bantenan", "TitikRefer": "TR.135", "JarakTitik": 74.98, "Nomor_Peta": "453", "Datum_H": "WGS'84", "Datum_V": "MLWS", "Perairan": "Samudra Hindia", "Sumber": "PP", "Sumber_No": 38, "Sumber_Th": 2002 }, "geometry": { "type": "Point", "coordinates": [ 114.5258, -8.7872 ] } },
{ "type": "Feature", "properties": { "fid": 134, "TitikDasar": "TD.138", "Lintang": -8.5083, "Bujur": 113.2936, "Lokasi": "P. Barung", "TitikRefer": "TR.138", "JarakTitik": 94.26, "Nomor_Peta": "452", "Datum_H": "WGS'84", "Datum_V": "MLWS", "Perairan": "Samudra Hindia", "Sumber": "PP", "Sumber_No": 38, "Sumber_Th": 2002 }, "geometry": { "type": "Point", "coordinates": [ 113.2936, -8.5083 ] } },
{ "type": "Feature", "properties": { "fid": 135, "TitikDasar": "TD.139", "Lintang": -8.4067, "Bujur": 111.7086, "Lokasi": "P. Sekel", "TitikRefer": "TR.139", "JarakTitik": 11.9, "Nomor_Peta": "451", "Datum_H": "WGS'84", "Datum_V": "MLWS", "Perairan": "Samudra Hindia", "Sumber": "PP", "Sumber_No": 38, "Sumber_Th": 2002 }, "geometry": { "type": "Point", "coordinates": [ 111.7086, -8.4067 ] } },
{ "type": "Feature", "properties": { "fid": 136, "TitikDasar": "TD.139A", "Lintang": -8.3714, "Bujur": 111.5114, "Lokasi": "P. Panchan", "TitikRefer": "TR.139", "JarakTitik": 48.75, "Nomor_Peta": "451", "Datum_H": "WGS'84", "Datum_V": "MLWS", "Perairan": "Samudra Hindia", "Sumber": "PP", "Sumber_No": 38, "Sumber_Th": 2002 }, "geometry": { "type": "Point", "coordinates": [ 111.5114, -8.3714 ] } },
{ "type": "Feature", "properties": { "fid": 137, "TitikDasar": "TD.140", "Lintang": -8.2008, "Bujur": 110.7086, "Lokasi": "Tg. Batur", "TitikRefer": "TR.140", "JarakTitik": 17.11, "Nomor_Peta": "451", "Datum_H": "WGS'84", "Datum_V": "MLWS", "Perairan": "Samudra Hindia", "Sumber": "PP", "Sumber_No": 37, "Sumber_Th": 2008 }, "geometry": { "type": "Point", "coordinates": [ 110.7086, -8.2008 ] } },
{ "type": "Feature", "properties": { "fid": 138, "TitikDasar": "TD.141", "Lintang": -8.1014, "Bujur": 110.4389, "Lokasi": "Tg. Ngeres Langu", "TitikRefer": "TR.141", "JarakTitik": 63.04, "Nomor_Peta": "451", "Datum_H": "WGS'84", "Datum_V": "MLWS", "Perairan": "Samudra Hindia", "Sumber": "PP", "Sumber_No": 37, "Sumber_Th": 2008 }, "geometry": { "type": "Point", "coordinates": [ 110.4389, -8.1014 ] } },
{ "type": "Feature", "properties": { "fid": 139, "TitikDasar": "TD.142", "Lintang": -7.7775, "Bujur": 109.4311, "Lokasi": "Batu Tugur", "TitikRefer": "TR.142", "JarakTitik": 23.13, "Nomor_Peta": "450", "Datum_H": "WGS'84", "Datum_V": "MLWS", "Perairan": "Samudra Hindia", "Sumber": "PP", "Sumber_No": 37, "Sumber_Th": 2008 }, "geometry": { "type": "Point", "coordinates": [ 109.4311, -7.7775 ] } },
{ "type": "Feature", "properties": { "fid": 140, "TitikDasar": "TD.143", "Lintang": -7.7847, "Bujur": 109.0428, "Lokasi": "P. Nusakambangan", "TitikRefer": "TR.143", "JarakTitik": 36.34, "Nomor_Peta": "450", "Datum_H": "WGS'84", "Datum_V": "MLWS", "Perairan": "Samudra Hindia", "Sumber": "PP", "Sumber_No": 38, "Sumber_Th": 2002 }, "geometry": { "type": "Point", "coordinates": [ 109.0428, -7.7847 ] } },
{ "type": "Feature", "properties": { "fid": 141, "TitikDasar": "TD.144A", "Lintang": -7.8214, "Bujur": 108.4325, "Lokasi": "Tg. Legokjawa", "TitikRefer": "TR.144A", "JarakTitik": 6.59, "Nomor_Peta": "449", "Datum_H": "WGS'84", "Datum_V": "MLWS", "Perairan": "Samudra Hindia", "Sumber": "PP", "Sumber_No": 38, "Sumber_Th": 2002 }, "geometry": { "type": "Point", "coordinates": [ 108.4325, -7.8214 ] } },
{ "type": "Feature", "properties": { "fid": 142, "TitikDasar": "TD.144C", "Lintang": -7.8198, "Bujur": 108.3217, "Lokasi": "P. Manuk", "TitikRefer": "TR.144", "JarakTitik": 1.38, "Nomor_Peta": "449", "Datum_H": "WGS'84", "Datum_V": "MLWS", "Perairan": "Samudra Hindia", "Sumber": "PP", "Sumber_No": 38, "Sumber_Th": 2002 }, "geometry": { "type": "Point", "coordinates": [ 108.3217, -7.8198 ] } },
{ "type": "Feature", "properties": { "fid": 143, "TitikDasar": "TD.144", "Lintang": -7.8175, "Bujur": 108.2986, "Lokasi": "Tg. Tawulan", "TitikRefer": "TR.144", "JarakTitik": 27.5, "Nomor_Peta": "449", "Datum_H": "WGS'84", "Datum_V": "MLWS", "Perairan": "Samudra Hindia", "Sumber": "PP", "Sumber_No": 38, "Sumber_Th": 2002 }, "geometry": { "type": "Point", "coordinates": [ 108.2986, -7.8175 ] } },
{ "type": "Feature", "properties": { "fid": 144, "TitikDasar": "TD.145", "Lintang": -7.7422, "Bujur": 107.8422, "Lokasi": "Tg. Gedeh", "TitikRefer": "TR.145", "JarakTitik": 88.14, "Nomor_Peta": "449", "Datum_H": "WGS'84", "Datum_V": "MLWS", "Perairan": "Samudra Hindia", "Sumber": "PP", "Sumber_No": 38, "Sumber_Th": 2002 }, "geometry": { "type": "Point", "coordinates": [ 107.8422, -7.7422 ] } },
{ "type": "Feature", "properties": { "fid": 145, "TitikDasar": "TD.146", "Lintang": -7.3889, "Bujur": 106.4039, "Lokasi": "Ug. Genteng", "TitikRefer": "TR.146", "JarakTitik": 56.96, "Nomor_Peta": "448", "Datum_H": "WGS'84", "Datum_V": "MLWS", "Perairan": "Samudra Hindia", "Sumber": "PP", "Sumber_No": 38, "Sumber_Th": 2002 }, "geometry": { "type": "Point", "coordinates": [ 106.4039, -7.3889 ] } },
{ "type": "Feature", "properties": { "fid": 146, "TitikDasar": "TD.147", "Lintang": -7.0167, "Bujur": 105.5236, "Lokasi": "P. Deli", "TitikRefer": "TR.147", "JarakTitik": 18.35, "Nomor_Peta": "448", "Datum_H": "WGS'84", "Datum_V": "MLWS", "Perairan": "Samudra Hindia", "Sumber": "PP", "Sumber_No": 38, "Sumber_Th": 2002 }, "geometry": { "type": "Point", "coordinates": [ 105.5236, -7.0167 ] } },
{ "type": "Feature", "properties": { "fid": 147, "TitikDasar": "TD.148A", "Lintang": -6.8547, "Bujur": 105.2622, "Lokasi": "Kr. Pabayang", "TitikRefer": "TR.148", "JarakTitik": 1.67, "Nomor_Peta": "447_448", "Datum_H": "WGS'84", "Datum_V": "MLWS", "Perairan": "Samudra Hindia", "Sumber": "PP", "Sumber_No": 38, "Sumber_Th": 2002 }, "geometry": { "type": "Point", "coordinates": [ 105.2622, -6.8547 ] } },
{ "type": "Feature", "properties": { "fid": 148, "TitikDasar": "TD.148", "Lintang": -6.8394, "Bujur": 105.2389, "Lokasi": "Tg. Guhakolak", "TitikRefer": "TR.148", "JarakTitik": 73.97, "Nomor_Peta": "447_448", "Datum_H": "WGS'84", "Datum_V": "MLWS", "Perairan": "Samudra Hindia", "Sumber": "PP", "Sumber_No": 38, "Sumber_Th": 2002 }, "geometry": { "type": "Point", "coordinates": [ 105.2389, -6.8394 ] } },
{ "type": "Feature", "properties": { "fid": 149, "TitikDasar": "TD.151", "Lintang": -5.8958, "Bujur": 104.4406, "Lokasi": "P. Batukecil", "TitikRefer": "TR.151", "JarakTitik": 50.33, "Nomor_Peta": "447", "Datum_H": "WGS'84", "Datum_V": "MLWS", "Perairan": "Samudra Hindia", "Sumber": "PP", "Sumber_No": 38, "Sumber_Th": 2002 }, "geometry": { "type": "Point", "coordinates": [ 104.4406, -5.8958 ] } },
{ "type": "Feature", "properties": { "fid": 150, "TitikDasar": "TD.152", "Lintang": -5.2394, "Bujur": 103.9158, "Lokasi": "Ug. Walor", "TitikRefer": "TR.152", "JarakTitik": 94.8, "Nomor_Peta": "446", "Datum_H": "WGS'84", "Datum_V": "MLWS", "Perairan": "Samudra Hindia", "Sumber": "PP", "Sumber_No": 38, "Sumber_Th": 2002 }, "geometry": { "type": "Point", "coordinates": [ 103.9158, -5.2394 ] } },
{ "type": "Feature", "properties": { "fid": 151, "TitikDasar": "TD.154A", "Lintang": -5.5139, "Bujur": 102.3531, "Lokasi": "Tg. Kahoabi", "TitikRefer": "TR.154A", "JarakTitik": 5.17, "Nomor_Peta": "445_446", "Datum_H": "WGS'84", "Datum_V": "MLWS", "Perairan": "Samudra Hindia", "Sumber": "PP", "Sumber_No": 38, "Sumber_Th": 2002 }, "geometry": { "type": "Point", "coordinates": [ 102.3531, -5.5139 ] } },
{ "type": "Feature", "properties": { "fid": 152, "TitikDasar": "TD.154", "Lintang": -5.5203, "Bujur": 102.2667, "Lokasi": "Tg. Labuho", "TitikRefer": "TR.154", "JarakTitik": null, "Nomor_Peta": "445", "Datum_H": "WGS'84", "Datum_V": "MLWS", "Perairan": "Samudra Hindia", "Sumber": "PP", "Sumber_No": 38, "Sumber_Th": 2002 }, "geometry": { "type": "Point", "coordinates": [ 102.2667, -5.5203 ] } },
{ "type": "Feature", "properties": { "fid": 153, "TitikDasar": "TD.154B", "Lintang": -5.5083, "Bujur": 102.245, "Lokasi": "Tg. Labuho", "TitikRefer": "TR.154", "JarakTitik": 13.09, "Nomor_Peta": "445", "Datum_H": "WGS'84", "Datum_V": "MLWS", "Perairan": "Samudra Hindia", "Sumber": "PP", "Sumber_No": 38, "Sumber_Th": 2002 }, "geometry": { "type": "Point", "coordinates": [ 102.245, -5.5083 ] } },
{ "type": "Feature", "properties": { "fid": 154, "TitikDasar": "TD.155", "Lintang": -5.3597, "Bujur": 102.0844, "Lokasi": "Tg. Kooma", "TitikRefer": "TR.155", "JarakTitik": 102.15, "Nomor_Peta": "445", "Datum_H": "WGS'84", "Datum_V": "MLWS", "Perairan": "Samudra Hindia", "Sumber": "PP", "Sumber_No": 38, "Sumber_Th": 2002 }, "geometry": { "type": "Point", "coordinates": [ 102.0844, -5.3597 ] } },
{ "type": "Feature", "properties": { "fid": 155, "TitikDasar": "TD.156", "Lintang": -4.02, "Bujur": 101.0303, "Lokasi": "P. Mega", "TitikRefer": "TR.156", "JarakTitik": 60.36, "Nomor_Peta": "444", "Datum_H": "WGS'84", "Datum_V": "MLWS", "Perairan": "Samudra Hindia", "Sumber": "PP", "Sumber_No": 38, "Sumber_Th": 2002 }, "geometry": { "type": "Point", "coordinates": [ 101.0303, -4.02 ] } },
{ "type": "Feature", "properties": { "fid": 156, "TitikDasar": "TD.158", "Lintang": -3.2966, "Bujur": 100.3297, "Lokasi": "P. Sibarubaru", "TitikRefer": "TR.158", "JarakTitik": 33.96, "Nomor_Peta": "443_444", "Datum_H": "WGS'84", "Datum_V": "MLWS", "Perairan": "Samudra Hindia", "Sumber": "PP", "Sumber_No": 38, "Sumber_Th": 2002 }, "geometry": { "type": "Point", "coordinates": [ 100.3297, -3.2966 ] } },
{ "type": "Feature", "properties": { "fid": 157, "TitikDasar": "TD.159", "Lintang": -2.8372, "Bujur": 99.9986, "Lokasi": "Tg. Betumonga", "TitikRefer": "TR.159", "JarakTitik": 80.33, "Nomor_Peta": "443", "Datum_H": "WGS'84", "Datum_V": "MLWS", "Perairan": "Samudra Hindia", "Sumber": "PP", "Sumber_No": 38, "Sumber_Th": 2002 }, "geometry": { "type": "Point", "coordinates": [ 99.9986, -2.8372 ] } },
{ "type": "Feature", "properties": { "fid": 158, "TitikDasar": "TD.161", "Lintang": -1.8661, "Bujur": 99.0761, "Lokasi": "P. Sinyaunyau", "TitikRefer": "TR.161", "JarakTitik": 16.43, "Nomor_Peta": "442", "Datum_H": "WGS'84", "Datum_V": "MLWS", "Perairan": "Samudra Hindia", "Sumber": "PP", "Sumber_No": 38, "Sumber_Th": 2002 }, "geometry": { "type": "Point", "coordinates": [ 99.0761, -1.8661 ] } },
{ "type": "Feature", "properties": { "fid": 159, "TitikDasar": "TD.161B", "Lintang": -1.6786, "Bujur": 98.8764, "Lokasi": "Tg. Simansih", "TitikRefer": "TR.161", "JarakTitik": null, "Nomor_Peta": "442", "Datum_H": "WGS'84", "Datum_V": "MLWS", "Perairan": "Samudra Hindia", "Sumber": "PP", "Sumber_No": 38, "Sumber_Th": 2002 }, "geometry": { "type": "Point", "coordinates": [ 98.8764, -1.6786 ] } },
{ "type": "Feature", "properties": { "fid": 160, "TitikDasar": "TD.162", "Lintang": -1.2256, "Bujur": 98.6019, "Lokasi": "Tg. Sakaladat", "TitikRefer": "TR.162", "JarakTitik": 81.46, "Nomor_Peta": "442", "Datum_H": "WGS'84", "Datum_V": "MLWS", "Perairan": "Samudra Hindia", "Sumber": "PP", "Sumber_No": 38, "Sumber_Th": 2002 }, "geometry": { "type": "Point", "coordinates": [ 98.6019, -1.2256 ] } },
{ "type": "Feature", "properties": { "fid": 161, "TitikDasar": "TD.164B", "Lintang": -0.0925, "Bujur": 97.8539, "Lokasi": "P. Simuk", "TitikRefer": "TR.164", "JarakTitik": null, "Nomor_Peta": "441", "Datum_H": "WGS'84", "Datum_V": "MLWS", "Perairan": "Samudra Hindia", "Sumber": "PP", "Sumber_No": 38, "Sumber_Th": 2002 }, "geometry": { "type": "Point", "coordinates": [ 97.8539, -0.0925 ] } },
{ "type": "Feature", "properties": { "fid": 162, "TitikDasar": "TD.164", "Lintang": -0.0681, "Bujur": 97.8353, "Lokasi": "P. Simuk", "TitikRefer": "TR.164", "JarakTitik": 89.23, "Nomor_Peta": "441", "Datum_H": "WGS'84", "Datum_V": "MLWS", "Perairan": "Samudra Hindia", "Sumber": "PP", "Sumber_No": 38, "Sumber_Th": 2002 }, "geometry": { "type": "Point", "coordinates": [ 97.8353, -0.0681 ] } },
{ "type": "Feature", "properties": { "fid": 163, "TitikDasar": "TD.167", "Lintang": 1.2131, "Bujur": 97.08, "Lokasi": "P. Wunga", "TitikRefer": "TR.167", "JarakTitik": 11.59, "Nomor_Peta": "440", "Datum_H": "WGS'84", "Datum_V": "MLWS", "Perairan": "Samudra Hindia", "Sumber": "PP", "Sumber_No": 38, "Sumber_Th": 2002 }, "geometry": { "type": "Point", "coordinates": [ 97.08, 1.2131 ] } },
{ "type": "Feature", "properties": { "fid": 164, "TitikDasar": "TD.168", "Lintang": 1.4053, "Bujur": 97.0606, "Lokasi": "Tg. Toyolawa", "TitikRefer": "TR.168", "JarakTitik": 96.15, "Nomor_Peta": "440", "Datum_H": "WGS'84", "Datum_V": "MLWS", "Perairan": "Samudra Hindia", "Sumber": "PP", "Sumber_No": 38, "Sumber_Th": 2002 }, "geometry": { "type": "Point", "coordinates": [ 97.0606, 1.4053 ] } },
{ "type": "Feature", "properties": { "fid": 165, "TitikDasar": "TD.170", "Lintang": 2.5297, "Bujur": 95.9181, "Lokasi": "P. Simeulucut", "TitikRefer": "TR.170", "JarakTitik": 40.87, "Nomor_Peta": "439", "Datum_H": "WGS'84", "Datum_V": "MLWS", "Perairan": "Samudra Hindia", "Sumber": "PP", "Sumber_No": 38, "Sumber_Th": 2002 }, "geometry": { "type": "Point", "coordinates": [ 95.9181, 2.5297 ] } },
{ "type": "Feature", "properties": { "fid": 166, "TitikDasar": "TD.171", "Lintang": 2.9642, "Bujur": 95.3928, "Lokasi": "P. Salaut Besar", "TitikRefer": "TR.171", "JarakTitik": null, "Nomor_Peta": "438_439", "Datum_H": "WGS'84", "Datum_V": "MLWS", "Perairan": "Samudra Hindia", "Sumber": "PP", "Sumber_No": 38, "Sumber_Th": 2002 }, "geometry": { "type": "Point", "coordinates": [ 95.3928, 2.9642 ] } },
{ "type": "Feature", "properties": { "fid": 167, "TitikDasar": "TD.171C", "Lintang": 2.9825, "Bujur": 95.385, "Lokasi": "P. Salaut Besar", "TitikRefer": "TR.171A", "JarakTitik": 113.61, "Nomor_Peta": "438_439", "Datum_H": "WGS'84", "Datum_V": "MLWS", "Perairan": "Samudra Hindia", "Sumber": "PP", "Sumber_No": 38, "Sumber_Th": 2002 }, "geometry": { "type": "Point", "coordinates": [ 95.385, 2.9825 ] } },
{ "type": "Feature", "properties": { "fid": 168, "TitikDasar": "TD.174", "Lintang": 4.8758, "Bujur": 95.3628, "Lokasi": "P. Raya", "TitikRefer": "TR.174", "JarakTitik": 25.87, "Nomor_Peta": "437", "Datum_H": "WGS'84", "Datum_V": "MLWS", "Perairan": "Samudra Hindia", "Sumber": "PP", "Sumber_No": 38, "Sumber_Th": 2002 }, "geometry": { "type": "Point", "coordinates": [ 95.3628, 4.8758 ] } },
{ "type": "Feature", "properties": { "fid": 169, "TitikDasar": "TD.175", "Lintang": 5.2761, "Bujur": 95.2019, "Lokasi": "P. Rusa", "TitikRefer": "TR.175", "JarakTitik": 33.89, "Nomor_Peta": "437", "Datum_H": "WGS'84", "Datum_V": "MLWS", "Perairan": "Samudra Hindia", "Sumber": "PP", "Sumber_No": 38, "Sumber_Th": 2002 }, "geometry": { "type": "Point", "coordinates": [ 95.2019, 5.2761 ] } },
{ "type": "Feature", "properties": { "fid": 170, "TitikDasar": "TD.176A", "Lintang": 5.7928, "Bujur": 94.9725, "Lokasi": "P. Benggala", "TitikRefer": "TR.176A", "JarakTitik": 18.88, "Nomor_Peta": "437", "Datum_H": "WGS'84", "Datum_V": "MLWS", "Perairan": "Samudra Hindia", "Sumber": "PP", "Sumber_No": 38, "Sumber_Th": 2002 }, "geometry": { "type": "Point", "coordinates": [ 94.9725, 5.7928 ] } },
{ "type": "Feature", "properties": { "fid": 171, "TitikDasar": "TD.177", "Lintang": 6.075, "Bujur": 95.1125, "Lokasi": "P. Rondo", "TitikRefer": "TR.177", "JarakTitik": null, "Nomor_Peta": "437", "Datum_H": "WGS'84", "Datum_V": "MLWS", "Perairan": "Samudra Hindia", "Sumber": "PP", "Sumber_No": 38, "Sumber_Th": 2002 }, "geometry": { "type": "Point", "coordinates": [ 95.1125, 6.075 ] } },
{ "type": "Feature", "properties": { "fid": 172, "TitikDasar": "TD.177A", "Lintang": 6.075, "Bujur": 95.1197, "Lokasi": "P. Rondo", "TitikRefer": "TR.177", "JarakTitik": 16.66, "Nomor_Peta": "437", "Datum_H": "WGS'84", "Datum_V": "MLWS", "Perairan": "Samudra Hindia", "Sumber": "PP", "Sumber_No": 38, "Sumber_Th": 2002 }, "geometry": { "type": "Point", "coordinates": [ 95.1197, 6.075 ] } },
{ "type": "Feature", "properties": { "fid": 173, "TitikDasar": "TD.178", "Lintang": 5.8972, "Bujur": 95.3342, "Lokasi": "Ug. Le Meule", "TitikRefer": "TR.178", "JarakTitik": 40.63, "Nomor_Peta": "437", "Datum_H": "WGS'84", "Datum_V": "MLWS", "Perairan": "Selat Malaka", "Sumber": "PP", "Sumber_No": 38, "Sumber_Th": 2002 }, "geometry": { "type": "Point", "coordinates": [ 95.3342, 5.8972 ] } },
{ "type": "Feature", "properties": { "fid": 174, "TitikDasar": "TD.179", "Lintang": 5.5033, "Bujur": 95.8878, "Lokasi": "Ug. Pidie", "TitikRefer": "TR.179", "JarakTitik": 58.07, "Nomor_Peta": "436_437", "Datum_H": "WGS'84", "Datum_V": "MLWS", "Perairan": "Selat Malaka", "Sumber": "PP", "Sumber_No": 38, "Sumber_Th": 2002 }, "geometry": { "type": "Point", "coordinates": [ 95.8878, 5.5033 ] } },
{ "type": "Feature", "properties": { "fid": 175, "TitikDasar": "TD.180", "Lintang": 5.2753, "Bujur": 96.8325, "Lokasi": "Ug. Peusangan", "TitikRefer": "TR.180", "JarakTitik": 39.58, "Nomor_Peta": "436", "Datum_H": "WGS'84", "Datum_V": "MLWS", "Perairan": "Selat Malaka", "Sumber": "PP", "Sumber_No": 38, "Sumber_Th": 2002 }, "geometry": { "type": "Point", "coordinates": [ 96.8325, 5.2753 ] } },
{ "type": "Feature", "properties": { "fid": 176, "TitikDasar": "TD.181", "Lintang": 5.2511, "Bujur": 97.4944, "Lokasi": "Tg. Jamboaye", "TitikRefer": "TR.181", "JarakTitik": null, "Nomor_Peta": "435_436", "Datum_H": "WGS'84", "Datum_V": "MLWS", "Perairan": "Selat Malaka", "Sumber": "PP", "Sumber_No": 38, "Sumber_Th": 2002 }, "geometry": { "type": "Point", "coordinates": [ 97.4944, 5.2511 ] } },
{ "type": "Feature", "properties": { "fid": 177, "TitikDasar": "TD.181A", "Lintang": 5.2169, "Bujur": 97.5483, "Lokasi": "P. Paru Buso", "TitikRefer": "TR.181", "JarakTitik": 29.19, "Nomor_Peta": "435", "Datum_H": "WGS'84", "Datum_V": "MLWS", "Perairan": "Selat Malaka", "Sumber": "PP", "Sumber_No": 38, "Sumber_Th": 2002 }, "geometry": { "type": "Point", "coordinates": [ 97.5483, 5.2169 ] } },
{ "type": "Feature", "properties": { "fid": 178, "TitikDasar": "TD.182", "Lintang": 4.8939, "Bujur": 97.9136, "Lokasi": "Ug. Peureula", "TitikRefer": "TR.182", "JarakTitik": 35.86, "Nomor_Peta": "435", "Datum_H": "WGS'84", "Datum_V": "MLWS", "Perairan": "Selat Malaka", "Sumber": "PP", "Sumber_No": 38, "Sumber_Th": 2002 }, "geometry": { "type": "Point", "coordinates": [ 97.9136, 4.8939 ] } },
{ "type": "Feature", "properties": { "fid": 179, "TitikDasar": "TD.183", "Lintang": 4.4267, "Bujur": 98.2875, "Lokasi": "Ug. Tamiang", "TitikRefer": "TR.183", "JarakTitik": 82.41, "Nomor_Peta": "435", "Datum_H": "WGS'84", "Datum_V": "MLWS", "Perairan": "Selat Malaka", "Sumber": "PP", "Sumber_No": 38, "Sumber_Th": 2002 }, "geometry": { "type": "Point", "coordinates": [ 98.2875, 4.4267 ] } },
{ "type": "Feature", "properties": { "fid": 180, "TitikDasar": "TD.184", "Lintang": 3.7772, "Bujur": 99.5008, "Lokasi": "P. Berhala", "TitikRefer": "TR.184", "JarakTitik": 89.42, "Nomor_Peta": "434", "Datum_H": "WGS'84", "Datum_V": "MLWS", "Perairan": "Selat Malaka", "Sumber": "PP", "Sumber_No": 38, "Sumber_Th": 2002 }, "geometry": { "type": "Point", "coordinates": [ 99.5008, 3.7772 ] } },
{ "type": "Feature", "properties": { "fid": 181, "TitikDasar": "TD.185", "Lintang": 2.8694, "Bujur": 100.6847, "Lokasi": "P. Batu Mandi", "TitikRefer": "TR.185", "JarakTitik": 76.97, "Nomor_Peta": "433", "Datum_H": "WGS'84", "Datum_V": "MLWS", "Perairan": "Selat Malaka", "Sumber": "PP", "Sumber_No": 38, "Sumber_Th": 2002 }, "geometry": { "type": "Point", "coordinates": [ 100.6847, 2.8694 ] } },
{ "type": "Feature", "properties": { "fid": 182, "TitikDasar": "TD.186", "Lintang": 2.095, "Bujur": 101.7083, "Lokasi": "Tg. Punah", "TitikRefer": "TR.186", "JarakTitik": 57.08, "Nomor_Peta": "432_433", "Datum_H": "WGS'84", "Datum_V": "MLWS", "Perairan": "Selat Malaka", "Sumber": "PP", "Sumber_No": 38, "Sumber_Th": 2002 }, "geometry": { "type": "Point", "coordinates": [ 101.7083, 2.095 ] } },
{ "type": "Feature", "properties": { "fid": 183, "TitikDasar": "TD.186A", "Lintang": 1.5247, "Bujur": 102.4703, "Lokasi": "Tg. Parti", "TitikRefer": "TR.186A", "JarakTitik": 39.29, "Nomor_Peta": "432", "Datum_H": "WGS'84", "Datum_V": "MLWS", "Perairan": "Selat Malaka", "Sumber": "PP", "Sumber_No": 38, "Sumber_Th": 2002 }, "geometry": { "type": "Point", "coordinates": [ 102.4703, 1.5247 ] } },
{ "type": "Feature", "properties": { "fid": 184, "TitikDasar": "TD.187", "Lintang": 1.1011, "Bujur": 102.9697, "Lokasi": "Tg. Kedabu", "TitikRefer": "TR.187", "JarakTitik": 23.58, "Nomor_Peta": "432", "Datum_H": "WGS'84", "Datum_V": "MLWS", "Perairan": "Selat Malaka", "Sumber": "PP", "Sumber_No": 38, "Sumber_Th": 2002 }, "geometry": { "type": "Point", "coordinates": [ 102.9697, 1.1011 ] } },
{ "type": "Feature", "properties": { "fid": 185, "TitikDasar": "TD.188", "Lintang": 1.1917, "Bujur": 103.3522, "Lokasi": "P. Iyu Kecil", "TitikRefer": "TR.188", "JarakTitik": 2.67, "Nomor_Peta": "432", "Datum_H": "WGS'84", "Datum_V": "MLWS", "Perairan": "Selat Malaka", "Sumber": "PP", "Sumber_No": 38, "Sumber_Th": 2002 }, "geometry": { "type": "Point", "coordinates": [ 103.3522, 1.1917 ] } },
{ "type": "Feature", "properties": { "fid": 186, "TitikDasar": "TD.189", "Lintang": 1.1664, "Bujur": 103.3889, "Lokasi": "P. Karimun Kecil", "TitikRefer": "TR.189", "JarakTitik": 15.87, "Nomor_Peta": "431_432", "Datum_H": "WGS'84", "Datum_V": "MLWS", "Perairan": "Selat Malaka", "Sumber": "PP", "Sumber_No": 38, "Sumber_Th": 2002 }, "geometry": { "type": "Point", "coordinates": [ 103.3889, 1.1664 ] } },
{ "type": "Feature", "properties": { "fid": 187, "TitikDasar": "TD.190", "Lintang": 1.1536, "Bujur": 103.6531, "Lokasi": "P. Nipa", "TitikRefer": "TR.190", "JarakTitik": null, "Nomor_Peta": "431", "Datum_H": "WGS'84", "Datum_V": "MLWS", "Perairan": "Selat Main", "Sumber": "PP", "Sumber_No": 38, "Sumber_Th": 2002 }, "geometry": { "type": "Point", "coordinates": [ 103.6531, 1.1536 ] } },
{ "type": "Feature", "properties": { "fid": 188, "TitikDasar": "TD.190A", "Lintang": 1.1533, "Bujur": 103.6558, "Lokasi": "P. Nipa", "TitikRefer": "TR.190", "JarakTitik": 3.0, "Nomor_Peta": "431", "Datum_H": "WGS'84", "Datum_V": "MLWS", "Perairan": "Selat Main", "Sumber": "PP", "Sumber_No": 38, "Sumber_Th": 2002 }, "geometry": { "type": "Point", "coordinates": [ 103.6558, 1.1533 ] } },
{ "type": "Feature", "properties": { "fid": 189, "TitikDasar": "TD.191", "Lintang": 1.1289, "Bujur": 103.6994, "Lokasi": "P. Pelampong", "TitikRefer": "TR.191", "JarakTitik": 4.54, "Nomor_Peta": "431", "Datum_H": "WGS'84", "Datum_V": "MLWS", "Perairan": "Selat Main", "Sumber": "PP", "Sumber_No": 38, "Sumber_Th": 2002 }, "geometry": { "type": "Point", "coordinates": [ 103.6994, 1.1289 ] } },
{ "type": "Feature", "properties": { "fid": 190, "TitikDasar": "TD.191A", "Lintang": 1.1242, "Bujur": 103.775, "Lokasi": "Kr. Helen Mars", "TitikRefer": "TR.191A", "JarakTitik": 3.06, "Nomor_Peta": "431", "Datum_H": "WGS'84", "Datum_V": "MLWS", "Perairan": "Selat Main", "Sumber": "PP", "Sumber_No": 38, "Sumber_Th": 2002 }, "geometry": { "type": "Point", "coordinates": [ 103.775, 1.1242 ] } },
{ "type": "Feature", "properties": { "fid": 191, "TitikDasar": "TD.191B", "Lintang": 1.1572, "Bujur": 103.8139, "Lokasi": "Kr. Benteng", "TitikRefer": "TR.191B", "JarakTitik": 4.44, "Nomor_Peta": "431", "Datum_H": "WGS'84", "Datum_V": "MLWS", "Perairan": "Selat Main", "Sumber": "PP", "Sumber_No": 38, "Sumber_Th": 2002 }, "geometry": { "type": "Point", "coordinates": [ 103.8139, 1.1572 ] } },
{ "type": "Feature", "properties": { "fid": 192, "TitikDasar": "TD.192", "Lintang": 1.185, "Bujur": 103.8825, "Lokasi": "Batu Berhanti", "TitikRefer": "TR.192", "JarakTitik": 11.91, "Nomor_Peta": "431", "Datum_H": "WGS'84", "Datum_V": "MLWS", "Perairan": "Selat Singapura", "Sumber": "PP", "Sumber_No": 38, "Sumber_Th": 2002 }, "geometry": { "type": "Point", "coordinates": [ 103.8825, 1.185 ] } },
{ "type": "Feature", "properties": { "fid": 193, "TitikDasar": "TD.193", "Lintang": 1.2081, "Bujur": 104.0797, "Lokasi": "P. Nongsa", "TitikRefer": "TR.193", "JarakTitik": 18.83, "Nomor_Peta": "431", "Datum_H": "WGS'84", "Datum_V": "MLWS", "Perairan": "Selat Singapura", "Sumber": "PP", "Sumber_No": 38, "Sumber_Th": 2002 }, "geometry": { "type": "Point", "coordinates": [ 104.0797, 1.2081 ] } },
{ "type": "Feature", "properties": { "fid": 194, "TitikDasar": "TD.194", "Lintang": 1.2044, "Bujur": 104.3936, "Lokasi": "Tg. Sading", "TitikRefer": "TR.194", "JarakTitik": 10.02, "Nomor_Peta": "431", "Datum_H": "WGS'84", "Datum_V": "MLWS", "Perairan": "Selat Singapura", "Sumber": "PP", "Sumber_No": 38, "Sumber_Th": 2002 }, "geometry": { "type": "Point", "coordinates": [ 104.3936, 1.2044 ] } },
{ "type": "Feature", "properties": { "fid": 195, "TitikDasar": "TD.195", "Lintang": 1.2431, "Bujur": 104.5561, "Lokasi": "Tg. Berakit", "TitikRefer": "TR. 001", "JarakTitik": null, "Nomor_Peta": "431", "Datum_H": "WGS'84", "Datum_V": "MLWS", "Perairan": "Laut Natuna", "Sumber": "PP", "Sumber_No": 38, "Sumber_Th": 2002 }, "geometry": { "type": "Point", "coordinates": [ 104.5561, 1.2431 ] } }
]
}
