{
"type": "FeatureCollection",
"name": "ZonaTambahan",
"crs": { "type": "name", "properties": { "name": "urn:ogc:def:crs:OGC:1.3:CRS84" } },
"features": [
{ "type": "Feature", "properties": { "fid": 1, "ID": "1", "Jenis": "Unilateral", "TipeZona": "Zona Tambahan", "Datum": "WGS-84", "Panjang": "6322.028 mil laut", "Batas_Ngr": "-", "StatusLaut": "Unilateral", "Jenis_Janj": "-", "Janji_Tgl": "-", "Janji_Thn": null, "Ratif_Jns": "-", "Ratif_No": null, "Ratif_Thn": null }, "geometry": { "type": "MultiLineString", "coordinates": [ [ [ 125.370003386547921, -9.778701568854938 ], [ 125.346174914470211, -9.822827380660339 ], [ 125.340053055217737, -9.833745584964776 ], [ 125.333586983534317, -9.844466483234593 ], [ 125.326783134818598, -9.854979425002679 ], [ 125.319648280643747, -9.865273967449639 ], [ 125.312189522018386, -9.875339885716024 ], [ 125.304414282318945, -9.885167182995037 ], [ 125.29633029990174, -9.894746100395945 ], [ 125.287945620401146, -9.90406712656876 ], [ 125.279268588722218, -9.913121007080937 ], [ 125.035068588722226, -10.159909859337303 ], [ 125.02612949551164, -10.168660288283615 ], [ 125.01691688906071, -10.177127457391219 ], [ 124.750016889060689, -10.414706136159728 ], [ 124.740124644120016, -10.423221691219094 ], [ 124.729955338486974, -10.431410965999712 ], [ 124.719519934203191, -10.439265159082803 ], [ 124.708829680152462, -10.446775829873395 ], [ 124.697896099934709, -10.453934907584179 ], [ 124.686730979444334, -10.4607346998227 ], [ 124.599230979444371, -10.512078472809669 ], [ 124.592472020125697, -10.515956240887526 ], [ 123.419672020125674, -11.173003661633786 ], [ 123.408993162518584, -11.178769055973383 ], [ 123.063093162518598, -11.35875126404822 ], [ 123.05199073486132, -11.364309796284642 ], [ 123.040718082629553, -11.369523977013015 ], [ 123.029286165183493, -11.374388756195986 ], [ 123.017706096722193, -11.378899422465569 ], [ 123.005989135478316, -11.383051607630311 ], [ 122.994146672772729, -11.386841290853093 ], [ 122.98219022193976, -11.390264802495969 ], [ 122.970131407133962, -11.393318827628411 ], [ 122.957981952028888, -11.396000409195894 ], [ 122.9457536684193, -11.398306950845944 ], [ 122.933458444737667, -11.400236219409072 ], [ 122.92110823449606, -11.401786347032449 ], [ 122.908715044664987, -11.402955832964297 ], [ 122.896290923999985, -11.403743544987487 ], [ 122.883847951327809, -11.404148720501009 ], [ 122.87139822380334, -11.404170967248358 ], [ 122.858953845148463, -11.403810263692176 ], [ 122.846526913884958, -11.403066959034824 ], [ 122.83412951157203, -11.40194177288485 ], [ 122.82177369106067, -11.400435794569697 ], [ 122.809471464775712, -11.398550482095166 ], [ 122.797234793037234, -11.396287660752717 ], [ 122.785075572432689, -11.393649521375702 ], [ 122.773005624250956, -11.390638618246212 ], [ 122.761036682989541, -11.387257866654355 ], [ 122.749180384946214, -11.38351054011218 ], [ 122.737448256906234, -11.379400267224757 ], [ 121.838089866357905, -11.048453573280135 ], [ 121.422986502881173, -11.202544318428146 ], [ 121.411245873087822, -11.206695945988638 ], [ 121.399379648826866, -11.210483497559308 ], [ 121.387399405864429, -11.213903292841431 ], [ 121.375316831194496, -11.216952009011939 ], [ 121.363143711637775, -11.219626683911136 ], [ 121.350891922343678, -11.221924718883994 ], [ 121.338573415205573, -11.223843881272384 ], [ 121.326200207201666, -11.225382306556048 ], [ 121.313784368672003, -11.226538500140382 ], [ 121.301338011543692, -11.227311338789342 ], [ 121.288873277515421, -11.227700071702301 ], [ 121.27640232621296, -11.227704321233771 ], [ 121.263937323327113, -11.227324083255441 ], [ 121.251490428745925, -11.22655972716011 ], [ 121.239073784692366, -11.225411995507603 ], [ 121.226699503879374, -11.223882003312921 ], [ 121.21437965769357, -11.221971236977286 ], [ 121.202126264419363, -11.219681552863076 ], [ 121.189951277514879, -11.217015175513872 ], [ 121.17786657395115, -11.213974695521291 ], [ 121.165883942625726, -11.210563067040463 ], [ 121.160583942625706, -11.208965144041564 ], [ 121.14792027583141, -11.204918046262421 ], [ 121.135400278000432, -11.20045639440872 ], [ 121.12303786264566, -11.195585127453269 ], [ 121.110846768158112, -11.19030963808512 ], [ 121.098840542539364, -11.184635766812303 ], [ 121.087032528345617, -11.178569795573264 ], [ 121.075435847860149, -11.17211844086359 ], [ 121.064063388510334, -11.165288846385115 ], [ 120.350358312210275, -10.720077049584683 ], [ 120.143632284708232, -10.733640270334606 ], [ 120.131304579194648, -10.734259973382954 ], [ 120.118963393882396, -10.734502553003864 ], [ 120.106620523288072, -10.734367778282857 ], [ 120.094287763538887, -10.733855777513556 ], [ 120.081976901099139, -10.73296703807709 ], [ 120.069699701505812, -10.731702405984072 ], [ 120.057467898124031, -10.730063085079427 ], [ 120.04529318093374, -10.728050635910934 ], [ 120.033187185357406, -10.72566697426231 ], [ 120.014887185357409, -10.721771921957087 ], [ 120.002834234728937, -10.719012603075978 ], [ 119.990873512507264, -10.715885295242828 ], [ 119.979016501642192, -10.71239298935366 ], [ 119.967274585514858, -10.708539025499242 ], [ 119.95565903700917, -10.704327089809217 ], [ 119.944181007689139, -10.69976121096866 ], [ 119.932851517092843, -10.694845756410208 ], [ 119.921681442153059, -10.689585428185117 ], [ 119.910681506754713, -10.683985258516987 ], [ 119.899862271439488, -10.678050605042117 ], [ 119.889234123267045, -10.671787145740764 ], [ 118.847834123267049, -10.035567808611539 ], [ 118.837420992684798, -10.028976979876528 ], [ 118.827218588532688, -10.022069833020522 ], [ 118.817236679648857, -10.01485296150255 ], [ 118.807484823746535, -10.007333254921432 ], [ 118.797972358262271, -9.999517892500265 ], [ 118.788708391415568, -9.991414336294786 ], [ 118.77970179348749, -9.983030324131864 ], [ 118.770961188327519, -9.974373862284416 ], [ 118.638161188327487, -9.838687834206684 ], [ 118.630099716947868, -9.830202920830464 ], [ 118.622293590587716, -9.821486103138822 ], [ 118.614749575212926, -9.812544918393842 ], [ 118.607474209604604, -9.803387098518437 ], [ 118.6004737996914, -9.794020563457609 ], [ 118.593754413083943, -9.784453414375703 ], [ 118.277721593668645, -9.3197223702079 ], [ 117.117363989459065, -9.496246137549106 ], [ 117.111939165262669, -9.497033391457414 ], [ 117.06783916526264, -9.503126454555053 ], [ 117.055028175353428, -9.504687363549097 ], [ 117.042173059016278, -9.505836388100724 ], [ 117.029287249234216, -9.506572331741326 ], [ 117.016384211063595, -9.506894428146493 ], [ 117.003477427563453, -9.506802341924915 ], [ 116.990580385706551, -9.50629616896367 ], [ 116.97770656228623, -9.505376436329524 ], [ 116.964869409833497, -9.504044101726295 ], [ 116.952082342560033, -9.502300552508935 ], [ 116.939358722340927, -9.500147604255154 ], [ 115.92875872234093, -9.312357690610831 ], [ 115.917357889055992, -9.310067388499462 ], [ 115.906029055808517, -9.307448177881163 ], [ 115.553481039280982, -9.220532387971407 ], [ 115.206640795485612, -9.247402856023175 ], [ 115.194704994999341, -9.248149033583189 ], [ 115.182752054771214, -9.248539742136762 ], [ 115.17079269819105, -9.248574632365679 ], [ 115.158837654405147, -9.248253673075919 ], [ 115.09183765440514, -9.245456797880403 ], [ 115.079074363095316, -9.244720471681315 ], [ 115.066341342633706, -9.243578559751883 ], [ 114.483541342633728, -9.181946842143649 ], [ 114.471887471289676, -9.180541870952609 ], [ 114.460280202995378, -9.178797068388624 ], [ 114.44872957130174, -9.176713937625291 ], [ 114.437245560801912, -9.174294273342626 ], [ 113.236132128214379, -8.902722567849809 ], [ 111.682946783919888, -8.803267842711914 ], [ 111.671645958574814, -8.802383725802528 ], [ 111.660374918284788, -8.801180853783285 ], [ 111.649142747538164, -8.799660193029231 ], [ 111.637958499494204, -8.797822965238355 ], [ 111.440758499494194, -8.762559801479341 ], [ 111.428091614288661, -8.760083671073607 ], [ 110.62529161428867, -8.589658441387975 ], [ 110.614075080116365, -8.587108044045994 ], [ 110.602937032612218, -8.58423702756718 ], [ 110.591886720006613, -8.581047768501325 ], [ 110.580933317681257, -8.577542906899735 ], [ 110.570085920550554, -8.573725344151379 ], [ 110.308329468476003, -8.477346569963489 ], [ 109.371956383261491, -8.176697236340413 ], [ 109.058533910445632, -8.182503091774398 ], [ 108.456532124528238, -8.218668329616644 ], [ 108.441631880174938, -8.219285455859826 ], [ 108.426718896834714, -8.21934780811951 ], [ 108.315918896834731, -8.217749393573772 ], [ 108.304606639512372, -8.217426405433716 ], [ 108.293308113770749, -8.216784151540255 ], [ 108.282032396035675, -8.215823146265183 ], [ 108.258932396035647, -8.213525413506639 ], [ 108.246156064210496, -8.212047137213528 ], [ 108.23343415308112, -8.210159637550575 ], [ 107.832006603751395, -8.143994537454066 ], [ 107.777034153081132, -8.134932865594797 ], [ 107.761836787917005, -8.13212553553641 ], [ 107.746759844685769, -8.128734172011516 ], [ 106.308459844685757, -7.775763182791466 ], [ 106.296171783420263, -7.772538611020405 ], [ 106.283992816871802, -7.768925682817627 ], [ 106.271935278493515, -7.764928046849514 ], [ 106.260011378770059, -7.760549740416038 ], [ 106.248233192852311, -7.755795185409544 ], [ 105.367933192852334, -7.383908228525842 ], [ 105.356637065361568, -7.37892700790138 ], [ 105.345500646654571, -7.373599378574349 ], [ 105.334534589298613, -7.3679304241721 ], [ 105.323749382901383, -7.361925554235493 ], [ 105.31315534407716, -7.355590499097199 ], [ 105.051755344077179, -7.193711487534078 ], [ 105.042954791789512, -7.188100045821317 ], [ 105.019654791789506, -7.172811139643508 ], [ 105.009122156559997, -7.16565690372066 ], [ 104.998823362333582, -7.158170641046624 ], [ 104.988768890017965, -7.150359954023454 ], [ 104.978968971878601, -7.142232774945111 ], [ 104.9694335811255, -7.133797357995031 ], [ 104.960172421763644, -7.125062270916752 ], [ 104.951194918717405, -7.116036386365794 ], [ 104.942510208238943, -7.106728872951313 ], [ 104.934127128610399, -7.097149185976289 ], [ 104.135827128610416, -6.15403930983991 ], [ 104.128971688876092, -6.145706949261086 ], [ 103.751932847074812, -5.674406672271065 ], [ 102.422028980146592, -5.907846995339418 ], [ 102.408921718730966, -5.909923070731854 ], [ 102.395752798075819, -5.911561857751378 ], [ 102.382536764233336, -5.912761550177129 ], [ 102.296136764233339, -5.919157032666194 ], [ 102.283335534277015, -5.9198978735757 ], [ 102.270517147907753, -5.920226751649961 ], [ 102.257694824871066, -5.9201433284587 ], [ 102.244881788972435, -5.919647689848053 ], [ 102.232091254439339, -5.918740345852892 ], [ 102.21933641229343, -5.917422230175829 ], [ 102.206630416746336, -5.915694699233437 ], [ 102.193986371633699, -5.913559530770627 ], [ 102.181417316900905, -5.911018922044546 ], [ 102.168936215155014, -5.908075487579754 ], [ 102.156555938296108, -5.904732256496963 ], [ 102.144289254242494, -5.900992669417891 ], [ 102.132148813762853, -5.896860574949343 ], [ 102.120147137429612, -5.892340225749961 ], [ 102.108296602705977, -5.887436274183543 ], [ 102.096609431181278, -5.882153767563206 ], [ 102.085097675966523, -5.876498142991125 ], [ 102.07377320926382, -5.870475221798939 ], [ 102.052073209263824, -5.858482623128833 ], [ 102.04162056301027, -5.852498186267028 ], [ 102.031352853508068, -5.846200790807283 ], [ 102.021279417378835, -5.839596152558034 ], [ 102.011409414587703, -5.832690266426002 ], [ 102.001751820114038, -5.82548940100665 ], [ 101.99231541579033, -5.818000092926587 ], [ 101.983108782316705, -5.810229140942901 ], [ 101.97414029145834, -5.802183599804621 ], [ 101.813540291458338, -5.653659057444932 ], [ 101.804463242559279, -5.64499495176097 ], [ 101.795662206431771, -5.636049483615107 ], [ 101.787145860744289, -5.62683146033087 ], [ 101.778922602465471, -5.617349958044893 ], [ 101.771000539584904, -5.607614312809828 ], [ 100.729709545573385, -4.284698634155932 ], [ 100.043525738655632, -3.576410014227054 ], [ 100.035587856265593, -3.567972029105588 ], [ 100.027896323729365, -3.559306693852932 ], [ 100.020457583514371, -3.550421260397002 ], [ 100.01327786634792, -3.541323165105482 ], [ 100.00636318599831, -3.532020022578586 ], [ 99.691178270536085, -3.094808288723716 ], [ 98.795329245688549, -2.151959541212198 ], [ 98.604001995583317, -1.972351599713929 ], [ 98.595292858698343, -1.963923827695303 ], [ 98.586841175933614, -1.955234716754352 ], [ 98.578654687827296, -1.946292221024194 ], [ 98.570740892036994, -1.937104526751418 ], [ 98.563107036472914, -1.927680044814163 ], [ 98.555760112659982, -1.918027403034018 ], [ 98.548706849334394, -1.908155438288757 ], [ 98.541953706281191, -1.898073188433044 ], [ 98.535506868417968, -1.887789884034472 ], [ 98.265050368126651, -1.441508374405186 ], [ 97.528869948748493, -0.32637229813691 ], [ 97.518543392050844, -0.312825832378964 ], [ 97.511454439392253, -0.303234458349201 ], [ 97.504651947560532, -0.293435086684724 ], [ 97.498141933767826, -0.283436385256832 ], [ 97.49193015651187, -0.273247198304847 ], [ 96.73663015651185, 1.007990929805341 ], [ 96.730474278684312, 1.018811097552515 ], [ 96.72465481211394, 1.029818232946022 ], [ 96.719177357916607, 1.041001739538202 ], [ 96.714047188028346, 1.052350851170939 ], [ 96.709269240131263, 1.063854642347144 ], [ 96.704848112901161, 1.075502038755666 ], [ 96.700788061581221, 1.087281827939426 ], [ 96.697092993886699, 1.099182670096507 ], [ 96.693766466243588, 1.111193109003717 ], [ 96.690811680365726, 1.123301583052085 ], [ 96.688231480173243, 1.135496436383609 ], [ 96.68602834905532, 1.147765930118484 ], [ 96.684204407479967, 1.160098253661964 ], [ 96.68276141095312, 1.172481536079908 ], [ 96.677982415417091, 1.219830170696299 ], [ 95.651179758613424, 2.23050855713899 ], [ 95.139149306137639, 2.654136168289445 ], [ 95.129461237479276, 2.662413755512491 ], [ 95.120040114157931, 2.670997243042684 ], [ 95.11089548632458, 2.679877923246139 ], [ 95.102036623847923, 2.689046787156915 ], [ 95.093472506917664, 2.698494533633942 ], [ 95.085211816941126, 2.708211578814535 ], [ 95.077262927743192, 2.718188065854807 ], [ 95.069633897077637, 2.728413874947043 ], [ 95.062332458459025, 2.738878633603782 ], [ 95.055366013323351, 2.749571727198099 ], [ 95.048741623525174, 2.760482309749294 ], [ 95.04246600417909, 2.771599314942975 ], [ 95.036545516852655, 2.782911467374258 ], [ 95.030986163117632, 2.794407294002586 ], [ 95.025793578466264, 2.806075135806446 ], [ 95.01799357846626, 2.824377723461371 ], [ 95.013406860719172, 2.835606150256103 ], [ 95.009159837116144, 2.846968757975294 ], [ 95.005256390099802, 2.85845515510852 ], [ 95.001700088030162, 2.870054837226937 ], [ 94.99849418192251, 2.881757196602238 ], [ 94.995641602475587, 2.893551531919257 ], [ 94.993144957392332, 2.905427058073294 ], [ 94.991006528996166, 2.917372916043132 ], [ 94.989228272144487, 2.929378182830651 ], [ 94.987811812441691, 2.941431881457889 ], [ 94.986758444753093, 2.953522991012354 ], [ 94.986069132021214, 2.965640456731346 ], [ 94.985744504385508, 2.977773200116018 ], [ 94.964427661574092, 4.795853810686606 ], [ 94.834210062765095, 5.119879288839071 ], [ 94.607685443576372, 5.630240190332515 ], [ 94.602768145852309, 5.64179955350007 ], [ 94.598215686057245, 5.653507701777647 ], [ 94.594032556392719, 5.665353072704845 ], [ 94.590222884618754, 5.677323968999455 ], [ 94.586790429980695, 5.689408570135825 ], [ 94.583738579499808, 5.701594944042606 ], [ 94.581070344630973, 5.713871058908211 ], [ 94.57878835829122, 5.726224795082184 ], [ 94.576894872261548, 5.738643957060604 ], [ 94.575391754965025, 5.751116285543572 ], [ 94.57428048962305, 5.76362946955278 ], [ 94.573562172791782, 5.776171158597072 ], [ 94.573237513280134, 5.788728974873934 ], [ 94.573306831450282, 5.801290525494761 ], [ 94.573770058901587, 5.813843414721781 ], [ 94.574626738538058, 5.826375256204503 ], [ 94.575876025019411, 5.838873685203557 ], [ 94.577516685595285, 5.851326370789861 ], [ 94.579547101321538, 5.863721028007016 ], [ 94.581965268657896, 5.876045429984956 ], [ 94.584768801444881, 5.888287419992912 ], [ 94.58795493325843, 5.900434923419783 ], [ 94.59152052013971, 5.912475959670189 ], [ 94.595462043697438, 5.924398653964461 ], [ 94.599775614579698, 5.936191249031034 ], [ 94.604456976311852, 5.947842116679784 ], [ 94.609501509496596, 5.959339769244941 ], [ 94.614904236372311, 5.970672870886478 ], [ 94.754904236372326, 6.252779254309255 ], [ 94.760715245843983, 6.264033991913961 ], [ 94.766879899839239, 6.275098488919226 ], [ 94.773392001113635, 6.285961634528501 ], [ 94.780245003138546, 6.296612520874184 ], [ 94.787432016682402, 6.307040453931907 ], [ 94.794945816736288, 6.31723496421768 ], [ 94.802778849777184, 6.3271858172574 ], [ 94.810923241361408, 6.336883023818399 ], [ 94.819370804040688, 6.346316849892976 ], [ 94.828113045592872, 6.355477826424164 ], [ 94.837141177559047, 6.364356758764155 ], [ 94.84644612407854, 6.372944735856184 ], [ 94.856018531012637, 6.381233139130873 ], [ 94.865848775348269, 6.389213651108379 ], [ 94.875926974871859, 6.396878263697978 ], [ 94.886242998103768, 6.404219286186962 ], [ 94.896786474483392, 6.411229352911165 ], [ 94.90754680479445, 6.417901430599626 ], [ 94.918513171820365, 6.424228825386289 ], [ 94.929674551218554, 6.430205189481959 ], [ 94.941019722603087, 6.435824527500045 ], [ 94.952537280824444, 6.441081202430019 ], [ 94.964215647434855, 6.445969941252798 ], [ 94.976043082328076, 6.450485840192638 ], [ 94.988007695541484, 6.454624369600508 ], [ 95.000097459208931, 6.45838137846424 ], [ 95.012300219652118, 6.46175309854109 ], [ 95.024603709598722, 6.464736148108781 ], [ 95.036995560514313, 6.467327535331414 ], [ 95.049463315036306, 6.469524661237017 ], [ 95.06199443949734, 6.471325322303866 ], [ 95.074576336525055, 6.472727712653134 ], [ 95.087196357706077, 6.473730425845726 ], [ 95.099841816301378, 6.474332456281616 ], [ 95.1125, 6.474533200200331 ], [ 95.1197, 6.474533200200331 ], [ 95.132248875010319, 6.474335909180511 ], [ 95.144785351792066, 6.47374423057524 ], [ 95.157297044366075, 6.47275874755695 ], [ 95.169771591239851, 6.471380431446112 ], [ 95.182196667620673, 6.469610640761481 ], [ 95.194559997592421, 6.467451119891698 ], [ 95.206849366244157, 6.46490399738947 ], [ 95.219052631738336, 6.461971783889991 ], [ 95.231157737306944, 6.458657369655493 ], [ 95.243152723163519, 6.454964021748276 ], [ 95.255025738319333, 6.450895380834899 ], [ 95.266765052292101, 6.446455457624488 ], [ 95.278359066695742, 6.441648628944574 ], [ 95.28979632669936, 6.436479633458138 ], [ 95.301065532344737, 6.430953567025909 ], [ 95.312155549710539, 6.425075877718306 ], [ 95.323055421912542, 6.41885236048173 ], [ 95.33375437992909, 6.412289151464292 ], [ 95.344241853240803, 6.40539272200629 ], [ 95.354507480274108, 6.398169872301205 ], [ 95.364541118638556, 6.390627724733195 ], [ 95.374332855147372, 6.382773716897434 ], [ 95.577460314162693, 6.214500578292388 ], [ 96.056198590715638, 5.874079449965853 ], [ 96.887059083915076, 5.673687419287006 ], [ 97.508953170804773, 5.650965435200833 ], [ 97.52133316980391, 5.65032018597098 ], [ 97.533687206653227, 5.649290239513871 ], [ 97.546003372715276, 5.647876586567544 ], [ 97.558269795857981, 5.646080586979191 ], [ 97.570474651898863, 5.643903968406215 ], [ 97.582606176002827, 5.641348824665898 ], [ 97.59465267402291, 5.638417613735172 ], [ 97.606602533772787, 5.635113155402355 ], [ 97.61844423622027, 5.631438628573004 ], [ 97.630166366591155, 5.627397568232403 ], [ 97.641757625372335, 5.622993862067442 ], [ 97.653206839204017, 5.618231746751089 ], [ 97.664502971650208, 5.613115803892806 ], [ 97.675635133837247, 5.607650955658715 ], [ 97.686592594950156, 5.601842460065566 ], [ 97.697364792576522, 5.595695905952841 ], [ 97.707941342888148, 5.589217207637702 ], [ 97.761841342888161, 5.555036544882838 ], [ 97.772418202901036, 5.548091539100992 ], [ 97.782770258677715, 5.540814333672585 ], [ 97.792887126474426, 5.533212215890599 ], [ 97.802758658455332, 5.525292798730829 ], [ 97.812374952871309, 5.517064013268307 ], [ 98.177674952871314, 5.194220226033163 ], [ 98.187794981244792, 5.184959708714675 ], [ 98.197592128217522, 5.175356386466786 ], [ 98.207054857048334, 5.165421552500687 ], [ 98.216172024793877, 5.155166890473489 ], [ 98.224932895430157, 5.144604460804752 ], [ 98.547577454775606, 4.741618829319973 ], [ 99.408007206167895, 4.281266126442018 ] ], [ [ 104.689110863738279, 1.6260150513125 ], [ 104.694755440074957, 1.624335379690833 ], [ 104.706534294333636, 1.620426052277231 ], [ 104.71091794539818, 1.618817578665195 ], [ 105.140546054478463, 2.32121787055938 ], [ 105.021478409202288, 2.563428508716571 ], [ 105.01602055041657, 2.574990106841091 ], [ 105.010931808323946, 2.586720645772222 ], [ 105.006217352010452, 2.598608204691735 ], [ 105.001881970366995, 2.610640703522175 ], [ 104.997930067224686, 2.622805915218663 ], [ 104.994365656881584, 2.635091478209211 ], [ 104.991192360024982, 2.647484908970789 ], [ 104.988413400053602, 2.65997361472832 ], [ 104.986031599803198, 2.672544906263555 ], [ 104.984049378679273, 2.68518601082077 ], [ 104.982468750199374, 2.697884085096061 ], [ 104.981291319947857, 2.710626228296962 ], [ 104.980518283944974, 2.723399495259042 ], [ 104.980150427431767, 2.736190909606089 ], [ 104.980188124072768, 2.748987476940412 ], [ 104.980631335576092, 2.761776198049827 ], [ 104.981479611732595, 2.774544082117842 ], [ 104.982732090873057, 2.787278159923555 ], [ 104.984387500743452, 2.799965497017835 ], [ 104.986444159797358, 2.812593206862347 ], [ 104.988899978904001, 2.825148463918043 ], [ 104.991752463470391, 2.837618516669812 ], [ 104.994998715975328, 2.849990700574048 ], [ 104.998635438912572, 2.862252450915966 ], [ 105.002658938140513, 2.874391315563625 ], [ 105.007065126634629, 2.886394967605709 ], [ 105.011849528638962, 2.898251217860265 ], [ 105.017007284212653, 2.909948027241719 ], [ 105.022533154166496, 2.921473518973645 ], [ 105.028421525384957, 2.932815990634956 ], [ 105.034666416527799, 2.943963926027328 ], [ 105.238566416527789, 3.294697680433226 ], [ 105.245021821518776, 3.305412370247323 ], [ 105.251806804043653, 3.315919238714793 ], [ 105.258914753632268, 3.326208055712185 ], [ 105.266338745154201, 3.336268803780365 ], [ 105.274071545565889, 3.346091687857399 ], [ 105.282105620957438, 3.355667144793714 ], [ 105.29043314389304, 3.364985852640437 ], [ 105.299046001036785, 3.374038739701937 ], [ 105.307935801057539, 3.382816993343905 ], [ 105.317093882804357, 3.391312068548528 ], [ 105.326511323744867, 3.399515696208538 ], [ 105.336178948658329, 3.40741989115221 ], [ 105.346087338574847, 3.415016959891636 ], [ 105.356226839952086, 3.422299508086854 ], [ 105.366587574080555, 3.429260447718727 ], [ 105.734387574080557, 3.668076357101504 ], [ 105.744754037344677, 3.674582688433561 ], [ 105.755313875430886, 3.680767143848969 ], [ 105.766057192304416, 3.686623934427976 ], [ 105.776973919985465, 3.692147578089923 ], [ 105.788053827984243, 3.697332904703535 ], [ 105.799286532888217, 3.702175060905843 ], [ 105.810661508093091, 3.706669514625384 ], [ 106.105202275210928, 3.817841300811251 ], [ 107.15567247438139, 4.37197310095362 ], [ 107.384162199920723, 4.733700276757924 ], [ 107.39081364001089, 4.743882019012204 ], [ 107.397770392367136, 4.753856141302402 ], [ 107.405026032096941, 4.763613441067362 ], [ 107.41257385827106, 4.773144916220065 ], [ 107.420406900112141, 4.782441773426462 ], [ 107.428517923432551, 4.791495436190593 ], [ 107.436899437315518, 4.80029755273864 ], [ 107.621099437315507, 4.987919984601504 ], [ 107.63095089842291, 4.997612096090619 ], [ 107.641130455509085, 5.006956859117341 ], [ 107.651625948069125, 5.015943125475696 ], [ 107.756825948069135, 5.102902331880712 ], [ 107.766374844592534, 5.110551863241728 ], [ 107.77615276754149, 5.117904675453397 ], [ 107.786150554999963, 5.124953889280571 ], [ 107.796358839038888, 5.131692909782046 ], [ 107.806768054493816, 5.13811543244936 ], [ 107.817368447927521, 5.144215449074211 ], [ 107.828150086769, 5.149987253339201 ], [ 107.839102868620188, 5.155425446126789 ], [ 107.850216530722065, 5.160524940541684 ], [ 107.861480659570759, 5.165280966642109 ], [ 107.872884700674973, 5.169689075875659 ], [ 107.884417968445618, 5.173745145215746 ], [ 107.89606965620824, 5.177445380994903 ], [ 107.907828846328798, 5.18078632243147 ], [ 107.919684520443468, 5.183764844846492 ], [ 107.931625569782938, 5.186378162567938 ], [ 107.943640805581325, 5.188623831519604 ], [ 107.954740805581324, 5.190522673283291 ], [ 107.967268311316829, 5.192461071435018 ], [ 107.979850876950096, 5.19399981865798 ], [ 107.99247582129199, 5.195137367112968 ], [ 108.005130420442498, 5.19587257253844 ], [ 108.017801920614346, 5.196204695394023 ], [ 108.03047755098676, 5.19613340159956 ], [ 108.04314453657642, 5.195658762868952 ], [ 108.055790111112515, 5.194781256638489 ], [ 108.068401529903142, 5.193501765589762 ], [ 108.080966082679836, 5.191821576767554 ], [ 108.093471106407506, 5.189742380293634 ], [ 108.105903998046685, 5.187266267677657 ], [ 108.118252227255411, 5.184395729726805 ], [ 108.130503349017658, 5.181133654056215 ], [ 108.142645016186094, 5.177483322202567 ], [ 108.154664991925813, 5.173448406343674 ], [ 108.166551162047242, 5.169032965627203 ], [ 108.178291547215139, 5.164241442112116 ], [ 108.189874315021981, 5.159078656326771 ], [ 108.20128779191289, 5.15354980244796 ], [ 108.212520474950978, 5.14766044310561 ], [ 108.223561043410172, 5.14141650381816 ], [ 108.234398370184877, 5.134824267064052 ], [ 108.245021533004163, 5.12789036599508 ], [ 108.255419825439702, 5.120621777797767 ], [ 108.265582767696145, 5.113025816709183 ], [ 108.275500117172939, 5.105110126694091 ], [ 108.285161878787406, 5.096882673790512 ], [ 108.294558315047993, 5.08835173813125 ], [ 108.30367995586812, 5.07952590564916 ], [ 108.312517608110568, 5.070414059474295 ], [ 108.321062364852622, 5.061025371031392 ], [ 108.329305614362838, 5.051369290846427 ], [ 108.337239048780205, 5.041455539071296 ], [ 108.344854672487173, 5.031294095735945 ], [ 108.352144810167957, 5.020895190737581 ], [ 108.359102114544001, 5.010269293576818 ], [ 108.365719573778819, 4.999427102850949 ], [ 108.371990518544806, 4.988379535514704 ], [ 108.377908628744876, 4.977137715919159 ], [ 108.773805211710851, 4.194841852333318 ], [ 109.260075887333045, 3.232983845261526 ], [ 109.487056057634817, 2.887746412000797 ], [ 109.969024569540821, 2.322175495071021 ] ], [ [ 118.526928515912118, 3.933331186014834 ], [ 119.000696295173626, 2.451728674401783 ], [ 119.308855075527291, 2.084473901107426 ], [ 120.227428038954429, 1.471736641619827 ], [ 120.590786657925705, 1.684937199624873 ], [ 120.601403419970595, 1.690949751140284 ], [ 120.612197520970795, 1.696633555333376 ], [ 120.623158912375388, 1.701983323878541 ], [ 120.634277389897704, 1.706994079302003 ], [ 120.726777389897705, 1.746987046940823 ], [ 120.737355047486801, 1.751380713672961 ], [ 120.748053486111047, 1.755467544552881 ], [ 120.758863918195857, 1.759244184730805 ], [ 120.759763918195858, 1.759544129308971 ], [ 120.771591698708292, 1.763281976928563 ], [ 120.7835290990093, 1.766648521443526 ], [ 120.795564610921517, 1.769640519397358 ], [ 120.80768663168368, 1.772255088206397 ], [ 120.81988347513628, 1.774489708929771 ], [ 120.832143382987354, 1.776342228689821 ], [ 120.844454536148135, 1.77781086274072 ], [ 120.856805066127166, 1.778894196183301 ], [ 120.869183066471933, 1.779591185324512 ], [ 120.881576604247357, 1.779901158680182 ], [ 120.89397373153956, 1.779823817620173 ], [ 120.906362496974211, 1.779359236655296 ], [ 120.918730957238182, 1.778507863365715 ], [ 120.93106718859346, 1.777270517970936 ], [ 121.489067188593438, 1.712482858735714 ], [ 121.50090353345017, 1.710927811621963 ], [ 121.512688395441074, 1.709017419497877 ], [ 122.490430709575122, 1.535385429071609 ], [ 123.120911743197809, 1.452017930016702 ], [ 124.11388874061025, 1.540947663711523 ], [ 124.378082989901358, 1.954013606953206 ], [ 124.767343146754669, 2.842200114367643 ], [ 124.919358806086365, 4.277419244074395 ], [ 124.920757386563096, 4.289006498372193 ], [ 124.922491441620437, 4.300547783556604 ], [ 124.924559500912764, 4.312033315362138 ], [ 124.926959810884455, 4.323453357247495 ], [ 124.929690336256797, 4.334798228645341 ], [ 125.041390336256796, 4.770837633797298 ], [ 125.044627370360303, 4.782710296421639 ], [ 125.048226505073188, 4.794477371012353 ], [ 125.052184341850761, 4.806127751608752 ], [ 125.056497143437724, 4.817650442985356 ], [ 125.061160837397182, 4.829034571013733 ], [ 125.06617101995613, 4.840269392907791 ], [ 125.071522960163705, 4.851344307342935 ], [ 125.077211604358538, 4.862248864439617 ], [ 125.083231580940819, 4.872972775601933 ], [ 125.0895772054443, 4.883505923202101 ], [ 125.096242485904227, 4.893838370101776 ], [ 125.103221128515187, 4.903960369001332 ], [ 125.110506543574118, 4.913862371608433 ], [ 125.160706543574122, 4.979938419320407 ], [ 125.168411919840793, 4.989758377706966 ], [ 125.176419067234576, 4.999332294948337 ], [ 125.183136920340374, 5.006873544874522 ] ], [ [ 126.622146919927076, 5.965011882657817 ], [ 126.626167779834162, 5.964624759733334 ], [ 126.638629911921271, 5.963027327849512 ], [ 126.648329911921252, 5.961628316812051 ], [ 126.660765041024405, 5.959633916049778 ], [ 126.673131164778098, 5.957247853903615 ], [ 126.685415981182999, 5.954472498909912 ], [ 126.697607269125413, 5.951310606082195 ], [ 126.709692900535217, 5.947765314195978 ], [ 126.721660852450896, 5.943840142695109 ], [ 126.733499218980199, 5.939538988222539 ], [ 126.745196223144276, 5.934866120778904 ], [ 126.756740228593657, 5.929826179512469 ], [ 126.768119751184216, 5.924424168144576 ], [ 126.779323470401692, 5.918665450034826 ], [ 126.790340240623635, 5.912555742890838 ], [ 126.80115910220718, 5.906101113127525 ], [ 126.811769292391801, 5.899307969881372 ], [ 126.822160256006299, 5.892183058685406 ], [ 126.832321655969324, 5.884733454810913 ], [ 126.842243383572665, 5.876966556282328 ], [ 126.851915568537777, 5.868890076571954 ], [ 126.861328588834667, 5.860512036981611 ], [ 126.870473080254158, 5.851840758718452 ], [ 126.87933994572343, 5.842884854672691 ], [ 126.88792036435612, 5.833653220905074 ], [ 126.89620580022715, 5.824155027852415 ], [ 126.904188010864758, 5.814399711259628 ], [ 126.911859055449938, 5.804396962847088 ], [ 126.919211302716221, 5.794156720722373 ], [ 127.470011302716216, 5.000353404399045 ], [ 127.476796705177122, 4.990243165387007 ], [ 127.483272174541483, 4.979930364960909 ], [ 127.489431712656199, 4.969424546656382 ], [ 127.495269614011633, 4.958735433129685 ], [ 127.50078047102663, 4.947872917184251 ], [ 127.505959179057399, 4.936847052638042 ], [ 127.51080094112605, 4.925668045040065 ], [ 127.515301272363772, 4.914346242244569 ], [ 127.519456004165292, 4.902892124851487 ], [ 127.523261288050122, 4.891316296521978 ], [ 127.526661288050121, 4.880418243197652 ], [ 127.530066636782806, 4.868899433197611 ], [ 127.533125990963029, 4.857283147134205 ], [ 127.5358365973742, 4.845579834551287 ], [ 127.538196016649849, 4.833800023850015 ], [ 127.540202125468625, 4.821954312825839 ], [ 127.558202125468625, 4.705064781000933 ], [ 127.55983987607506, 4.693268892878375 ], [ 127.561127412716715, 4.68142916917342 ], [ 127.562063597412973, 4.669556072877605 ], [ 127.563163597412967, 4.652356707392304 ], [ 127.563771317995219, 4.639749638336972 ], [ 127.563982948171954, 4.627129388880109 ], [ 127.563798277893696, 4.614508485255267 ], [ 127.563217490451336, 4.601899455024089 ], [ 127.562241162294072, 4.589314814635573 ], [ 127.560870262457215, 4.576767056993721 ], [ 127.55910615160056, 4.564268639046003 ], [ 127.556950580657684, 4.551831969404969 ], [ 127.554405689098203, 4.539469396015442 ], [ 127.551474002804341, 4.527193193879586 ], [ 127.548158431563792, 4.515015552852146 ], [ 127.544462266181682, 4.502948565518079 ], [ 127.540389175214486, 4.491004215164716 ], [ 127.335286331202155, 3.918886430520185 ], [ 128.789440735639914, 2.983653297496335 ], [ 128.800062084350998, 2.976576254519621 ], [ 128.810453408784383, 2.969162035320827 ], [ 128.82060412612401, 2.961418184066209 ], [ 128.83050389859477, 2.953352580525666 ], [ 128.840142643990902, 2.944973432078463 ], [ 128.8495105459439, 2.936289265385466 ], [ 128.858598063919885, 2.927308917736219 ], [ 128.86739594293573, 2.918041528079529 ], [ 128.875895222984951, 2.908496527746564 ], [ 128.884087248162388, 2.898683630875714 ], [ 128.891963675480071, 2.888612824548886 ], [ 128.899516483363556, 2.878294358649096 ], [ 128.906737979821685, 2.867738735449582 ], [ 128.91362081027998, 2.856956698944898 ], [ 128.920157965070985, 2.845959223934746 ], [ 129.045057965070981, 2.627994818125369 ], [ 129.051228985201135, 2.616817005664836 ], [ 129.057043033171965, 2.605447183923676 ], [ 129.062494214969206, 2.59389687443681 ], [ 129.067577004435634, 2.582177781995915 ], [ 129.072286248873183, 2.570301782800613 ], [ 129.076617174266573, 2.55828091243439 ], [ 129.080565390123013, 2.546127353677343 ], [ 129.084126893922928, 2.533853424168086 ], [ 129.087298075177699, 2.521471563927287 ], [ 129.090075719089668, 2.508994322755442 ], [ 129.092457009811341, 2.496434347517671 ], [ 129.09443953329972, 2.483804369328389 ], [ 129.096021279763789, 2.471117190648874 ], [ 129.097200645701719, 2.458385672310802 ], [ 129.097976435526647, 2.445622720478919 ], [ 129.132416350918817, 1.678570716886936 ], [ 129.407141408928993, 1.10023143573953 ], [ 130.581158419320161, 0.958433180915452 ], [ 130.971881101543545, 1.367444148753421 ], [ 130.980705099694262, 1.3763950224739 ], [ 130.989803771827241, 1.385062836836327 ], [ 130.999168160185548, 1.393439061251317 ], [ 131.008789045411248, 1.40151545222531 ], [ 131.018656955622021, 1.40928406146207 ], [ 131.028762175736404, 1.416737243673381 ], [ 131.039094757038328, 1.423867664091322 ], [ 131.049644526971747, 1.430668305674814 ], [ 131.060401099155683, 1.437132476003422 ], [ 131.071353883609788, 1.443253813851718 ], [ 131.082492097180278, 1.449026295437798 ], [ 131.093804774155984, 1.454444240339908 ], [ 131.105280777064451, 1.459502317075408 ], [ 131.11690880763669, 1.464195548336695 ], [ 131.128677417930618, 1.468519315878962 ], [ 131.140575021601677, 1.472469365055107 ], [ 131.152589905309611, 1.476041808993358 ], [ 131.164710240250571, 1.479233132413586 ], [ 131.176924093802683, 1.482040195078609 ], [ 131.189219441273707, 1.48446023487715 ], [ 131.201584177739733, 1.486490870535454 ], [ 131.214006129962456, 1.488130103954962 ], [ 131.226473068373906, 1.489376322173763 ], [ 131.238972719116731, 1.490228298949935 ], [ 131.251492776127833, 1.490685195965249 ], [ 131.264020913253887, 1.490746563648067 ], [ 131.27654479638656, 1.490412341614638 ], [ 131.28905209560574, 1.48968285872837 ], [ 131.301530497318254, 1.488558832777025 ], [ 131.313967716380944, 1.48704136976813 ], [ 131.326351508195501, 1.485131962843306 ], [ 131.338669680763417, 1.482832490812559 ], [ 131.350910106689099, 1.480145216309935 ], [ 131.363060735119547, 1.477072783572345 ], [ 131.375109603608564, 1.473618215843686 ], [ 131.387044849893812, 1.469784912406787 ], [ 131.398854723575425, 1.46557664524603 ], [ 131.410527597684563, 1.460997555343902 ], [ 131.42205198013005, 1.456052148615036 ], [ 131.433416525012689, 1.450745291481692 ], [ 131.444610043795365, 1.445082206094974 ], [ 131.455621516318331, 1.439068465206385 ], [ 131.466440101648544, 1.432709986694723 ], [ 131.477055148752981, 1.42601302775361 ], [ 131.487456206984461, 1.418984178745304 ], [ 131.508056206984492, 1.404586008257983 ], [ 131.518136133634044, 1.397304485753022 ], [ 131.527986395375081, 1.389711245366247 ], [ 131.537597480366657, 1.381813616577862 ], [ 131.546960107727358, 1.373619222787885 ], [ 131.55606523649729, 1.365135973968395 ], [ 131.564904074368314, 1.356372059038912 ], [ 131.573468086174415, 1.347335937972188 ], [ 131.581749002133506, 1.338036333637972 ], [ 131.589738825833194, 1.328482223392538 ], [ 131.597429841952447, 1.318682830422056 ], [ 131.604814623711803, 1.30864761484808 ], [ 131.611886040044965, 1.2983862646037 ], [ 131.618637262485038, 1.287908686089108 ], [ 132.382992087196072, 0.06008982085625 ], [ 132.429744644198593, 0.059200297139984 ], [ 132.447718603687093, 0.058450268044256 ], [ 132.585576822171959, 0.049562059249828 ], [ 134.042668420777943, 1.250378417977129 ], [ 134.052326507427694, 1.25808902574111 ], [ 134.062216484493888, 1.265495851358759 ], [ 134.072328924764065, 1.272591837112874 ], [ 134.082654188971844, 1.279370221557311 ], [ 134.093182434985295, 1.285824545949785 ], [ 134.10390362718843, 1.291948660396198 ], [ 134.114807546047274, 1.297736729700734 ], [ 134.125883797851174, 1.303183238916212 ], [ 134.137121824620266, 1.308282998589456 ], [ 134.14851091416935, 1.31303114969678 ], [ 134.160040210318812, 1.317423168264914 ], [ 134.171698723242969, 1.321454869673066 ], [ 134.183475339945574, 1.325122412632056 ], [ 134.195358834852783, 1.328422302836791 ], [ 134.20733788051345, 1.331351396288665 ], [ 134.219401058396841, 1.333906902284756 ], [ 134.231536869776392, 1.336086386071028 ], [ 134.243733746690822, 1.337887771157033 ], [ 134.255980062970622, 1.339309341289972 ], [ 134.268264145320217, 1.340349742086236 ], [ 134.280574284445038, 1.341007982318917 ], [ 134.292898746213069, 1.341283434860087 ], [ 134.305225782839813, 1.341175837276938 ], [ 134.317543644086328, 1.340685292081254 ], [ 134.329840588459746, 1.339812266631963 ], [ 134.342104894405452, 1.338557592690865 ], [ 134.354324871479889, 1.336922465631958 ], [ 134.400424871479885, 1.330023426477416 ], [ 134.412657214687471, 1.327996982994342 ], [ 134.424821156731241, 1.325589315099162 ], [ 134.436904971843745, 1.322802742610008 ], [ 134.448897011498246, 1.319639950437112 ], [ 134.460785715637371, 1.316103986001369 ], [ 134.47255962381692, 1.312198256304242 ], [ 134.484207386253445, 1.307926524651806 ], [ 134.495717774765126, 1.303292907036023 ], [ 134.507079693595557, 1.298301868176697 ], [ 134.518282190109687, 1.29295821722785 ], [ 134.529314465352172, 1.287267103152606 ], [ 134.540165884456997, 1.281234009770972 ], [ 134.550825986899497, 1.274864750485222 ], [ 134.56128449657993, 1.268165462687904 ], [ 134.571531331729545, 1.261142601857781 ], [ 134.581556614628937, 1.25380293534933 ], [ 134.591350681130223, 1.246153535881716 ], [ 134.600904089972943, 1.238201774733437 ], [ 134.610207631885146, 1.229955314649136 ], [ 134.619252338461109, 1.22142210246534 ], [ 134.628029490806455, 1.212610361462169 ], [ 134.636530627943131, 1.203528583448316 ], [ 134.644747554965591, 1.194185520586866 ], [ 134.652672350940406, 1.184590176969768 ], [ 134.660297376542019, 1.174751799949024 ], [ 134.667615281416658, 1.164679871232893 ], [ 135.544322417129848, -0.082320501738683 ], [ 136.040269401141728, -0.342413000334811 ], [ 136.051387234473594, -0.348470699805351 ], [ 136.062309006342446, -0.354879682896316 ], [ 136.073023768495119, -0.361633524277312 ], [ 136.083520780189986, -0.368725452871047 ], [ 136.554676266172805, -0.698045486900415 ], [ 138.008498378382171, -1.061735598226662 ], [ 138.774540126963302, -1.176416368901388 ], [ 138.787499476548419, -1.178576293199196 ], [ 138.800381224967197, -1.181164113031403 ], [ 138.813171430155535, -1.18417702635965 ], [ 138.825856249127526, -1.1876117708675 ], [ 138.838421952958015, -1.191464627494913 ], [ 138.850854941641558, -1.195731424467609 ], [ 138.863141758811878, -1.20040754181696 ], [ 138.875269106305609, -1.205487916385535 ], [ 138.887223858555444, -1.210967047312872 ], [ 138.898993076795875, -1.216839001995575 ], [ 140.295058808931515, -1.942285303645261 ], [ 140.712624532421017, -2.050416843564448 ], [ 140.724111940603564, -2.053575982223754 ], [ 140.735500596720357, -2.057078373053922 ], [ 140.746780369849347, -2.060920898167575 ], [ 140.757941225926686, -2.065100136900589 ], [ 140.768973236672736, -2.069612368861908 ], [ 141.022981838732278, -2.177969567199658 ] ], [ [ 140.727878584000933, -9.538618145826826 ], [ 140.71934964225872, -9.533349938786879 ], [ 140.708913920237478, -9.526443241561385 ], [ 140.698701880443792, -9.519214432691603 ], [ 140.688723599596102, -9.511670624836528 ], [ 140.67898892375149, -9.503819241108449 ], [ 140.669507458590147, -9.495668007832617 ], [ 140.660288559936873, -9.487224947008805 ], [ 140.651341324529255, -9.478498368481754 ], [ 140.642674581041547, -9.469496861827851 ], [ 140.634296881372819, -9.460229287965795 ], [ 140.626216492208584, -9.450704770499033 ], [ 140.585390263156455, -9.401014445150683 ], [ 139.387131627530152, -8.701934889532781 ], [ 139.026186842375864, -8.814863633193688 ], [ 139.013558961339157, -8.818587370732622 ], [ 139.000814476910165, -8.821894765397644 ], [ 138.987967256805547, -8.824782229664411 ], [ 138.975031280532306, -8.82724663159205 ], [ 138.962020624176063, -8.829285298185313 ], [ 138.948949445084367, -8.83089601826372 ], [ 138.935831966461848, -8.83207704483481 ], [ 138.922682461893146, -8.832827096969007 ], [ 138.909515239811412, -8.83314536117426 ], [ 137.66091523981143, -8.842835012258551 ], [ 137.648458333077059, -8.842738393922017 ], [ 137.636010519384513, -8.842255317185753 ], [ 137.623583915253363, -8.841386250730524 ], [ 137.611190616558133, -8.840132037729157 ], [ 137.598842686754267, -8.838493895037148 ], [ 137.586552145135869, -8.83647341202451 ], [ 137.574330955136247, -8.834072549049917 ], [ 137.562191012682717, -8.831293635578543 ], [ 137.550144134617511, -8.828139367945328 ], [ 137.538202047195455, -8.824612806765709 ], [ 137.526376374669496, -8.820717373996141 ], [ 137.514678627976139, -8.816456849647208 ], [ 137.503120193530776, -8.811835368152163 ], [ 137.491712322144195, -8.806857414394427 ], [ 137.480466118071433, -8.801527819397517 ], [ 137.469392528202832, -8.795851755681451 ], [ 137.458502331408653, -8.789834732289886 ], [ 137.447806128047034, -8.783482589492554 ], [ 137.437314329645602, -8.776801493167872 ], [ 137.427037148767397, -8.769797928870917 ], [ 137.416984589069841, -8.762478695592247 ], [ 137.407166435567234, -8.754850899213313 ], [ 137.397592245106551, -8.746921945664585 ], [ 137.388271337064538, -8.738699533792643 ], [ 137.379212784276632, -8.730191647942954 ], [ 137.370425404205491, -8.721406550265172 ], [ 137.361917750358202, -8.712352772748156 ], [ 137.353698103960454, -8.703039108992128 ], [ 137.345774465895687, -8.693474605725669 ], [ 137.338154548917174, -8.683668554075517 ], [ 137.33084577014057, -8.673630480597307 ], [ 137.323855243824084, -8.66337013807571 ], [ 137.317189774443705, -8.652897496102671 ], [ 137.310855850069714, -8.642222731442549 ], [ 137.304859636051361, -8.631356218193325 ], [ 137.299206969015557, -8.620308517753157 ], [ 137.293903351185662, -8.609090368601839 ], [ 137.288953945025611, -8.597712675906797 ], [ 137.284363568214872, -8.58618650096361 ], [ 137.280136688959061, -8.574523050481032 ], [ 137.276277421640515, -8.562733665720822 ], [ 137.272789522813554, -8.550829811502734 ], [ 137.269676387547804, -8.538823065085211 ], [ 137.266941046123577, -8.526725104932499 ], [ 137.264586161082178, -8.51454769937896 ], [ 137.262614024634161, -8.502302695201474 ], [ 137.261026556428334, -8.490002006111077 ], [ 137.259825301683009, -8.47765760117484 ], [ 137.259011429681919, -8.465281493179296 ], [ 137.258585732636192, -8.452885726946651 ], [ 137.258548624913033, -8.440482367615232 ], [ 137.258900142632655, -8.428083488895432 ], [ 137.259639943632777, -8.415701161312779 ], [ 137.260767307801984, -8.403347440449474 ], [ 137.262281137780519, -8.391034355196016 ], [ 137.294481137780508, -8.159101752770743 ], [ 137.296344893777359, -8.147039558694896 ], [ 137.298579063699719, -8.135039634247986 ], [ 137.301181545281764, -8.123113277622759 ], [ 137.30414988969099, -8.111271718747892 ], [ 137.307481303832418, -8.099526108690046 ], [ 137.311172652976779, -8.087887509126768 ], [ 137.315220463710091, -8.076366881900285 ], [ 137.319620927202237, -8.064975078662249 ], [ 137.475123725326711, -7.679936677679231 ], [ 137.940114633789307, -6.446129410794802 ], [ 137.760257389840319, -6.247600928148587 ], [ 137.752071556665754, -6.238276433245138 ], [ 137.744179086320173, -6.228701839639453 ], [ 137.736587594398372, -6.218886372700616 ], [ 137.729304406075329, -6.20883949045204 ], [ 137.722336549038062, -6.198570874496939 ], [ 137.715690746704354, -6.188090420726726 ], [ 137.709373411735299, -6.177408229821084 ], [ 137.431872738418519, -5.690870467030859 ], [ 136.594692879007852, -5.271594139425129 ], [ 136.175575621202682, -5.099884856863866 ], [ 135.263936851232472, -5.764678409505033 ], [ 135.297240837628266, -5.916983353774556 ], [ 135.299776643309031, -5.929537411051087 ], [ 135.301909528223064, -5.942166067265468 ], [ 135.303637303285484, -5.954856355627435 ], [ 135.304958195195496, -5.967595246959352 ], [ 135.305870848256603, -5.98036966309023 ], [ 135.30637432576799, -5.993166490296485 ], [ 135.313874325768012, -6.314572212750543 ], [ 135.313966403659236, -6.327561816457392 ], [ 135.313636350465174, -6.340547217896253 ], [ 135.31288451514007, -6.353514688188604 ], [ 135.311711692574448, -6.36645051846673 ], [ 135.310119122754486, -6.379341034366021 ], [ 135.308108489451342, -6.392172610476249 ], [ 135.305681918440683, -6.404931684736583 ], [ 135.302841975255348, -6.417604772759108 ], [ 135.224841975255345, -6.740843452817551 ], [ 135.222352813542614, -6.750612534017664 ], [ 135.17285281354259, -6.935072366679117 ], [ 135.169509987411686, -6.946806611438649 ], [ 135.165809687789135, -6.958432946721505 ], [ 135.161755374587301, -6.969940509512226 ], [ 135.157350838733777, -6.981318548599698 ], [ 135.152600198626914, -6.99255643459847 ], [ 135.147507896284822, -7.003643669853281 ], [ 135.142078693192104, -7.014569898217636 ], [ 135.045478693192109, -7.201695419469119 ], [ 135.039644348548478, -7.212577862610301 ], [ 135.033475511540587, -7.223274481817992 ], [ 135.026978093820873, -7.233775039753473 ], [ 135.020158321923617, -7.244069487471258 ], [ 135.013022731298122, -7.254147973995805 ], [ 135.005578160045559, -7.264000855706547 ], [ 134.99783174236606, -7.273618705522445 ], [ 134.989790901721932, -7.282992321877447 ], [ 134.981463343723732, -7.292112737478591 ], [ 134.972857048745681, -7.300971227838455 ], [ 134.963980264278433, -7.309559319574156 ], [ 134.954841497024944, -7.317868798465105 ], [ 134.945449504748751, -7.325891717262103 ], [ 134.932049504748761, -7.336984131152278 ], [ 134.922411441403881, -7.344714056508082 ], [ 134.912538300752971, -7.352142250005323 ], [ 134.90243954789787, -7.359261605822493 ], [ 134.892124864228805, -7.366065313936823 ], [ 134.881604138142592, -7.372546866592369 ], [ 134.87088745556315, -7.378700064479509 ], [ 134.859985090272403, -7.384519022620207 ], [ 134.848907494061081, -7.3899981759537 ], [ 134.693607494061098, -7.463838382531915 ], [ 134.682233004676107, -7.469029534094571 ], [ 134.670701196107586, -7.473862510341577 ], [ 134.659023383397795, -7.478332581225873 ], [ 134.647211024848502, -7.48243537203036 ], [ 134.635275710778302, -7.486166867613326 ], [ 134.623229152150031, -7.489523416304396 ], [ 134.611083169080075, -7.492501733447281 ], [ 134.59884967924026, -7.495098904586054 ], [ 134.586540686164312, -7.497312388292006 ], [ 134.574168267470014, -7.499140018628454 ], [ 134.56174456300846, -7.500580007251178 ], [ 134.549281762952518, -7.501630945142562 ], [ 134.536792095835722, -7.502291803977844 ], [ 134.524287816553709, -7.502561937122156 ], [ 134.511781194339562, -7.502441080257491 ], [ 134.499284500725224, -7.501929351638974 ], [ 134.486809997500757, -7.501027251980194 ], [ 134.47436992468289, -7.499735663967749 ], [ 134.461976488505144, -7.498055851405395 ], [ 134.449641849441065, -7.495989457988651 ], [ 134.437378110272277, -7.493538505710955 ], [ 134.425197304213299, -7.490705392902854 ], [ 134.413111383104336, -7.487492891906086 ], [ 134.362911383104347, -7.473305206320208 ], [ 134.350833936951346, -7.469685205365559 ], [ 134.338877047962455, -7.465686320657446 ], [ 134.327052642468203, -7.461312530404506 ], [ 134.315372514654399, -7.456568185919906 ], [ 134.303848314797705, -7.451458007328845 ], [ 134.292491537645475, -7.445987078911494 ], [ 134.01469153764549, -7.30669797494587 ], [ 134.004437657167671, -7.301368855452422 ], [ 133.994342580894795, -7.295745522957115 ], [ 133.984414770352885, -7.289832679752962 ], [ 133.974662546868757, -7.283635270434248 ], [ 133.965094084594909, -7.277158477792396 ], [ 132.943053123366695, -6.563010320501685 ], [ 132.315364065737043, -7.45776208915468 ], [ 132.068124685018461, -7.868588001288105 ], [ 132.061359073855385, -7.879426743466763 ], [ 132.054248424068135, -7.890043338191266 ], [ 132.046800047182472, -7.900426886310184 ], [ 132.039021601992062, -7.910566728783847 ], [ 132.030921086683378, -7.920452457570183 ], [ 132.022506830611405, -7.930073926250492 ], [ 132.013787485735122, -7.939421260384602 ], [ 132.004772017721052, -7.948484867585028 ], [ 131.995469696724342, -7.957255447300153 ], [ 131.570269696724381, -8.345272156015534 ], [ 131.560237982900276, -8.354118358874416 ], [ 131.549913889018853, -8.362624167976248 ], [ 131.539309041110783, -8.370780027548347 ], [ 131.520609041110788, -8.384668712742622 ], [ 131.505671124276432, -8.395240458435794 ], [ 131.349071124276435, -8.50075095178107 ], [ 131.33721189849777, -8.508438550248272 ], [ 131.325086467910381, -8.51570279736735 ], [ 131.088686467910406, -8.651680350035656 ], [ 131.07885954744026, -8.657149278392874 ], [ 131.068881577262658, -8.66234022941638 ], [ 131.001081577262653, -8.696408262937691 ], [ 130.989518065278901, -8.701987829705754 ], [ 130.977780079300828, -8.707194150577264 ], [ 130.965879779385574, -8.712021847868025 ], [ 130.957879779385564, -8.71511880460314 ], [ 130.946349853820379, -8.719379970407505 ], [ 130.934693486701264, -8.723285732864429 ], [ 130.922921738822112, -8.726832397104531 ], [ 130.911045780462274, -8.730016608076282 ], [ 130.899076880787135, -8.732835353688147 ], [ 130.887026397154472, -8.735285967629164 ], [ 130.874905764337655, -8.737366131865411 ], [ 130.862726483674976, -8.739073878810171 ], [ 130.850500112156055, -8.740407593165816 ], [ 130.838238251455238, -8.741366013435801 ], [ 130.78093825145524, -8.744962221653648 ], [ 130.767942546270064, -8.74556655537466 ], [ 130.754933949828313, -8.745749350807367 ], [ 130.741926272837418, -8.745510414513856 ], [ 130.728933325028777, -8.744849999341524 ], [ 130.715968900496335, -8.743768804158337 ], [ 130.703046763052072, -8.742267973121022 ], [ 129.818557903532877, -8.624959842468691 ], [ 128.553254442869132, -8.748060600372121 ], [ 128.540316799775724, -8.749108174444816 ], [ 128.527351766369691, -8.749736811593243 ], [ 128.514373044818058, -8.749945849589597 ], [ 128.501394351754186, -8.74973506822694 ], [ 128.488429403781254, -8.749104689548725 ], [ 128.475491902975989, -8.748055377617359 ], [ 128.462595522407298, -8.746588237821991 ], [ 127.68380451134361, -8.645191728818682 ] ] ] } }
]
}
